"name","code","localCode","address","lon","lat","num","quyu"
"天坛北门站","01010001","01001","天坛北门对面","116.411721592","39.8884139665","30","0101"
"地铁天坛东门南侧站","01010002","01002","天坛东门南侧50米","116.420529721","39.8832421902","40","0101"
"天坛南门公交站","01010003","01003","永定门东街 同仁堂东侧","116.417116391","39.8733196936","25","0101"
"永定门东大街站","01010004","01004","永定门东街公交站西侧","116.407284607","39.8730178664","25","0101"
"永定门东大街西站","01010005","01005","永定门东大街锦江之星楼前","116.404020466","39.8729487407","25","0101"
"幸福大街站","01010006","01006","幸福大街32号院北侧","116.431194678","39.8885054945","20","0101"
"广渠门内大街站","01010007","01007","广渠门内大街北侧 家乐福南侧","116.431328668","39.8939415125","25","0101"
"东花市大街东站","01010008","01008","东花市大街东口南侧","116.437992561","39.8976069557","34","0101"
"崇文门东大街站","01010009","01009","崇文门东大街与崇文门外大街交叉口西南角","116.422688487","39.9003819349","30","0101"
"地铁张自忠路A口站","01010010","01010","地铁张自忠路A出口","116.416684899","39.9337067731","30","0101"
"钱粮胡同东口站","01010011","01011","钱粮胡同口东口北侧","116.417306186","39.9281147129","25","0101"
"天坛西门站","01010012","01012","天坛西门对面","116.399997043","39.8811334609","35","0101"
"好润大厦站","01010013","01013","灯市口大街北侧","116.415478857","39.9187844523","25","0101"
"智德北巷东口站","01010014","01014","智德北巷东口北侧","116.406360362","39.9187786628","20","0101"
"大甜水井胡同西口站","01010015","01015","大甜水井胡同西口南侧","116.407821518","39.9120106792","30","0101"
"中国美术馆站","01010016","01016","五四大街美术馆西侧","116.408383989","39.9245421616","30","0101"
"地铁建国门C口站","01010017","01017","建国门地铁C出口","116.434346681","39.908211836","40","0101"
"地铁建国门A口站","01010018","01018","地铁建国门A出口","116.434017919","39.9095683241","40","0101"
"红星胡同东口站","01010019","01019","红星胡同东口北侧","116.426576712","39.9146186123","25","0101"
"大方家胡同站","01010020","01020","朝阳门社区服务中心对面","116.428373356","39.9192312938","30","0101"
"内蒙古大厦站","01010021","01021","崇文门内大街内蒙古大厦楼前","116.418440733","39.905160976","30","0101"
"地铁朝阳门B口站","01010022","01022","地铁朝阳门B口","116.433821009","39.9236216461","50","0101"
"地铁东四C口","01010023","01023","地铁东四C口","116.417881551","39.9241568559","40","0101"
"地铁东四十条D口","01010024","01024","地铁东四十条D出口","116.433406403","39.9331444222","50","0101"
"天坛饭店站","01010025","01025","体育馆路东口北侧天坛饭店门前","116.431053451","39.8843678963","30","0101"
"龙潭湖公园北门站","01010026","01026","龙潭公园北门","116.440047802","39.8814722418","30","0101"
"崇文工人文化馆站","01010027","01027","幸福大街崇文工人文化宫门前","116.431433296","39.8861082694","30","0101"
"北京玉器厂站","01010028","01028","光明路北侧北京玉器厂门前","116.435624159","39.8844575044","25","0101"
"电信工程站","01010029","01029","夕照寺街北口东侧 工程局电信营业厅门前","116.43999818","39.8922520924","30","0101"
"龙潭湖门诊部站","01010030","01030","夕照寺街南口东侧","116.440553943","39.8829644923","25","0101"
"龙潭路西口站","01010031","01031","龙潭路西口路北","116.403700589","39.8878501975","30","0101"
"天坛路鑫方盛站","01010032","01032","天坛路北侧3号楼前","116.421890723","39.8810541581","30","0101"
"长青园小区站","01010033","0033","长青园小区8号楼东北方向","116.428531534","39.8771402959","15","0101"
"红桥路口北东侧站","01010034","01034","崇文门外大街西塘街西口南","116.419186277","39.8900986385","25","0101"
"新文化纪念馆站","01010035","01035","五四大街新文化纪念馆前","116.405506257","39.9243617518","25","0101"
"南剪子巷北口站","01010036","01036","张自忠路南剪子巷北口西侧","116.411626287","39.9332856565","25","0101"
"地铁北新桥站","01010037","01037","地铁北新桥西北口西侧","116.416395483","39.9410458189","30","0101"
"地坛体育馆站","01010038","01038","和平里中街西口","116.409456271","39.9571886247","34","0101"
"安定门东大街东口站","01010039","01039","安定门东大街杰民移民前","116.428630598","39.9494650331","30","0101"
"和平里大酒店站","01010040","01040","和平里大酒店门前西侧","116.419790081","39.9591453103","30","0101"
"忠实里文汇中学站","01010041","01001","忠实里社区服务站门前","116.444856813","39.8974083322","29","0101"
"三利百货站","01010042","01042","安定门外大街三利百货门前","116.408534251","39.9526095106","30","0101"
"皇城国际站","01010043","01043","安定门外大街皇城国际门前","116.40832503","39.9555379621","30","0101"
"蒋宅口站","01010044","01044","安定门外大街安德里北街东口北侧","116.407843977","39.9578666223","25","0101"
"永安堂药店站","01010045","01045","安定门外大街皇城国际对面","116.4077824","39.9555439431","25","0101"
"交道口东大街西口站","01010046","01046","交道口东大街天客隆超市门前","116.409600093","39.9409513052","30","0101"
"民安街站","01010047","01047","东直门北小街民安街西口路南","116.425876407","39.9447630971","30","0101"
"地铁雍和宫C口站","01010048","01048","地铁雍和宫东南口","116.41717196","39.9491918664","40","0101"
"北花市大街北口站","01010049","01049","北花市大街北口西侧","116.42725472","39.8994144819","30","0101"
"白桥大街北口站","01010050","01050","如家酒店北侧","116.438793712","39.8993508311","30","0101"
"体育馆西门站","01010051","01051","新中街工人体育馆西门对面","116.439631729","39.9320108805","25","0101"
"春秀路站","01010052","01052","春秀路一号楼交通银行对面","116.44432622","39.9384519136","30","0101"
"新中街西里站","01010053","01053","新中街西里7号楼下","116.439792308","39.9350712844","30","0101"
"地铁东直门东北口站","01010054","01054","东直门立交桥东北侧","116.434483467","39.9418957602","25","0101"
"地铁东四十条B口站","01010055","01055","地铁东四十条B口东行50米","116.43616542","39.9339295147","30","0101"
"刘老根大舞台站","01010056","01056","前门东路刘老根大舞台对面","116.400906052","39.8939872033","30","0101"
"前门东路北口站","01010057","01057","前门东街便宜坊对面","116.401034998","39.8970623243","25","0101"
"工人体育馆北路站","01010058","01058","工人体育馆北门对面西侧","116.440756356","39.9339195722","30","0101"
"全新大药房站","01010059","01059","安定门内大街永康胡同西口南侧","116.408485627","39.9464338916","24","0101"
"国家林业局站","01010060","01060","和平里东街中国林业局门前天桥下","116.425460135","39.9561454575","25","0101"
"东四十二条站","01010061","01061","东四北大街东四十二条对面","116.417018973","39.9350183925","40","0101"
"向新西里西侧站","01010062","01062","左安门西街向新西里22号楼南侧","116.437106376","39.8725316349","30","0101"
"天泽祥菜市场站","01010063","01063","平安大街小街路口东150米北侧","116.42748846","39.9337999336","30","0101"
"外斜街南口站","01010064","01064","东直门外斜街南口东侧中国烟草门前","116.439878284","39.941351833","20","0101"
"大草厂胡同北站","01010065","01065","东皇城根南街大草厂胡同北侧","116.407019894","39.9206500416","25","0101"
"中国棋院站","01010066","01066","天坛东路南口中国棋院门前","116.421633547","39.8744210115","30","0101"
"龙潭公园西门站","01010067","01067","左安门内大街龙潭公园西门路对面","116.438924775","39.8763563967","30","0101"
"华侨大厦站","01010068","01068","东四西大街民航总局对面","116.412283388","39.9241465024","25","0101"
"美术馆后街北站","01010069","01069","美术馆后街中国美术院前","116.409092643","39.9317300155","50","0101"
"朝内小街口站","01010070","01070","朝阳门内大街139号前","116.424514436","39.9245903728","30","0101"
"新闻出版大厦站","01010071","01071","朝阳门内大街豆瓣胡同南口路西","116.431816931","39.925006317","30","0101"
"台湾饭店西侧站","01010072","01072","金鱼胡同19号楼前","116.41311598","39.9155754784","60","0101"
"财政局站","01010073","01073","东直门外大街十字坡街北口路东","116.439137924","39.9403170586","20","0101"
"和平里北街站","01010074","01074","和平里西街兴华东里14号楼东侧","116.418162938","39.9598490737","30","0101"
"兴隆街车站","01010075","01075","祈年大街茶食胡同东口北侧","116.412068731","39.8954547697","30","0101"
"金宝街东口北侧站","01010076","01076","金宝街东口北侧","116.434236376","39.9156908024","30","0101"
"东单体育馆站","01010077","01077","崇文门内大街北口西侧天桥下","116.417920587","39.9074879257","25","0101"
"祈年大街北口站","01010078","01078","前门东大街4号楼前","116.410547213","39.9006780287","40","0101"
"崇文门饭店站","01010079","01079","崇文门路口崇文门饭店前","116.418226087","39.900324207","40","0101"
"民安街东口站","01010080","01080","东直门桥北第一个天桥下西侧","116.433393801","39.9441126863","40","0101"
"安定门西南角站","01010081","01081","安定门桥西南角灵光胡同北口","116.407259753","39.9488263798","50","0101"
"体育馆路西站","01010082","01082","体育馆路6号前","116.423656047","39.8837928352","34","0101"
"光明桥西北角站","01010083","01083","光明路板厂南里3号楼前","116.441814424","39.8846421018","29","0101"
"天坛公园东北角站","01010084","01084","天坛公园东北角","116.419477724","39.8864452006","60","0101"
"玉蜓桥公园站","01010085","01085","永定门东大街东口南侧","116.420584209","39.8732657109","35","0101"
"和平里医院站","01010086","01086","和平里北街和平里医院对面","116.412797727","39.9593193441","50","0101"
"兴隆街西口站","01010087","01087","祈年大街东兴隆街西口路对面南侧","116.411975418","39.896827212","45","0101"
"天坛北门北西侧站","01010088","01088","祈年大街东晓市街西口对面南侧","116.412363727","39.8901823643","40","0101"
"和平里北街西口站","01010089","01089","和平里北街西口南侧","116.411827687","39.9589938235","39","0101"
"和平里路口西站","01010090","01090","和平里7区2号楼前","116.423381293","39.959545771","30","0101"
"安外北京人才大厦北侧站","01010091","01091","地坛西门对面","116.407838346","39.9533570457","45","0101"
"名酒城站","01010092","01092","朝内小街西200米路南","116.427688842","39.9246054733","30","0101"
"和平里南街东口站","01010093","01093","和平里东街和平里南街路口东北角","116.426060202","39.9543317934","55","0101"
"培新街站","01010094","01010094","培新街东口保利蔷薇园门前","116.438217732","39.891786929","25","0101"
"南花市大街崇外街道站","01010095","01001","西花市南里东区崇外街道办事处楼下","116.4274825","39.8945340873","35","0101"
"正义路站","01010096","01010096","正义路7号门前","116.406494238","39.9038824859","30","0101"
"北新桥三条西口站","01010097","01097","雍和宫大街北新桥三条西口北侧","116.416822944","39.9435163061","30","0101"
"龙潭北门西侧站","01010098","01010098","龙潭路龙潭北里六条对面","116.438178045","39.8810826985","55","0101"
"龙潭路站","01010099","01010099","龙潭路东四块玉南街北口东侧","116.424143249","39.8806637336","19","0101"
"前门街道站","01010100","01010100","前门东大街14号楼前","116.400936086","39.9001502855","25","0101"
"天坛东路南口站","01010101","01010101","天坛东路北京银行对面","116.420800797","39.8763434811","55","0101"
"中国黄金站","01010102","01010102","和平里北街西口路北","116.406351876","39.9593303589","25","0101"
"雍和宫大街站","01010103","01010103","雍和宫大街117号门前","116.416402908","39.9464077589","30","0101"
"金鱼池站","01010104","01010104","天坛路金鱼池中区东侧","116.408666245","39.888352715","25","0101"
"东直门医院站","01010105","01010105","海运仓东直门医院门前东侧","116.427895164","39.9365891203","29","0101"
"东直门内稻香村站","01010106","01010106","东直门内大街与小街路口西侧路北","116.423857871","39.9412420437","24","0101"
"俄罗斯大使馆站","01010107","01010107","东直门北中街北口西侧","116.428503501","39.9441040249","30","0101"
"金宝街东口南侧站","01010108","01010108","金宝街东口南侧","116.434246949","39.9151668751","25","0101"
"体育馆路口东北角站","01010109","01010109","体育馆路与体育馆西路路口东北角","116.425132421","39.8842289086","30","0101"
"李村公交车站站","01010110","01010110","李村公交车站北100米","116.413787288","39.8673485875","39","0101"
"琉璃井公交车站站","01010111","01010111","琉璃井公交车站北100米","116.414118343","39.8649577727","29","0101"
"南小市口街北口站","01010112","01010112","东花市大街人民法院报对面","116.430972925","39.89705395","40","0101"
"东中街站","01010113","01010113","王家园胡同与东中街路口东北角","116.436748261","39.9317807263","29","0101"
"北新仓胡同站","01010114","01010114","北新仓胡同东口路北","116.430500158","39.9403524676","29","0101"
"玉蜓桥北侧站","01010115","01010115","天坛东路南口西侧","116.420657858","39.8735729222","25","0101"
"体育馆西路北口站","01010116","01010116","体育馆西路北口东侧","116.423931987","39.8860451558","30","0101"
"北京京坛医院景泰路站","01010117","01010117","景泰路与安乐林路西南角","116.412991913","39.8650413519","29","0101"
"幸福大街南站","01010118","01010118","幸福大街原崇文政府南侧","116.431401674","39.8876410691","29","0101"
"红桥路口北西侧站","01010119","01010119","崇文门外大街新世界地产前","116.418569794","39.8880516348","30","0101"
"协和医院西门站","01010120","01010120","校尉胡同南口东侧","116.414192058","39.910946193","32","0101"
"正义路南口站","01010121","01010121","前门东大街正义路南口东南角","116.407073663","39.9005060016","34","0101"
"景山后街站","01010122","01010122","景山后街东口北侧","116.397324391","39.9288520728","34","0101"
"景山东街北口站","01010123","01010123","景山东街北口东侧","116.399661614","39.9282403817","23","0101"
"向新西里东站","01010124","01010124","左安门西街向新西里东侧","116.439033308","39.8724028935","32","0101"
"夕照寺中街站","01010125","01010125","夕照寺中街绿景馨园东区6号楼前","116.441432033","39.8893985384","67","0101"
"夕照寺中街东口站","01010126","01010126","夕照寺中街板厂新里81号楼前","116.44336203","39.8889975818","32","0101"
"左安门西街站","01010127","01010127","左安门西街消防支队门前东侧","116.432032394","39.8729312701","25","0101"
"安乐林路工商银行站","01010128","01010128","安乐林路工商银行东侧50米","116.410144968","39.8652748006","64","0101"
"地铁东四十条C口站","01010129","01010129","地铁东四十条东南角","116.435323641","39.933069774","32","0101"
"光明桥北站","01010130","01010130","光明东路1号院东侧","116.443504224","39.8876011982","28","0101"
"东直门北中街南口站","01010131","01010131","东直门北中街南口东侧","116.429129954","39.9418829822","30","0101"
"东直门中学站","01010132","01010132","东直门中学对面","116.42939561","39.9445143294","29","0101"
"北京站西街西口站","01010133","01010133","公交北京站西街西口站东侧","116.420620964","39.9030604177","30","0101"
"公交亮果厂站","01010134","01010134","北河沿大街嵩祝院北巷东口北侧","116.405334262","39.9308531255","40","0101"
"地铁灯市口A口站","01010135","01010135","地铁灯市口A口站","116.417179454","39.9181677993","30","0101"
"崇文门外大街北口站","01010136","01010136","崇文门内大街北口路东东单体育馆对面","116.418551827","39.9069311973","40","0101"
"地铁北新桥C口站","01010137","01010137","地铁北新桥C出口","116.417399255","39.9398242434","39","0101"
"北小街仓南胡同西口站","01010138","01010138","东四四条东口对面","116.427913974","39.9271847635","25","0101"
"东四十条小街路站","01010139","01010139","东四十条小街路口东南角60米","116.426833644","39.9332610521","30","0101"
"公交东四十条站","01010140","01010140","公交东四十条站西60米西侧","116.421654737","39.933114437","27","0101"
"光明楼公交车站站","01010141","01010141","光明路华普超市前","116.439180571","39.884669949","15","0101"
"东四十条125号站","01010142","01010142","张自忠路口东300米北侧","116.418938466","39.9340668766","28","0101"
"公交张自忠路站","01010143","01010143","段其瑞政府对面","116.415219856","39.9328799666","20","0101"
"东四十条青蓝大厦站","01010144","01010144","东四十条青蓝大厦对面","116.430797607","39.9339276878","23","0101"
"安外公交蒋宅口站","01010145","01010145","安外蒋宅口公交站东侧","116.408867677","39.9615182635","29","0101"
"安外中国石化报站","01010146","01010146","安外中国石化报出版社南侧","116.408319085","39.963635244","30","0101"
"朝内小街站","01010147","01010147","朝内小街西南角","116.425775512","39.923829736","27","0101"
"景山公园东门站","01010148","01010148","景山东街景山公园东门对面","116.399912368","39.9261372041","27","0101"
"先农坛公交车站北站","01010149","01010149","永定门内大街先农坛车站北侧","116.400577326","39.8776799897","30","0101"
"先农坛公交车站南站","01010150","01010150","永定门内大街先农坛车站南侧","116.400703054","39.8770429693","29","0101"
"地铁2号线东直门C口站","01010151","01010151","东直门桥东南角","116.434910656","39.9404326427","27","0101"
"五老胡同站","01010152","01010152","五老胡同垃圾清理站南侧","116.415145104","39.8964607631","20","0101"
"地铁磁器口D 出口站","01010153","01010153","磁器口西南角南50米","116.418430234","39.8923127338","25","0101"
"前门街道办事处站","01010154","01010154","珠市口东大街13号楼北侧","116.405058031","39.8927981642","15","0101"
"永外管村路站","01010155","01010155","管村路10号楼前","116.397278151","39.864138401","20","0101"
"安乐林路站","01010156","01010156","安乐林路天天家园社区","116.407655014","39.8648675269","20","0101"
"地铁朝阳门F口站","01010157","01010157","朝阳门地铁F口外","116.433909171","39.9263154645","25","0101"
"陶然亭桥站","01010158","01010158","陶然桥东南角","116.389067361","39.8704478268","35","0101"
"安乐林路西口站","01010159","01010159","安乐林路永外街道西侧","116.401716671","39.8656027088","20","0101"
"安乐林社区站","01010160","01010160","永外安乐林社区前","116.40856896","39.8638224517","15","0101"
"友谊医院站","01020001","0102080001","西经路北京友谊医院西门北侧","116.390142147","39.8857208132","35","0102"
"南横东街站","01020002","0102070002","南横东街与菜市口大街交叉口东北侧","116.374993445","39.8834101166","35","0102"
"牛街西里站","01020003","0102020003","枣林前街 牛街西里二区10号楼","116.360248398","39.8834454558","25","0102"
"广安口腔门诊站","01020004","0102080004","枣林前街中环广安门口腔门诊部","116.354226889","39.8834373427","20","0102"
"广安体育中心站","01020005","0102070005","南线阁街广安体育中心西门北侧","116.353418356","39.8874791544","35","0102"
"枣林前街站","01020006","0102020006","枣林前街与南线阁街交叉口西北侧","116.3522379","39.8834396035","45","0102"
"菜园街站","01020007","0102040007","菜园街一号院南侧","116.353576121","39.8816628931","20","0102"
"基业大厦站","01020008","0102040008","南线阁街基业大厦","116.353350982","39.8886182707","25","0102"
"油坊胡同站","01020009","0102040009","油坊胡同与北新平胡同交叉口东南侧","116.37739869","39.9057769385","40","0102"
"地铁车公庄E口站","01020010","0102010010","北礼士路与车公庄大街西北角","116.353299132","39.9328353747","40","0102"
"大观园西门站","01020011","0102040011","南菜园街 大观园西门南侧","116.354069119","39.8729698225","25","0102"
"消防总队站","01020012","0102020012","西直门南小街 北京消防总队门口南侧","116.3586084","39.9400789608","35","0102"
"西直门南小街站","01020013","0102050013","西直门南小街环境保护部对面（过街桥下）","116.359161536","39.9331543513","40","0102"
"北礼士路62号站","01020014","0102020014","北礼士路62号院1号楼","116.353552315","39.9293514347","30","0102"
"西直门南小街22号站","01020015","0102040015","西直门南小街22号楼前（北京燃气大厦）","116.35898861","39.937156635","30","0102"
"南运巷站","01020016","0102020016","枣林前街与广安门南街交叉口以东（南运巷3号楼前）","116.3507374","39.8832061369","30","0102"
"华北电力站","01020017","0102040017","广安门南街 国家电网华北电力交易中心西门北侧","116.350439566","39.888968493","45","0102"
"西城委员会站","01020018","0102080018","二龙路西街西城委员会西侧对面（停车场前）","116.36624186","39.9121658738","35","0102"
"京几道小区站","01020019","0102020019","中京畿道京几道小区南门东侧","116.368142092","39.9091658389","55","0102"
"二龙路站","01020020","0102020020","二龙路药妆大药房南侧","116.366885672","39.9095805904","35","0102"
"北礼士路站","01020021","0102020021","北礼士路北口西侧（靠近西直门桥）","116.352098451","39.9395692094","40","0102"
"西城财政局站","01020022","0102080022","丰盛胡同 西城财政局门口西侧","116.368207347","39.9185511497","40","0102"
"华远街站","01020023","0102050023","华远街北师大附属中学国际部东门北侧","116.371140389","39.9110420345","50","0102"
"宣武门西大街甲91号站","01020024","0102040024","宣武门西大街甲91号楼前（新华社南门西侧)","116.369729127","39.8998158528","55","0102"
"宣武门西大街4号站","01020025","0102020025","宣武门西大街4号楼前（北京环宇科苑中医研究所）","116.371080129","39.899376173","40","0102"
"椿树园站","01020026","0102020026","永光路椿树园9号楼对面","116.376521101","39.8950160648","35","0102"
"成方街站","01020027","0102040027","金融大街与成方街交叉口以北","116.359386396","39.9088241471","50","0102"
"信达大厦站","01020028","0102040028","闹市口大街中国信达大厦北侧","116.363049155","39.9037198134","40","0102"
"北纬路站","01020029","0102020029","北纬路与西经路交叉口以东（西经路49号院5号楼）","116.390544835","39.8835096858","30","0102"
"永安路站","01020030","0102070030","中国邮政永安路支局对面西侧","116.386932055","39.8861411292","35","0102"
"地铁菜市口A站","01020031","0102010031","地铁菜市口A出口","116.374099327","39.8903828236","50","0102"
"翔达大厦站","01020032","0102040032","广安门内大街翔达大厦","116.368362943","39.8894651158","30","0102"
"中信城站","01020033","0102020033","菜市口大街甲2号院3号楼","116.374637659","39.8854208704","60","0102"
"开元名都站","01020034","0102040034","菜市口大街中国开元名都大酒店","116.374245389","39.8869222082","40","0102"
"地铁陶然亭A口站","01020035","0102010035","菜市口大街 地铁陶然亭A出口北侧","116.37400613","39.8791987157","60","0102"
"信恒大厦站","01020036","0102040036","广安门内大街信恒大厦","116.361648428","39.8892223183","35","0102"
"春风社区西门站","01020037","0102020037","牛街春风社区西门北侧","116.363763397","39.8848924495","30","0102"
"地铁宣武门站","01020038","0102010038","宣武门西大街地铁宣武门D2出口南侧","116.374175306","39.8984031997","40","0102"
"粉子胡同站","01020039","0102040039","西单北大街与粉子胡同交叉口以北","116.373603643","39.9181274789","25","0102"
"灵境胡同站","01020040","0102010040","西单北大街 地铁灵境胡同D出口","116.373679183","39.9150854327","25","0102"
"关帝庙站","01020041","0102060041","阜成门内大街关帝庙南门东侧","116.367632146","39.9240013959","40","0102"
"地铁阜成门B口站","01020042","0102010042","阜成门内大街地铁阜成门B出口","116.35715154","39.9239188508","30","0102"
"西兴盛胡同站","01020043","0102050043","太平桥大街与西兴盛胡同交叉口以北(北京八中体育馆南侧）","116.362987273","39.9096618501","40","0102"
"西城晶华站","01020044","0102070044","太平桥大街西城晶华西门南侧","116.364797009","39.9217625487","60","0102"
"虎坊路站","01020045","0102040045","虎坊路2-3号楼（钱旺涮肉前面）","116.385007182","39.8877261469","40","0102"
"儒福里50号站","01020046","0102020046","菜市口大街乐秀商城对面南侧","116.374752017","39.8799466483","45","0102"
"西四南大街53号站","01020047","0102040047","西四南大街53号楼前（巴黎春天对面）","116.37349775","39.9216860075","50","0102"
"南菜园街站","01020048","0102030048","南菜园街1号楼对面（西城区地税局第二税务所斜对面）","116.353903909","39.8753950186","45","0102"
"粉坊琉璃站","01020049","0102020049","南横东街与粉坊琉璃街交叉口西侧","116.381659999","39.8834017414","25","0102"
"长椿里1号站","01020050","0102020050","长椿里一号楼前（都佳美超市对面西侧）","116.362605662","39.8945570857","40","0102"
"宣武医院站","01020051","0102040051","长椿街宣武医院对面","116.363683304","39.8905074154","30","0102"
"广内大街18号站","01020052","0102020052","广安门内大街18号院1号楼","116.364937636","39.8891352046","40","0102"
"高梁桥站  ","01020053","0102040053","高梁桥路与北展北街交叉口西南角（凯德mall商厦西门对面）","116.351713957","39.9416929372","55","0102"
"双旗杆路站","01020054","0102010054","双旗杆东里甲18号对面","116.388216222","39.9640167534","30","0102"
"黄寺大街站","01020055","0102040055","黄寺大街 中国国际商品交易基地对面","116.383381801","39.9629608472","30","0102"
"新风南里站","01020056","0102020056","新风街 新风南里16号北侧","116.37785697","39.9615845723","25","0102"
"新康路东口站","01020057","0102020057","德胜门外大街与新康路交叉口西北侧","116.378045346","39.9582236332","30","0102"
"北京师范大学站","01020058","0102050058","北京师范大学对面","116.371193519","39.9598983616","20","0102"
"新街口外大街站","01020059","0102020059","新街口外大街6-7号楼前","116.37084173","39.963580434","30","0102"
"新康路西口站","01020060","0102020060","新街口外大街与新康路交叉口东北侧","116.371850314","39.9581450907","30","0102"
"新康路站","01020061","0102030061","新康街2-3号楼前","116.372049867","39.9578205985","30","0102"
"第二炮兵总医院站","01020062","0102030062","第二炮兵总医院中医门诊西侧","116.371576728","39.9559768099","25","0102"
"教场口街站","01020063","0102020063","林家胡同与教场口街交叉口西南侧","116.380841264","39.953445494","35","0102"
"六铺炕街站","01020064","0102020064","六铺炕二巷与六铺炕街交叉口东南侧","116.387780764","39.9535670673","30","0102"
"六铺炕二巷站","01020065","0102020065","六铺炕三区甲1号楼前","116.38721451","39.951479074","30","0102"
"六铺炕一巷站","01020066","0102020066","六铺炕二区1号楼对面","116.390387598","39.951415855","30","0102"
"安德馨居站","01020067","0102020067","安德路 安德馨居北门东侧","116.38721451","39.951479074","30","0102"
"德胜门东滨河路站","01020068","0102020068","德胜门西滨河路 冰窖口胡同8号院5号楼前","116.375374662","39.9497000989","30","0102"
"新街口七条站","01020069","0102020069","东新开胡同与新街口七条交叉口东北侧","116.370427676","39.9467615995","30","0102"
"新华百货站","01020070","0102040070","德胜门西大街与新街口北大街交叉口南侧","116.372081237","39.9476713689","35","0102"
"地铁新街口B口站","01020071","0102010071","地铁新街口B出口北侧","116.368885713","39.9412279233","30","0102"
"地铁新街口D口站","01020072","0102010072","地铁新街口D出口西侧","116.367227835","39.9404980196","45","0102"
"南草场街站","01020073","0102020073","南草场街 冠英园西区24号楼西侧","116.364165296","39.9382595824","35","0102"
"地铁车公庄H口站","01020074","0102010074","车公庄大街 地铁车公庄H口东侧","116.353727959","39.932166307","30","0102"
"地铁车公庄西站B口站","01020075","0102010075","地铁车公庄西站B出口西侧","116.344799905","39.9325950714","40","0102"
"榆树馆胡同站","01020076","0102020076","展览馆路与西直门外南路交叉口东南侧","116.344295513","39.9357570705","40","0102"
"展览馆路站","01020077","0102020077","展览馆路19号西侧","116.344206152","39.9306686988","40","0102"
"展览馆路南口站","01020078","0102030078","展览馆路与百万庄大街交叉口东侧","116.344381298","39.9282469318","25","0102"
"外文局站","01020079","0102020079","百万庄大街 中国外文局对面","116.337987613","39.9282097181","40","0102"
"百万庄大街站","01020080","0102020080","百万庄大街17号院西侧","116.348729565","39.9282619528","30","0102"
"粮科大厦","01020081","0102030081","国家粮食局科学研究院门前","116.350801953","39.9282363432","45","0102"
"北潞园站","01020082","0102020082","展览馆路 北潞园1号北侧","116.343747206","39.9266553492","30","0102"
"大红罗厂站","01020083","0102020083","大红罗厂街与大拐棒胡同交叉口北侧","116.375681579","39.9276820479","30","0102"
"景山公园南门站","01020084","0102060084","景山西街与景山前街交叉口东侧","116.394517498","39.9232749277","30","0102"
"南礼士路北口站","01020085","0102070085","南礼士路阜成门快速公交站对面","116.35301866","39.9224821433","25","0102"
"国润大厦站","01020086","0102030086","阜成门外大街 国润大厦西侧","116.350386417","39.9232219416","35","0102"
"南礼士路站","01020087","0102020087","南礼士路与月坛北街交叉口东北侧","116.353341829","39.9199709791","30","0102"
"科学技术馆站","01020088","0102020088","月坛北街5号楼前","116.351091599","39.9185112699","35","0102"
"月坛北小街站","01020089","0102020089","月坛北街9号楼前","116.346605946","39.9185000467","30","0102"
"月坛北街站","01020090","0102020090","三里河东路与月坛北街交叉口西北侧","116.344657353","39.9185275462","30","0102"
"月坛北街西口站","01020091","0102040091","月坛北街15号楼前","116.34240867","39.9185002935","30","0102"
"银岛饭店站","01020092","0102040092","月坛南街32号楼前","116.34039666","39.9139511402","30","0102"
"月坛南街站","01020093","0102030093","月坛南街与三里河东路交叉口西北侧","116.3448755","39.9150917743","25","0102"
"二七剧场站","01020094","0102040094","月坛南街与二七剧场路交叉口东侧","116.346512699","39.9138955553","25","0102"
"儿童医院站","01020095","0102030095","月坛南街与南礼士路交叉口东南侧","116.353121903","39.9136011017","30","0102"
"中央人民广播电台站","01020096","0102020096","西便门外大街与真武庙二条交叉口北侧","116.351522731","39.9053741665","30","0102"
"真武庙三里站","01020097","0102020097","真武庙路四条与白云路交叉口东北侧","116.342954102","39.903663654","35","0102"
"白云路站","01020098","0102020098","白云观街北里与白云路交叉口西南侧","116.342241919","39.9020779551","35","0102"
"红莲南路站","01020099","0102020099","红莲南路与莲花河东侧路交叉口东北侧","116.337731465","39.8773827919","35","0102"
"南礼士路南口站","01020100","0102020100","南礼士路与乐道巷交叉口东南侧","116.352753503","39.9099592736","25","0102"
"天宁寺南里北门站","01020101","0102020101","天宁寺南里社区北门对面","116.34433285","39.8923119258","30","0102"
"富卓商厦站","01020102","0102020102","宣外大街与西草场街交叉口西南侧","116.374734161","39.8926003126","30","0102"
"手帕口桥站","01020103","0102050103","广安门外大街与手帕口北街交叉口西侧","116.341916384","39.8901427247","45","0102"
"广外医院站","01020104","0102030104","广安门外大街 莲花河北侧","116.331877742","39.8897473921","30","0102"
"华联商厦站","01020105","0102040105","广外大街182号楼前","116.33728538","39.8896503728","45","0102"
"广外大街站","01020106","0102070106","广安门外大街4号楼前","116.345401025","39.8893580027","30","0102"
"广安门外南滨河路站","01020107","0102030107","椿树馆街与广安门南滨河路交叉口北侧","116.348427994","39.8856491528","30","0102"
"红居街站","01020108","0102020108","红居东街与红居街交叉口南侧","116.33965773","39.8863996718","30","0102"
"红莲北里站","01020109","0102020109","马连道南街红莲北里9-2号楼前","116.331533778","39.8846884805","25","0102"
"红莲中里站","01020110","0102020110","马连道南街与红莲路交叉口西南侧","116.333549891","39.8844842643","40","0102"
"新年华购物中心站","01020111","0102040111","马连道路与红莲南路交叉口东南侧","116.328525151","39.8770129831","25","0102"
"鸭子桥南里站","01020112","0102020112","鸭子桥南里5号楼东侧","116.348994724","39.8761928314","30","0102"
"槐柏树南里站","01020113","0102020113","槐柏树南里1号楼前","116.354814838","39.8960686557","30","0102"
"金色夏日酒店站","01020114","0102020114","槐柏树街南里11号对面","116.352941799","39.8947969759","45","0102"
"广义街站","01020115","0102020115","广义街4号楼前","116.356815223","39.8930177348","30","0102"
"北线阁街站","01020116","0102030116","广安门内大街与北线阁街交叉口西北侧","116.353109131","39.8899774994","30","0102"
"牛街路口西站","01020117","0102070117","长椿街与广安门内大街交叉口西侧","116.363075969","39.8896075232","30","0102"
"通河巷西口站","01020118","0102020118","广安门南街与通河巷交叉口东北侧","116.351001803","39.8805319867","30","0102"
"樱桃三条站","01020119","0102020119","白广路与樱桃三条交叉口东北侧","116.35933465","39.8801891175","30","0102"
"中国地图出版社站","01020120","0102030120","白广路与白纸坊西街交叉口东北侧","116.359306685","39.8783752546","35","0102"
"白纸坊西街站","01020121","0102040121","白纸坊西街16号北侧","116.358840992","39.877756303","30","0102"
"北京卫生学校站","01020122","0102040122","南横西街96号院1号楼前","116.36683081","39.8831560302","20","0102"
"双槐里小区站","01020123","0102020123","南横西街 北京市西城区城市管理监察大队对面","116.371291538","39.8831552918","30","0102"
"三里河一区站","01020124","0102020124","月坛北街与三里河东路交叉口西南侧","116.344701928","39.9176871719","30","0102"
"西城区第二文化馆站","01020125","0102060125","菜市口大街 西城区第二文化馆北侧","116.374699677","39.8744068393","40","0102"
"陶然亭公园北门站","01020126","0102060126","陶然亭公园北门西侧","116.381553933","39.878824425","40","0102"
"东经路站","01020127","0102020127","东经路98号西南侧","116.393250873","39.8819028168","30","0102"
"南新华路站","01020128","0102020128","珠市口西大街与南新华路交叉口东北侧","116.384896996","39.8904753947","30","0102"
"一商大厦站","01020129","0102040129","马连道路11楼前","116.326514493","39.882718642","35","0102"
"赵登禹路站","01020130","0102020130","赵登禹281号南侧","116.367339263","39.9296060086","20","0102"
"交通委路政局站","01020131","0102030131","广安门内大街北京市交通委员会路政局门前","116.35477794","39.8897500742","30","0102"
"西便门东里站","01020132","0102020132","西便门内大街 西便门东里8号西侧","116.352874108","39.8995213826","35","0102"
"新风街站","01020133","0102040133","新街口外大街8-4西侧天桥下","116.370974068","39.9620235833","20","0102"
"西绒线胡同站","01020134","0102020134","西绒线胡同 西长安街街道公共服务大厅对面","116.383827352","39.9043043962","30","0102"
"公交德胜门西站","01020135","0102070135","德胜门西大街 公交德胜门西东侧","116.377845427","39.9493469418","40","0102"
"丰盛胡同站","01020136","0102030136","丰盛胡同 丰盛胡同39号楼对面","116.368447911","39.9186748225","30","0102"
"音像资料馆大厦站","01020137","0102030137","真武庙路与真武庙二条交叉口东北侧","116.346401106","39.9053716569","30","0102"
"桦皮厂胡同站","01020138","0102030138","桦皮厂胡同与西内大街交叉口东北侧","116.358946944","39.9405097513","30","0102"
"地铁北海北站","01020139","0102010139","地安门西大街 地铁北海北站B口南侧","116.388225891","39.9334087128","30","0102"
"前门西大街站","01020140","0102020140","前门西大街 前门西大街6号楼前","116.38773386","39.900096589","40","0102"
"太平街站","01020141","0102020141","北纬路与太平街交叉口东南侧","116.387530319","39.8831756087","25","0102"
"全国总工会站","01020142","0102030142","复兴门外大街 真武庙路1号院内","116.346060589","39.9066240925","35","0102"
"白纸坊东街站","01020143","0102020143","白纸坊东街 白纸坊东街18号北侧","116.364948768","39.8781674936","30","0102"
"红莲南里站","01020144","0102020144","红莲路 红莲南里2号楼西侧","116.3343951","39.8808142333","30","0102"
"农机大厦站","01020145","0102020145","手帕口南街与广安门车站西街交叉口西北侧","116.341502412","39.8838588167","30","0102"
"马连道北里站","01020146","0102040146","广安路与马连道路交叉口西南侧","116.326345185","39.8895792818","30","0102"
"广华轩站","01020147","0102020147","手帕口西街 广华轩4号楼西侧","116.339545341","39.8920062241","25","0102"
"广安胡同站","01020148","0102020148","广安胡同与老墙根街交叉口西南侧","116.36808639","39.8930592663","30","0102"
"人社局站","01020150","0102030150","永定门西街 北京市人力资源与社会保障局院内","116.390743861","39.8724223671","50","0102"
"后海西沿站","01020151","0102060151","后海西沿路 金帆俱乐部西侧","116.380451965","39.9438853219","20","0102"
"后海东沿站","01020152","0102060152","后海东沿路 火神庙北侧","116.395407541","39.937426413","30","0102"
"地铁平安里站","01020153","0102010153","西四北大街 地铁平安里地铁A口南侧","116.372824833","39.9344335126","50","0102"
"景山后街站","01020154","0102070154","景山后街与地安门内大街交叉口西南侧","116.395557234","39.9283532716","40","0102"
"北海公园站","01020155","0102060155","景山前街与北长街交叉口西北侧","116.39039219","39.9226162188","20","0102"
"地铁西四站","01020156","0102010156","西四北大街与西四东大街交叉口东北侧","116.374085213","39.9241378562","20","0102"
"国家发改委站","01020157","0102030157","月坛南街 国家发改委门前东侧 ","116.338223081","39.9139569236","35","0102"
"财政部站","01020158","0102030158","三里河南六巷与三里河南横街交叉口西南侧","116.341728891","39.9110708647","30","0102"
"鸭子桥路站","01020159","0102020159","鸭子桥路 鸭子桥路1号院6号楼对面","116.346829163","39.8760879344","25","0102"
"地铁和平门A口站","01020160","0102010160","宣武门东大街 地铁和平门A口北侧","116.382812528","39.9002691814","50","0102"
"煤市街站","01020161","0102040161","煤市街与廊坊头条交叉口东北侧","116.394425221","39.8974354279","35","0102"
"宣武门西大街西口站","01020162","0102020162","宣武门西大街 宣武门西大街22号楼前","116.359525751","39.8989845982","35","0102"
"天宁寺桥站","01020163","0102020163","广安门北滨河路与天宁寺东里交叉口东北侧","116.348103409","39.8964459364","35","0102"
"天宁寺东里站","01020164","0102020164","天宁寺东里2号楼前","116.348209161","39.8937802378","35","0102"
"地铁菜市口F口站","01020165","0102010165","骡马市大街 地铁菜市口F口南侧","116.375250574","39.8895312693","50","0102"
"水利部站","01020166","0102030166","白广路二条 水利局北门西侧","116.357608434","39.8861703444","50","0102"
"新农街站","01020167","0102020167","南纬路与新农街交叉口西南侧","116.396777064","39.8808306851","30","0102"
"官园胡同站","01020168","0102020168","平安里西大街 官园胡同1号楼前","116.362964809","39.9322137432","30","0102"
"地铁宣武门B口站","01020169","0102010169","宣武门东大街与宣内大街交叉口东南侧","116.374890312","39.9000931758","20","0102"
"灵境胡同西口站","01020170","0102040170","灵境胡同与西单北大街交叉口东北侧","116.374677043","39.9147636514","25","0102"
"公安大学站","01020171","0102040171","莲花池东路 华天大厦前","116.336152859","39.8975854513","25","0102"
"展览路医院站","01020172","0102020172","西外南路 展览路医院南侧","116.348804699","39.9370569706","25","0102"
"华堂大厦站","01020173","0102040173","右安门内大街 华堂商场西侧","116.364305359","39.8720321665","35","0102"
"核桃园西街站","01020174","0102020174","广安门北街与核桃园西街交叉口西南侧","116.350419128","39.8920376202","30","0102"
"南营房中街站","01020175","0102020175","南营房中街与月坛北小街交叉口西南侧","116.346228724","39.9216188988","40","0102"
"北京建筑大学站","01020176","0102050176","展览馆路 北京建筑大学东门北侧","116.343683674","39.9358464325","40","0102"
"如意里站","01020177","0102020177","北草厂胡同 如意里9号楼西侧","116.363859942","39.9431669422","30","0102"
"四根柏小学站","01020178","","赵登禹路 四根柏小学对面","116.368138295","39.9360292664","20","0102"
"地铁鼓楼大街站","01020179","0102010179","德胜门东大街 地铁鼓楼大街站E口东侧","116.393690664","39.9483710628","40","0102"
"塔园村站","01050001","5001","塔园外交公寓东门口前","116.450179707","39.9439108977","35","0105"
"幸福三村站","01050002","5002","新东路与东直门外大街交汇处","116.450710244","39.940223232","23","0105"
"三里屯酒吧街北口站","01050003","5003","卡塔尔大使馆签证处西门对面","116.455343839","39.9405780516","20","0105"
"东外大街东口站","01050004","5005","农展桥西南角","116.461382702","39.9407948697","29","0105"
"地铁农展馆站A口站","01050005","5004","地铁10号线农展馆站A口","116.462280724","39.9418060245","20","0105"
"安贞西里2号楼","01050006","8888","中轴路安贞西里小区西门","116.394844667","39.972438941","28","0105"
"三里屯路站","01050007","5006","三里屯路三点但商场对面","116.455453245","39.9368840456","30","0105"
"工体西路","01050008","5007","工体西路与工体北路交叉口","116.444135566","39.9334858224","45","0105"
"工体北门","01050009","5008","工人体育场北门对面","116.446138659","39.9339675302","20","0105"
"幸福村中路站","01050010","5009","幸福村中路锦绣运小区对面","116.44730535","39.9364249879","50","0105"
"幸福三村南站","01050011","5010","新东路三里屯小区35号西侧","116.450671903","39.9364174171","27","0105"
"安贞西里二区5号楼","01050012","8888","中轴路与健安东路交叉口","116.395005914","39.9752284431","32","0105"
"安贞西里一区2号楼","01050013","8888","健安东路安贞西里小区北口","116.398660848","39.975168086","28","0105"
"安贞西里一区29号楼","01050014","8888","安贞路与健安东路交叉口","116.402343337","39.9752154602","19","0105"
"地铁安贞门站","01050015","8888","地铁十号线安贞门站","116.407150172","39.9766252834","24","0105"
"安贞桥北","01050016","8888","安定路辅路金瓯大厦前","116.407282276","39.9731409768","28","0105"
"BRT安贞桥北站","01050017","8888","安定路辅路","116.407217323","39.9707431817","21","0105"
"地铁团结湖站A口北站","01050018","5011","团结湖地铁A口北","116.460858704","39.9350192362","20","0105"
"团结湖A","01050019","5012","团结湖地铁A口南","116.461061005","39.9339501094","20","0105"
"地铁团结湖站B口站","01050020","5013","团结湖地铁B口北","116.46209041","39.9347194082","20","0105"
"小关街51号楼","01050021","8888","安定路与北土城东路交叉口","116.407987304","39.9780758428","25","0105"
"惠新苑5号楼","01050022","8888","惠新西街惠新苑5号楼前天桥下","116.416705369","39.9880367605","24","0105"
"朝阳医院站","01050023","5016","朝阳医院东门对面","116.455167365","39.9262260194","20","0105"
"工体东南站","01050024","5017","工体东路工体南路交叉","116.450135246","39.9271839473","40","0105"
"小关北里214号楼","01050025","8888","安苑路小关北里214号楼","116.415235227","39.9832671149","23","0105"
"惠新里小区西门","01050026","8888","惠新西街","116.417703533","39.9805407917","24","0105"
"惠新西里2号院93号楼","01050027","8888","惠新西街辅路惠新西里2号院93号楼前","116.417244553","39.979059363","28","0105"
"工体西路南口站","01050028","5018","工体西路光彩国际公寓前","116.444273951","39.927069691","24","0105"
"工体南门站","01050029","5015","工体南门西南角","116.4462144","39.9267834595","30","0105"
"地铁朝阳门站A口站","01050030","5019","朝阳门地铁A口外","116.436754548","39.9247296122","40","0105"
"惠新里239号楼","01050031","8888","惠新西街与北土城东路交叉口","116.417740261","39.9787246307","24","0105"
"蓝岛西区站","01050032","5020","朝外大街蓝岛西区前","116.448727697","39.922824075","20","0105"
"神路街站","01050033","5021","神路街与朝外南街交叉口","116.4439239","39.9215103923","25","0105"
"南营房胡同西口站","01050034","5022","朝外市场街老番街南侧","116.441245745","39.9204794369","20","0105"
"日坛北路西口站","01050035","5023","日坛北路雅宝城对面","116.441351662","39.9176755499","20","0105"
"日坛北门站","01050036","5024","日坛北门路侧","116.443697963","39.9176826294","20","0105"
"日坛东路北口站","01050037","5025","朝阳区财政局对面路侧","116.447011518","39.9176586426","24","0105"
"地铁呼家楼站D口","01050038","8888","地铁呼家楼站H口","116.458868002","39.9231719011","24","0105"
"地铁亮马桥D口","01050039","5115","地铁亮马桥站D口","116.461224313","39.9486662606","39","0105"
"地铁亮马桥A口北站","01050040","5114","金茂斯汀酒店对面","116.461420182","39.9501315731","34","0105"
"新源街VOLVO","01050041","5112","新源里南路与新源街交界","116.455258694","39.9484599057","30","0105"
"新源街路口","01050042","5111","新东路与新源南路交界（新源东里12号楼前）","116.449720279","39.9478617466","25","0105"
"新东路路口","01050043","5110","新东路与东直门外斜街交界（新源西里中街2号楼后）","116.445973474","39.9499086054","30","0105"
"地铁金台夕照D口站","01050044","5026","地铁10号线金台夕照D出口外","116.461424037","39.915381856","30","0105"
"香河园路","01050045","5108","左家庄东街与香河园路交叉口","116.448223669","39.9543449718","33","0105"
"永安里路口北站","01050046","5014","光华西里小区西门","116.45072246","39.9116973899","37","0105"
"地铁惠新西街北口站","01050047","8888","北土城东路与惠新西街交叉口","116.41689251","39.9769117387","24","0105"
"北四环东路104号楼","01050048","8888","北四环东路华堂大厦东侧","116.422124373","39.9886120461","24","0105"
"惠新里20号楼对面","01050049","8888","安苑路惠新里20号楼对面","116.421365716","39.9834927136","25","0105"
"新源街北口站","01050050","5054","新源街北口新源街35号楼前","116.453834327","39.9517737346","39","0105"
"三元西桥东南","01050051","5106","三环与静安西街交叉口（三元西桥东南角）","116.447993231","39.9617401164","35","0105"
"国际展览中心","01050052","5105","静安西街展览中心对面","116.445577218","39.9613741003","35","0105"
"天虹百货","01050053","5104","左家庄东街与静安西街交叉口","116.443527848","39.9590147415","25","0105"
"华都饭店站","01050054","5056","京城大厦西侧","116.452685122","39.947830674","39","0105"
"豪成大厦","01050055","5102","左家庄中街豪城大厦前，左家庄南里11号楼对面","116.44204811","39.9549507766","24","0105"
"左家庄中街","01050056","5101","左家庄中街与左家庄西街交界（左家庄南里16号楼前）","116.439934369","39.9548142843","38","0105"
"左家庄北里8号楼","01050057","5100","左家庄西街路上左家庄北里8号楼","116.439806954","39.9569855638","39","0105"
"左家庄街道办事处","01050058","5113","左家庄街道办事处北300米","116.448684154","39.9509447762","20","0105"
"燕丰商场","01050059","5043","柳芳北街与左家庄西街交叉口","116.439608568","39.9594805767","30","0105"
"三元西桥","01050060","5098","三环与静安西街交界（国展中心后面）","116.446126368","39.9629183721","35","0105"
"西坝河中里","01050061","5097","三环与西坝河南路交界（西坝河中里1号楼后）","116.442135169","39.9656146393","50","0105"
"小庄路口北","01050062","5095","呼家楼南里25号楼前","116.469466418","39.9169665319","40","0105"
"金台西路南口","01050063","5096","朝阳路与金台路交界","116.469639025","39.9187873941","50","0105"
"东直门外斜街","01050064","5109","左家庄西街与东直门外斜街交界（新源西里7号楼后）","116.444596497","39.9486923895","29","0105"
"呼家楼地铁C口东","01050065","5094","呼家楼北街11号楼前","116.465062156","39.923114747","35","0105"
"甜水园西里","01050066","5090","甜水园北里45#楼前","116.481860471","39.9281514017","29","0105"
"三元东桥西站","01050067","5055","牛王庙7号楼前","116.457950943","39.9529090438","29","0105"
"甜水园东街南口","01050068","5089","朝阳北路与甜水园东街交叉路口","116.484126529","39.923143518","40","0105"
"朝阳公园南门","01050069","5088","朝阳公园南路与马道口路交叉路口东南角","116.482293751","39.9335101161","20","0105"
"甜水园路北口","01050070","5087","朝阳公园南路与甜水园路交叉路口西南角","116.477615554","39.9335006505","50","0105"
"朝阳法院","01050071","5086","朝阳公园南路朝阳法院西侧","116.474708947","39.933502354","34","0105"
"三元桥东北角站","01050072","5028","东三环北路南银大厦前","116.457701183","39.9560025557","50","0105"
"三元东桥站","01050073","5029","三环辅路与霄云路交叉口","116.459686628","39.954733242","50","0105"
"三元庵站","01050074","5030","霄云路与东方东路交叉口","116.463009964","39.957064832","42","0105"
"麦子店西街站","01050075","5033","霄云路与天泽路交叉口鹏润大厦对面","116.465737101","39.9599312655","27","0105"
"天泽路站","01050076","5031","安家楼路与天泽路交叉口东北角","116.468344459","39.9543787699","49","0105"
"世纪剧场","01050077","5084","亮马桥路世纪剧场北","116.471987993","39.9523074855","23","0105"
"258大中电器","01050078","5032","农展馆北路258电器大世界门前","116.472012017","39.9449453275","25","0105"
"枣营南里社区","01050079","8888","枣营南里社区健身园","116.473657925","39.9442277322","29","0105"
"姚家园路","01050080","5061","姚家园天客隆","116.465036371","39.9287933168","19","0105"
"水碓子中街南口","01050081","5063","摩码大厦","116.472579262","39.9233375262","45","0105"
"团结湖公园东门","01050082","5062","团结湖公园东门","116.466961672","39.925715129","40","0105"
"垂杨柳中街","01050083","8888","垂杨柳中里10号楼前","116.455801948","39.8883716646","38","0105"
"苹果社区西门","01050084","8888","百子湾南二路苹果园社区西门左侧","116.467197054","39.897366113","40","0105"
"麦乐迪KTV对面","01050085","5081","东三环（麦乐迪KVT对面）","116.461931131","39.8984617326","43","0105"
"大中电器","01050086","5080","双井桥西南角大中电器前过街天桥下","116.459010485","39.8931546372","40","0105"
"广泉小区","01050087","5079","广渠门外大街与广和路交叉口","116.450512454","39.893068703","42","0105"
"惠林路南口东","01050088","5078","广渠门外大街与垂杨柳中街交叉口","116.456474876","39.8938206745","20","0105"
"地铁双井A口东","01050089","5077","双井地铁A口","116.460761978","39.8936807884","24","0105"
"惠新东桥南","01050090","8888","惠新东街1号楼前","116.424022308","39.9872727025","19","0105"
"珠江帝景站","01050091","5060","广渠路双井家乐福超市西南角","116.47425501","39.8935251201","30","0105"
"惠新东街北","01050092","8888","惠新东街富盛大厦前","116.424125059","39.9852886226","23","0105"
"惠新怡园","01050093","8888","惠新东街辅路","116.424273067","39.9823825129","22","0105"
"对外经贸大学","01050094","8888","惠新东街辅路紫光发展大厦对面","116.424572814","39.9810299749","30","0105"
"垂杨柳医院站","01050095","5051","垂杨柳南街垂杨柳东里17号楼前","116.459862825","39.8878534369","32","0105"
"光明桥东站","01050096","5052","劲松嘉园广和南里二条16号院","116.45025947","39.8847742374","30","0105"
"光明桥东北角站","01050097","5053","劲松路光和南里1号楼前","116.447945271","39.8847835264","30","0105"
"北土城路","01050098","8888","惠新东街与北土城东路交叉口西北","116.424203979","39.9773581102","25","0105"
"北京西藏中学","01050099","8888","四环与高原街口交叉口","116.430565429","39.9888112682","23","0105"
"地铁劲松站D口北","01050100","5074","劲松路与东三环交叉口，劲松桥西南角","116.46031025","39.8842404477","40","0105"
"潘家园东里社区东门站","01050101","5059","潘家园路与华威路交叉口东北角","116.456144909","39.8771736939","24","0105"
"地铁劲松站A口","01050102","5064","地铁劲松站A口","116.460386563","39.8846935163","28","0105"
"劲松中街北口站","01050103","5045","劲松中街北口","116.456352009","39.8867502272","24","0105"
"劲松四区北楼","01050104","5072","劲松路劲松四区北口以东5米","116.454229497","39.8843704226","36","0105"
"劲松中街站","01050105","5046","劲松中街劲松四区东门","116.456152417","39.884143917","25","0105"
"华威北里北口站","01050106","5047","东三环辅路与劲松南路交叉口","116.458947766","39.8816025885","25","0105"
"劲松南站","01050107","5048","劲松南路与劲松六区东门","116.446699157","39.8817029007","34","0105"
"劲松南路西口","01050108","5073","劲松工商银行前","116.446699157","39.8817029007","29","0105"
"潘家园东路北口","01050109","5071","劲松路与广和东街交界西侧","116.449708955","39.8844301561","37","0105"
"劲松桥东","01050110","5075","南磨房路西段（华韩整形医院前）","116.465556482","39.8842281935","20","0105"
"武圣路北口","01050111","5076","南磨房路与武圣北路交界","116.467649362","39.8832187989","19","0105"
"平乐园站","01050112","5049","南磨房路与西大望路交叉口","116.475109223","39.8841935633","33","0105"
"劲松桥南站","01050113","5050","东三环与南磨房路交叉口","116.461585517","39.8839550682","28","0105"
"华威西里北门","01050114","5067","潘家园路与华威路交叉口（建设银行前）","116.452664745","39.8761656068","30","0105"
"潘家园路西口站","01050115","5034","东二环南路潘家园26号楼西侧","116.450474592","39.8763357089","34","0105"
"潘家园路西口","01050116","5043","东二环南路潘家园26号楼西侧","116.445963829","39.8763263212","25","0105"
"潘家园街道","01050117","8888","武圣路与双龙路交界","116.467640369","39.8727004638","32","0105"
"松榆东里社区西口站","01050118","5035","武圣东路朝阳管委路口","116.472466885","39.8742209784","19","0105"
"武圣东路社区北口站","01050119","5036","松榆北路与武圣东路交叉口","116.472196251","39.8758431088","40","0105"
"松榆东里社区东口站","01050120","5037","松榆南路与武圣东里交叉口","116.472132298","39.8719575518","19","0105"
"松榆北路东口","01050121","5063","松榆北路与西大望路交叉口","116.476847432","39.8762105804","40","0105"
"松榆东里东口南","01050122","5057","松榆北路与西大望路交叉口南","116.477149335","39.8739050892","30","0105"
"松榆东里19号楼","01050123","5065","松榆北路与双龙路交叉口","116.477144043","39.8719910685","39","0105"
"朝阳公园西门","01050124","5038","朝阳公园路","116.474676769","39.937395396","34","0105"
"松榆里社区西口站","01050125","5039","松榆北路西口松榆里25号楼北侧","116.468817168","39.8760276142","38","0105"
"武圣西里5号楼","01050126","5040","武圣路武圣东里社区对面","116.467642074","39.8788750523","28","0105"
"武圣东里社区西门站","01050127","5058","武圣路武圣东里社区53号楼前","116.46782182","39.8770324928","29","0105"
"世纪嘉园","01050128","8888","小关世纪嘉园正门北侧","116.40989784","39.9825997909","26","0105"
"建业苑小区","01050129","5069","东三环与松榆北路交叉口（潘家园桥东南角）","116.463860917","39.8761065869","40","0105"
"潘家园旧货市场","01050130","8888","潘家园路旧货市场北门路北岗亭西侧","116.459569386","39.8763281745","28","0105"
"华威路北口站","01050131","5041","劲松南路与华威路交叉口","116.456213708","39.8814095766","29","0105"
"潘家园东路","01050132","5061","潘家园东路福满多超市前","116.450946643","39.8799521843","20","0105"
"肿瘤医院西门站","01050133","5042","潘家园南里社区西门北侧","116.444929815","39.8745001247","25","0105"
"潘家园路西口站","01050134","5043","东二环南路潘家园26号楼西侧","116.446451416","39.8780484029","38","0105"
"潘家园桥东北角","01050135","5044","东三环农光南里10号楼前","116.46153356","39.8784001391","30","0105"
"三元桥西北","01050136","8888","三元桥西北静安东里3号楼前","116.450990471","39.9597482691","27","0105"
"高原街7号院2号楼","01050137","8888","高原街7号院2号楼","116.427526939","39.9860955889","23","0105"
"惠新东街乙8号","01050138","8888","惠新东街乙8号楼前","116.427352681","39.9836086219","31","0105"
"胜古家园","01050139","8888","东三环金丰华家常菜门口","116.409655087","39.9692904791","25","0105"
"胜古北里7号楼","01050140","8888","惠新西街胜古北里7号楼前","116.417390201","39.9737725725","23","0105"
"和平西桥","01050141","8888","三环和平西桥西北侧","116.417625757","39.9703348956","28","0105"
"胜古东里2号楼","01050142","8888","北三环与樱花园东街交叉口","116.423504999","39.9695588109","18","0105"
"中日友好医院","01050143","8888","中日友好医院3号门","116.424781992","39.9750537924","19","0105"
"樱花东街11号楼","01050144","8888","樱花园东街","116.42466875","39.9710507838","25","0105"
"樱花园中街3号楼","01050145","8888","北三环与樱花园东街交叉口","116.425313061","39.9696046308","27","0105"
"地铁和平西桥站","01050146","8888","五号线地铁和平西桥站东南口南侧","116.418316268","39.9680337887","24","0105"
"和平街八区","01050147","8888","青年沟路和平街八区18号楼前","116.409115444","39.9620611229","26","0105"
"和平里十一区7号楼","01050148","8888","和平里东街和平里10区7号楼","116.424752671","39.9671573802","25","0105"
"和平街十区站","01050149","8888","和平里东街和青年沟路交叉口西北角","116.424676873","39.9622275753","23","0105"
"和平里十四区1号楼","01050150","8888","和平里北街和和平里东街交叉口","116.425326484","39.9596509477","24","0105"
"和平里北街东口","01050151","8888","和平里北街和平里十四区13号楼前","116.429330618","39.9595958092","23","0105"
"和平街十三区20号楼","01050152","8888","青年沟路和平街十三区20号楼","116.431260819","39.9622574701","26","0105"
"地铁柳芳站","01050153","8888","东土城路8号林达大厦路西北侧","116.432302311","39.9561885009","24","0105"
"西坝河西里19号楼","01050154","8888","香河园七圣路","116.435835405","39.9676333408","25","0105"
"西坝河中里38号楼","01050155","8888","香河园七圣路西坝河中里大门右侧","116.438225049","39.962777817","19","0105"
"七圣路新华书店","01050156","8888","香河园七圣路新华书店","116.439592965","39.961173777","20","0105"
"朝外街道办事处","01050157","8888","三环与西坝河南路交界（西坝河中里1号楼后）","116.449649589","39.9204737469","27","0105"
"地铁三元桥C2出口","01050158","8888","十号线地铁三元桥C2出口","116.459042429","39.9611597663","20","0105"
"朝阳区投资服务大厅","01050159","8888","霄云里南街朝阳区投资服务大厅门前","116.463486951","39.9616517368","20","0105"
"嘉里大通中心北","01050160","8888","霄云路与天泽路交叉口东北角","116.466133906","39.9598980208","14","0105"
"工体北路中","01050161","8888","工体北路与新东路东北角","116.450739265","39.9342781744","25","0105"
"工体东路东","01050162","8888","工体东路工体南路交叉","116.452226418","39.9335078727","28","0105"
"三里屯路南口","01050163","8888","三路屯路与工体北路交叉口东北角","116.45584948","39.9338879104","20","0105"
"工体北路外交公寓","01050164","8888","工体北路外交公寓天桥下","116.458299209","39.9339185244","25","0105"
"朝阳公园路南口","01050165","8888","朝阳公寓南路与朝阳公园路交叉口西北角","116.471637622","39.933932064","21","0105"
"南三里屯路","01050166","8888","南三里屯路社区东门","116.455306552","39.9292527749","29","0105"
"八十中","01050167","8888","白家庄路八十中对面","116.459161141","39.9285775752","24","0105"
"地铁东大桥站B口","01050168","8888","地铁六号线东大桥站B口","116.453189297","39.923549062","21","0105"
"地铁呼家楼站","01050169","8888","地铁十号线呼家楼东南口（朝阳剧场门前）","116.462080302","39.9223640348","30","0105"
"地铁金台路站东南口","01050170","8888","地铁六号线金台路东南出口","116.478462723","39.9227407222","30","0105"
"金台夕照B","01050171","8888","地铁十号线金台夕照B口","116.462023675","39.9173212526","25","0105"
"潘家园社区服务大厅","01050172","8888","松榆西里68号楼北侧","116.461797285","39.8732051884","38","0105"
"朝阳路","01050173","8888","朝阳路柴家湾5号楼前","116.480432252","39.9153777585","20","0105"
"方庄体育公园北门站","01060001","01","方庄体育公园北门西侧","116.428298735","39.8683446221","30","0106"
"方庄体育公园西门站","01060002","02","方庄体育公园西门南侧","116.426539838","39.8672076009","30","0106"
"顶秀金石家园站","01060003","03","顶秀金石家园东门","116.430910982","39.8372836334","30","0106"
"芳古园二区西门站","01060004","04","芳古园二区西门南门","116.426486004","39.8689755719","30","0106"
"芳群路北口站","01060005","05","芳群路北口华储宾馆对面","116.426276295","39.8707057795","25","0106"
"方安苑站","01060006","06","方庄南路北口路西","116.438588583","39.8577277995","29","0106"
"方庄环岛站","01060007","07","方庄环岛东北角家乐福前","116.431949106","39.8660718075","50","0106"
"芳城园一区站","01060008","08","芳城园一区四号门对面","116.434351846","39.8684652721","30","0106"
"地铁蒲黄榆A口站","01060009","09","地铁蒲黄榆A口北侧","116.421329955","39.8668148812","33","0106"
"丰台体坛医院站","01060010","10","芳城路丰台体坛医院对面","116.437486085","39.8684610833","30","0106"
"芳城东里站","01060011","11","方庄路芳城东里西门便道北侧","116.439316818","39.8672875361","30","0106"
"横七条站","01060012","12","横七条11号楼2号院对面","116.42376623","39.8533453604","34","0106"
"东方医院东门站","01060013","13","东方医院东门北侧","116.433749342","39.8643256923","30","0106"
"蒲芳路西口站","01060014","14","蒲芳路西口工行前东侧","116.426107807","39.8655778946","30","0106"
"芳群园二区西门站","01060015","15","芳群园二区西门南侧","116.426737358","39.8639064206","24","0106"
"方庄办事处站","01060016","16","方庄办事处东侧链家地产前","116.427666346","39.8617745819","30","0106"
"东铁营桥联通站","01060017","17","东铁营桥东北角联通门口","116.434802174","39.8572426331","19","0106"
"紫芳园六区站","01060018","0106040018","南三环辅路 紫芳园六区南门西侧","116.443164618","39.8592490355","40","0106"
"方庄社区服务中心站","01060019","19","方庄社区服务中心传达室北侧","116.425277348","39.8639001474","14","0106"
"刘家窑路站","01060020","20","刘家窑路社区卫生服务中心门前西侧","116.415687325","39.8621292615","30","0106"
"东铁营一中站","01060021","21","刘家窑路东铁营一中对面","116.419580892","39.8620991169","35","0106"
"十八中站","01060022","22","群星路芳星园三区3号楼前","116.435884056","39.8622839201","29","0106"
"顺八条站","01060023","23","顺八条丰台第一幼儿园对面","116.425278086","39.8497159855","35","0106"
"政馨园一区站","01060024","24","顺八条东口南侧政馨园一区北门","116.433330091","39.8495080603","23","0106"
"横一条北口站","01060025","25","横一条北口东侧南方庄5号楼西","116.432436604","39.8575088615","50","0106"
"政馨园三区站","01060026","26","政馨园三区门前南侧","116.430759678","39.844608517","30","0106"
"公交草桥站","01060027","27","南三环草桥公交站西侧","116.358688492","39.8535365088","30","0106"
"翠庭园站","01060028","28","方庄南路南口路西翠庭园7号前","116.438940665","39.8474512054","24","0106"
"四方景园三区站","01060029","29","方庄南路四方景园三区2号楼西侧","116.43893769","39.8560508945","30","0106"
"贾家花园站","01060030","30","光彩路北京汽车光彩体育馆对面","116.414539211","39.8537488913","25","0106"
"地铁宋家庄D1口站","01060031","31","地铁宋家庄D1口北侧","116.42820201","39.8443125771","40","0106"
"顺四条站","01060032","32","顺四条实验动物资源中心","116.43108637","39.8540818657","21","0106"
"地铁蒲黄榆B口站","01060033","33","地体蒲黄榆B口外","116.423117837","39.865702114","34","0106"
"蒲黄榆路站","01060034","34","蒲黄榆路与刘家窑路交叉口西南角","116.421644746","39.8614166145","29","0106"
"天创公馆站","01060035","35","芳群路南口天创公馆前","116.428095698","39.8595467704","25","0106"
"西罗园路站","01060036","0106020036","西罗园路京仁医院对面","116.388054733","39.8608479946","30","0106"
"中国评剧院站","01060037","0106020037","西罗园路中国评剧院","116.3918668","39.8606879322","25","0106"
"西罗园体育场站","01060038","0106020038","西罗园路 西罗园体育场东门","116.394190629","39.8594408126","25","0106"
"角门北路东口站","01060039","0106070039","角门北路东口路南","116.386263153","39.8497250615","24","0106"
"角门北路站","01060040","0106040040","角门北路美廉美超市对面","116.380855989","39.8505404374","29","0106"
"国家食品研究院站","01060041","0106070041","马家堡东路国家食品研究院前","116.38701291","39.8488684858","25","0106"
"角门东里19号站","01060042","0106020042","马家堡东路角门东里19号楼","116.386329639","39.8461314075","32","0106"
"马家堡东路94号站","01060043","0106040043","马家堡东路94号楼前","116.386887913","39.8471914647","37","0106"
"山西大厦站","01060044","0106020044","马家堡路山西大厦北侧","116.383468384","39.8587001187","20","0106"
"洋桥北里站","01060045","0106020045","西罗园北路街道办事大厅西侧","116.383791702","39.8639838635","20","0106"
"北京南站路东口站","01060046","0106070046","北京南站路东口路南","116.386321455","39.8655191645","30","0106"
"佑安医院站","01060047","0106080047","玉林西路佑安医院","116.35428638","39.8657732507","33","0106"
"玉林小区站","01060048","0106020048","玉林西路玉林小区北门南侧","116.354657717","39.8632588416","29","0106"
"地铁刘家窑A口站","01060049","0106040049","地铁5号线刘家窑站A口东侧","116.42149637","39.8578887281","35","0106"
"华商科技大厦站","01060050","0106040050","右安门外大街华商科技大厦","116.36453365","39.8591272505","45","0106"
"开阳里三区站","01060051","0106020051","开阳里三街开阳里三区北门西侧（北京瑞隅公司对面)","116.365548393","39.8650165673","30","0106"
"开阳里六区站","01060052","0106020052","开阳里三街开阳里六区北门","116.368706635","39.8656868268","29","0106"
"开阳里八区站","01060053","0106020053","开阳里三街东口开阳里八区东北角","116.373660347","39.8654692702","35","0106"
"右安门外大街东站","01060054","0106040054","南二环与右安门外大街交叉口天客隆超市","116.365430031","39.8693484259","30","0106"
"马家堡东路55号站","01060055","0106040055","马家堡东路55号楼前","116.386308204","39.8550740429","40","0106"
"顺四条西站","01060056","0106020056","顺四条37号院1号楼前","116.427251231","39.8543333953","29","0106"
"东庄7号楼站","01060057","0106020057","南站幸福路东庄7号楼前","116.379235569","39.8680488087","40","0106"
"右安门外大街站","01060058","0106040058","右安门外大街与南二环交叉口工商银行","116.364973459","39.867335531","39","0106"
"光彩路站","01060059","0106040059","光彩路贾家花园3号院19号楼","116.414747028","39.8503214235","35","0106"
"角门北里站","01060060","0106020060","角门北路速八酒店前西侧","116.37366879","39.8505121668","34","0106"
"晨光小区站","01060061","0106020061","晨光小区东门对面南侧","116.376399108","39.8493776283","35","0106"
"马家堡中路站","01060062","0106020062","马家堡西里东门北侧","116.376581757","39.8523096194","30","0106"
"玺萌丽苑站","01060063","0106020063","嘉园路红旗中医院门前","116.364784111","39.8506020314","35","0106"
"镇国寺北街6号院站","01060064","0106020064","镇国寺北街6号院门口南侧","116.362286695","39.8448517366","34","0106"
"玺萌公馆站","01060065","0106020065","嘉园路玺萌公馆东门南侧","116.364819271","39.8420192924","34","0106"
"城南嘉园站","01060066","0106020066","公益西街城南嘉园（BHG华联商厦对面)","116.366637989","39.8351444982","35","0106"
"丰台区纳税局站","01060067","0106040067","嘉园路丰台区纳税局","116.3652958","39.8393068833","33","0106"
"马家堡街道办事处站","01060068","0106020068","嘉园路马家堡街道办事处","116.365292261","39.8428856724","28","0106"
"角门西地铁站","01060069","0106010069","嘉和路嘉园三里甲一号楼（天外天烤鸭店对面）","116.369379305","39.8460351562","30","0106"
"城一区二号门站","01060070","0106020070","芳城路城一区二号门西侧","116.431485665","39.8685202015","28","0106"
"星河苑站","01060071","0106020071","马家堡西路星河苑前","116.370697862","39.8384388782","25","0106"
"马家堡西路站","01060072","0106040072","马家堡西路26号院前过街桥下","116.371222294","39.8423219754","34","0106"
"龙珠公寓站","01060073","0106020073","芳古路龙珠公寓西门南侧","116.430590241","39.8702017301","35","0106"
"成寿寺中街站","01060074","0106020074","成寿寺中街四方景园5号楼前","116.441956891","39.8541585974","30","0106"
"科技园26号院站","01060075","0106040075","科技园区外环西路26号院广场","116.281035403","39.8236503631","35","0106"
"富丰桥站","01060076","0106040076","南四环西路与富丰路交叉口西南角","116.286753017","39.835963245","49","0106"
"科技园十六区站","01060077","0106040077","丰台科技园十六区小广场西北角","116.290868843","39.8268290537","28","0106"
"科技园十六区南站","01060078","0106040078","丰台科技园十六区12号楼西侧","116.292418018","39.8259284025","48","0106"
"科技园五区站","01060079","0106040079","丰台科技园五区1号楼南侧","116.286681542","39.8251589578","25","0106"
"科技园三区站","01060080","0106040080","丰台科技园三区12号楼前","116.284135095","39.8248653235","29","0106"
"科技园十二区站","01060081","0106040081","丰台科技园十二区31号楼前","116.285093342","39.8206312938","29","0106"
"科技园十八区站","01060082","0106040082","丰台科技园十八区12号楼前","116.292216252","39.8205003487","40","0106"
"方南家园站","01060083","0106040083","横七条 方南家园南侧","116.424322202","39.8516965119","36","0106"
"科技园十区站","01060084","0106040084","丰台科技园十区9号楼前","116.279703696","39.8198958209","25","0106"
"科技园六号院站","01060085","0106040085","丰台科技园6号院23号楼","116.281451011","39.8254403778","60","0106"
"华冠商场站","01060086","0106040086","枫竹苑北路华冠商场前","116.377808114","39.8359003986","39","0106"
"医科大附中站","01060087","0106020087","首都医科大学附属中学南门对面","116.366052068","39.8586395806","19","0106"
"宝汇苑站","01060088","0106020088","南三环路宝汇苑南门西侧","116.390832714","39.8573048899","33","0106"
"立业大厦站","01060089","0106040089","马家堡东路立业大厦前","116.386766008","39.8524043094","30","0106"
"紫芳园站","01060090","0106020090","紫芳园一区南门东侧","116.443026126","39.864326369","34","0106"
"科技园八区西门站","01060091","0106040091","丰台科技园八区西门站","116.28449605","39.8226922483","44","0106"
"铁营医院站","01060092","0106040092","横七条铁营医院东门北侧","116.423868382","39.8565414167","29","0106"
"丰台二小站","01060093","0106050093","向阳街 丰台第二小学西门南侧","116.291683354","39.8415737556","20","0106"
"新华街西口站","01060094","0106080094","新华街 新华街社区卫生站前","116.286944667","39.8419864591","30","0106"
"新华街六里站","01060095","0106020095","新华街 新华街六区北门东侧","116.290455059","39.8430740332","30","0106"
"地铁丰台南路A口站","01060096","0106010096","丰台南路 地铁丰台南路A2出口西侧","116.295444673","39.8420022864","30","0106"
"新华街二里站","01060097","0106020097","新华街二里北侧","116.293734823","39.8442819557","25","0106"
"丰益花园站","01060098","0106020098","丰管路 丰益花园南侧","116.308089551","39.858066951","35","0106"
"地铁泥洼站","01060099","0106040099","前泥洼路与丰管路交叉口东南侧","116.304126142","39.857677803","30","0106"
"泥洼路北口站","01060100","0106030100","泥洼路 交通支队对面","116.300143899","39.8650788956","30","0106"
"文体路站","01060101","0106030101","文体路 区政府南100M路西","116.286303892","39.8578681109","30","0106"
"近园路站","01060102","0106030102","近园路 东方丽人医院前","116.284302437","39.8616056426","30","0106"
"丰华苑站","01060103","0106020103","近园路与庄维路交叉口东北侧","116.288784129","39.8616677376","35","0106"
"东安街头条东口站","01060104","0106040104","东安街头条东口顺天府超市前","116.282214641","39.8493281235","30","0106"
"丰台医院站","01060105","0106080105","西安街 丰台医院东门北侧","116.279017899","39.8484928379","30","0106"
"地铁东大街A口站","01060106","0106010106","地铁东大街A出口南侧","116.293555114","39.8554826862","30","0106"
"正阳大街站","01060107","0106040107","正阳大街 苏宁电器前","116.284940197","39.8474886672","25","0106"
"永善里小区站","01060108","0106020108","文体路 永善里小区东门北侧","116.286171177","39.849585378","20","0106"
"丰台南路站","01060109","0106020109","丰台南路 丰台南路116号院4号楼前","116.28961064","39.8410859969","30","0106"
"韩庄子站","01060110","0106020110","恒富街 韩庄子三里2号楼","116.291829842","39.838532295","30","0106"
"丰台生态主题公园站","01060111","0106060111","科兴路 丰台科技园生态主题公园西门","116.293680947","39.8393009272","30","0106"
"彩虹街区站","01060112","0106020112","丰台南路 彩虹街区北门","116.302242034","39.841333866","30","0106"
"鸿业兴园站","01060113","0106020113","丰台南路 鸿业兴园二区2号楼","116.305619011","39.8402540689","30","0106"
"丰台第7中学站","01060114","0106030114","丰台南路 新村街道办事处前","116.307847099","39.8393876891","40","0106"
"首经贸西门站","01060115","0106010115","樊羊路 首经贸西区东门南侧","116.312671246","39.8400369528","30","0106"
"首经贸北门站","01060116","0106010116","首经贸北门东侧","116.316296829","39.8444032779","30","0106"
"地铁首经贸站","01060117","0106010117","芳菲路 地铁首经贸站万年花城东门","116.319592757","39.8446044999","35","0106"
"汇丰家园站","01060118","0106020118","樊羊路 汇丰家园对面","116.313475604","39.8490427598","30","0106"
"纪家庙路北口站","01060119","0106040119","纪家庙路 天兰天尾货批发市场北侧","116.326095983","39.8490088334","25","0106"
"京石宾馆站","01060120","0106040120","莲宝路 京石宾馆西侧","116.307328356","39.8900450007","30","0106"
"六里桥南路站","01060121","0106030121","六里桥南路 首发大厦西门南侧","116.307815872","39.8791654937","30","0106"
"丰体北门站","01060122","0106030122","丰体北路 丰台体育中心北门东侧","116.278945516","39.8682843308","30","0106"
"望园路站","01060123","0106030123","望园路 中国邮政储蓄银行门前","116.287018188","39.8663544332","25","0106"
"地铁六里桥A口站","01060124","0106010124","广安路 地铁六里桥站A出口东侧","116.302066417","39.8805071509","30","0106"
"六里桥西贝站","01060125","0106020125","京石高速辅路 西贝餐厅南侧","116.305456439","39.8826914463","30","0106"
"保利·百合花园站","01060126","0106020126","西局西路 保利·百合花园北门东侧","116.30509729","39.8781922916","30","0106"
"天使食府站","01060127","0106070127","广安路 天使食府西南侧","116.318710084","39.8884800102","30","0106"
"芳城园二区东门站","01060128","0106020128","芳星路 芳城园二区东门北侧","116.433599607","39.8673387757","20","0106"
"蒲黄榆二里站","01060129","0106020129","桃杨路 蒲黄榆二里前","116.418127993","39.8697163744","20","0106"
"戏曲学校站","01060130","0106050130","马家堡中路 戏曲学校西门","116.376976667","39.855596018","25","0106"
"地铁刘家窑C口站","01060131","0106010131","榴乡路 地铁刘家窑C口西侧","116.42221105","39.8566299347","40","0106"
"丰台房屋经管所站","01060132","0106030132","文体路 丰台房屋经管所对面","116.286132843","39.8525303464","30","0106"
"游泳场北路站","01060133","0106020133","游泳场北路 游泳场北路11号院前","116.290386866","39.8552139196","30","0106"
"造甲村南里站","01060134","0106070134","丰台南路353公交站南侧","116.299186112","39.8421740807","30","0106"
"地铁七里庄站G口站","01060135","0106010135","东大街 七里庄地铁站G出口南侧","116.294422969","39.8652977897","25","0106"
"北大地商场站","01060136","0106020136","西四环南路 北大地商场北侧农商银行前","116.283276622","39.8576467111","25","0106"
"北大地一里站","01060137","0106020137","西四环 北大地一里东门北侧","116.282951235","39.8541225607","30","0106"
"莲怡园二区站","01060138","0106020138","莲宝中路 莲怡园二区东门","116.299116737","39.8852114844","25","0106"
"世纪金色家园站","01060139","0106030139","右安门东滨河路 世纪金色家园北门","116.371947297","39.869749862","40","0106"
"日月天地站","01060140","0106020140","左安门西滨河路 日月天地前","116.43327742","39.8706928854","30","0106"
"307医院站","01060141","0106080141","东大街 307医院西门","116.294271461","39.8624611807","30","0106"
"万丰路华堂商场站","01060142","0106040142","万丰路 华堂商场北侧","116.294221381","39.8682681291","40","0106"
"国润大厦站","01060143","0106030143","西四环南路辅路 国润大厦西侧","116.281608319","39.8697697556","30","0106"
"小井润园二区西门站","01060144","0106020144","望园东路 小井润园二区西门","116.288917476","39.8732553783","40","0106"
"大井东里站","01060145","0106020145","大井东街 大井东里小区南门","116.275159717","39.8694232781","25","0106"
"轨道公司站","01060146","0106020146","南四环 公交恋日嘉园站北侧 ","116.362736876","39.8317707126","40","0106"
"地铁西局站","01060147","0106040147","地铁西局A口西侧","116.302599745","39.8663513359","30","0106"
"地铁丰台南路A1口站","01060148","","丰台南路 地铁丰台南路A1口东侧","116.295936534","39.8418909069","30","0106"
"看丹路8号院站","01060149","","看丹路 看丹路8号院前","116.282214786","39.8396682471","35","0106"
"看丹路西口站","01060150","","看丹路西口北侧","116.279516708","39.8394004207","30","0106"
"莲怡园东路站","01060151","0106020151","莲怡园东路 六里桥9号院前","116.302836333","39.8829156458","25","0106"
"大井南里站","01060152","0106010152","大井路 大井南里东侧","116.27367433","39.8660153335","25","0106"
"莲花池南里站","01060153","0106020153","莲花池南路 莲花池南里北侧","116.315897731","39.8887222333","30","0106"
"向阳街站","01060154","0106040154","向阳街 广联超市前","116.290310999","39.8446471721","30","0106"
"丰台南路西口站","01060155","0106070155","丰台南路西口路南","116.287237339","39.8406418202","30","0106"
"玉林东里站","01060156","06156","右安门外大街与玉林南路交叉口西北角","116.363877116","39.8627200534","49","0106"
"莲花池南路站","01060157","0106030157","莲花池南路 丰台园林局东侧","116.312623076","39.8889607037","30","0106"
"七里庄路站","01060158","0106020158","七里庄路 七里庄甲18号院对面","116.291920192","39.8592225038","30","0106"
"建国街站","01060159","0106020159","建国街 建国街二里北门","116.292023408","39.8464637923","35","0106"
"宛平城东门站","01060160","06160","宛平城东门北侧","116.230037993","39.8520828238","18","0106"
"宛平城西门南站","01060161","06161","宛平城西门南侧","116.222523018","39.8504840291","10","0106"
"宛平城西门北站","01060162","06162","宛平城西门北侧","116.222338501","39.8509103533","10","0106"
"宛平城城南街站","01060163","06163","宛平城城南街西口南侧","116.223571991","39.8494601738","30","0106"
"公交抗战雕塑园站","01060164","06164","卢沟桥南路 抗战雕塑园公交站西侧","116.230054004","39.8486217189","52","0106"
"首发大厦站","01060165","0106030165","西三环南路 北京市纪检委前","116.310860647","39.8790833584","30","0106"
"丰台永旺站","01060166","0106040166","丰葆路 永旺梦乐城北侧","116.290428637","39.8179986081","30","0106"
"草桥东路1号站","01060167","0106070167","草桥东路 草桥公交站北侧","116.35954928","39.8519077534","20","0106"
"草桥欣园小区站","01060168","0106020168","草桥东路 欣园小区十八号院西门南侧","116.359335067","39.8442045633","30","0106"
"地铁草桥B口站","01060169","0106010169","镇国寺北街 草桥地铁站B口东侧","116.352795137","39.8459545843","45","0106"
"草桥小学站","01060170","0106050170","草桥欣园四区南门东侧","116.351220846","39.8423338021","30","0106"
"春园西门站","01060171","0106020171","小屯路 春园西门北侧","116.253189297","39.8910113088","20","0106"
"博龙佳园西门站","01060172","0106020172","小屯路 博龙家园西门北侧","116.253251145","39.8947924613","30","0106"
"芳园南门站","01060173","0106020173","大成路 芳园居委会东侧","116.259638986","39.8896448192","30","0106"
"青塔西里6号院站","01060174","0106020174","青塔西里6号院南门东侧","116.265856332","39.8939436324","30","0106"
"长安新城站","01060175","0106040175","青塔西路 大成集团长安新城商业中心东侧","116.264423199","39.8885222725","35","0106"
"梅市口路站","01060176","0106020176","青塔西路与梅市口路交叉口东北侧","116.265091955","39.8809646659","30","0106"
"红木大观园站","01060177","0106040177","岳各庄北路 岳各庄北路红木大观园南侧","116.274389264","39.8836338278","30","0106"
"美域家园北区南门站","01060178","0106040178","小屯路与大屯路交叉口西北侧","116.251910855","39.8754838334","30","0106"
"兴隆灯饰站","01060179","0106040179","广安路 兴隆灯饰批发市场北侧","116.28012207","39.8734177988","30","0106"
"双林苑南门站","01060180","0106020180","双林南路 双林苑南门西侧","116.254445767","39.8722822633","30","0106"
"看丹南路站","01060181","0106020181","看丹南路与看杨路交叉口西南过街天桥下","116.271608863","39.8345679132","35","0106"
"公益西桥东站","01060182","0106030182","南四环中路 公益西桥东侧路桥公司东侧过街天桥下","116.374361702","39.8317432674","15","0106"
"嘉金大厦站","01060183","0106070183","南站幸福路 嘉金大厦南侧","116.373757587","39.8674704077","30","0106"
"卢沟桥文化中心站","01060185","0106030185","西四环南路与大井东街交叉口西南侧","116.280119716","39.8705866809","20","0106"
"定安路站","01060186","0106020186","定安路 工商银行门前","116.413961961","39.8596945049","30","0106"
"东大街西里站","01060187","0106020187","东大街 东大街西里东侧","116.293915358","39.8643316045","30","0106"
"小屯路北口站","01060188","0106020188","小屯路5号院7号楼南侧","116.252598447","39.8930075589","25","0106"
"青塔五街站","01060189","0106020189","大成路与青塔五街交口西南侧西20M","116.255970794","39.8894288177","30","0106"
"丰体时代大厦站","01060190","0106040190","丰体南路 丰体时代大厦南侧","116.269479128","39.8656882445","40","0106"
"双城公寓站","01060191","0106040191","南三环中路 木樨园桥东国美电器前","116.406284223","39.8573647588","35","0106"
"地铁七里庄B口站","01060192","0106070192","万丰路 七里庄地铁站B口南侧","116.294625708","39.8675832147","20","0106"
"美域家园南区南门站","01060193","0106020193","兴源路 美域家园19号楼南侧","116.250191523","39.8722447401","30","0106"
"美域家园南区北门站","01060194","0106020194","大屯路 美域家园南区北门西侧","116.249662852","39.8754135581","30","0106"
"珠江峰景站","01060195","0106020195","青塔西路 青塔西路58号院18号楼西侧","116.264764266","39.8784704715","30","0106"
"西府景园站","01060196","0106020196","梅市口路 西府景园南门西侧 ","116.269928551","39.8812440463","35","0106"
"丰台党校站","01060197","0106050197","程庄路 丰台区委党校东门","116.267311076","39.850027009","30","0106"
"地铁郭庄子A口站","01060198","0106010198","小屯路 地铁郭庄子站A口北侧","116.252564519","39.8659589185","35","0106"
"地铁郭庄子B口站","01060199","0106010199","小屯路 地铁郭庄子站B口北侧","116.253323173","39.8660003097","35","0106"
"沙子口路南口站","01060200","0106020200","沙子口路 贾家花园南区东侧","116.420476823","39.850004917","20","0106"
"望园东里南门站","01060202","0106020202","地铁七里庄站E口北侧望园东里南门外","116.292595077","39.8670610049","25","0106"
"望园北路站","01060203","0106020203","望园路与望园北路交叉口东北角","116.286804415","39.8684769827","25","0106"
"六里桥南路北口站","01060204","0106030204","六里桥南路 北京政务中心西北侧","116.306538375","39.8820587665","50","0106"
"建邦枫景东门站","01060205","0106020205","双林东路 建邦枫景东门北侧","116.257046172","39.867910183","30","0106"
"莲怡园北路站","01060206","0106020206","莲怡园北路 橙色年代南门对面","116.295513652","39.8866639809","30","0106"
"青海大厦站","01060207","0106030207","青海大厦南侧","116.322632224","39.863805548","40","0106"
"地铁马家堡A口站","01060208","0106010208","马家堡西路 马家堡地铁A口南侧","116.370947932","39.853148446","45","0106"
"芳园北门站","01060209","0106020209","小瓦窑东里南路 芳园北门西侧","116.258432433","39.8931974816","30","0106"
"五里店站","01060210","0106030210","丰台区管委养路队门口南侧","116.255962823","39.8632820949","35","0106"
"五里店北里站","01060211","0106020211","卢沟桥路 五里店北里小区内","116.260190868","39.8630041959","30","0106"
"五里店北里北门站","01060212","0106020212","五里店北里小区北门","116.259396201","39.8641246612","30","0106"
"郭庄家园站","01060213","0106030213","地铁郭庄子站C口东侧村委会门前","116.262564967","39.868935031","30","0106"
"靛厂路站","01060214","0106030214","靛厂路 丰台区建委北门东侧","116.294026492","39.8895007696","25","0106"
"宛平城P3停车场","01069999","0106049999","宛平城P3停车场内","116.225175296","39.8472800432","30","0106"
"政达路站","01070001","00000","政达路与银河东街交叉口西北角银河东街路西区政府东侧","116.223840189","39.905821071","29","0107"
"地铁八宝山B口站","01070002","00000","地铁八宝山东北口","116.236029508","39.907628396","49","0107"
"地铁八角游乐园A口站","01070003","00000","地铁八角游乐园东北口","116.213707617","39.9076969556","20","0107"
"地铁古城B口站","01070004","00000","地铁古城东北口","116.190994057","39.9075646153","50","0107"
"古城公园站","01070005","00000","古城公园西侧古城南路45号楼对面","116.19320124","39.9110298596","25","0107"
"八角南路站","01070006","00000","八角南路社区对面","116.196327122","39.9110403971","30","0107"
"八角南路东口站","01070007","00000","八角南路东口路北","116.20583004","39.910468268","30","0107"
"八角北路社区站","01070008","00000","八角路路北八角北路社区南门西侧","116.195904879","39.9138417655","29","0107"
"八角北路站","01070009","00000","八角北路杨庄中学门前东侧","116.195911478","39.9177407377","30","0107"
"八角路东口站","01070010","00000","八角路东口路北","116.205045945","39.9135612092","30","0107"
"融景城站","01070011","00000","景阳东街南口","116.206739594","39.8929876543","40","0107"
"古城街道办站","01070012","00000","古城路路北古城街道办对面","116.191344151","39.9152650696","28","0107"
"古城北路西口站","01070013","00000","古城北路西口路北","116.188176862","39.9179325383","44","0107"
"七星园站","01070014","00000","翠园西街七星园小区门口对面","116.21494892","39.8999789487","25","0107"
"大中电器站","01070015","00000","鲁谷路路南鲁谷东街与鲁谷路交叉口东南角","116.237094894","39.9036892612","30","0107"
"CRD银座站","01070016","00000","鲁谷大街与鲁谷路交叉口东北角鲁谷大街路东","116.229235438","39.9045102587","29","0107"
"八角北路11号院站","01070017","00000","八角北路路南八角北路11号院南门对面","116.202866679","39.9171983936","35","0107"
"杨庄东街站","01070018","00000","杨庄东街路西管委门前北侧","116.19787404","39.9219701121","20","0107"
"八角西街站","01070019","00000","八角西街与八角路交叉口东北角物美超市门前","116.198947067","39.9151456548","34","0107"
"永乐小区西门站","01070020","00000","鲁谷大街路东永乐小区西门前南侧","116.229646518","39.9002572049","30","0107"
"信安大厦东站","01070021","00000","石景山路路南信安大厦东200米","116.196729409","39.9072862725","24","0107"
"老山东小街站","01070022","00000","老山东小街南口路西","116.226960123","39.9083907626","35","0107"
"远洋学校站","01070023","00000","鲁谷东街路东远洋分校门前天桥下","116.235939075","39.8992987422","30","0107"
"新岚大厦居委会","01070024","00000","新岚大厦北路与新岚大厦西路交叉口","116.217723021","39.9013167577","24","0107"
"鲁谷街道服务中心站","01070025","00000","鲁谷南路与芳园西街交叉口东南角","116.223958604","39.8989082712","29","0107"
"依翠园站","01070026","00000","鲁谷南路路南依翠园14号楼南侧六合园小区北门东侧","116.218199482","39.9000632086","29","0107"
"鲁谷74号院站","01070027","00000","鲁谷路与雕塑园南街交叉口东北角鲁谷74号院门前西侧","116.243842116","39.9040232359","30","0107"
"半月科普园站","01070028","00000","鲁谷南路与银河南街交叉口半月科普园北门","116.222040989","39.9012847597","40","0107"
"玉泉西里站","01070029","00000","鲁谷村路南玉泉西里二区21号楼前","116.240156762","39.9006171012","30","0107"
"地铁八角游乐园B口站","01070030","00000","地铁八角游乐园东南口","116.212322273","39.9072418811","50","0107"
"永乐小区东门站","01070031","00000","鲁谷东街路西永乐小区东门北侧","116.242864529","39.9052353409","20","0107"
"光大银行站","01070032","00000","银河东街与鲁谷路交叉口","116.224195921","39.9039960713","22","0107"
"高井路东口站","01070033","","高井路东口路南","116.142389983","39.9404802808","30","0107"
"六千寺小区站","01070034","","高井路社区服务站前","116.137414591","39.9370322193","25","0107"
"高井路西口站","01070035","","高井路西口路南","116.132757131","39.9355307417","30","0107"
"第二小学站","01070036","","金顶北路 第二小学南门东侧","116.166190726","39.9299413876","25","0107"
"模式口南里南门站","01070037","","金顶北路与石门路交叉口东北侧 模式口南里南门西侧","116.159535643","39.9299001964","39","0107"
"八大处公园","01070038","","八大处公园门口对面","116.188574851","39.9539997456","30","0107"
"金顶五区北门站","01070039","","金顶路  金顶街五区北门西侧","116.166404973","39.9261735226","30","0107"
"金顶街三区北门站","01070040","","金顶路  金顶街三区北门东侧","116.171104104","39.926214955","25","0107"
"首钢电信南门站","01070041","","金顶路与金顶东街交叉口西北侧 首钢电信南门东侧","116.173449395","39.9266134981","25","0107"
"地铁苹果园站","01070042","","苹果园路 苹果园地铁对面","116.177209585","39.9274337622","35","0107"
"苹果园路东口站","01070043","","苹果园路与苹果园大街交叉口西北侧 苹果园四区3号对面","116.18480341","39.929365921","24","0107"
"海特花园西门站","01070044","","苹果园大街 海特花园西门北侧","116.183543705","39.9332267953","30","0107"
"实兴西街站","01070045","","实兴西街与双园路交叉口向北50米路西侧 中国电子科学研究院东门南侧","116.187386496","39.9361189927","30","0107"
"京汉旭城家园站","01070046","","重兴园路 京汉旭成家园北门西侧","116.229996363","39.8926994773","30","0107"
"双园路天山南门站","01070047","","双园路 北京天山新材料技术有限公司南区南门西侧","116.189381846","39.9364844509","25","0107"
"中园路天山北门站","01070048","","中园路 北京天山新材料技术有限公司南区北门西侧","116.189716137","39.9381053948","25","0107"
"石景山烟草局站","01070049","","古城西路 石景山区烟草局西侧路北","116.172092184","39.9145344015","20","0107"
"石景山科技园站","01070050","","实兴大街与双园路交叉口东南角","116.191368276","39.9366348988","30","0107"
"海特花园北门站","01070051","","西井路与实兴东街交叉口东南侧 海特花园北门西侧","116.188779213","39.9344615802","30","0107"
"杨庄东街北口站","01070052","","苹果园南路与杨庄东街交叉口向西50米路北侧 苹果园街道办事处东侧","116.19489945","39.9300741502","20","0107"
"宏开花园站","01070053","","实兴西街与西井路交叉口东北侧","116.185918071","39.934436604","25","0107"
"西山枫林站","01070054","","香山南路西山枫林小区西北门东侧","116.204540189","39.9440722801","35","0107"
"杨庄大街北口站","01070055","","杨庄大街与苹果园南路交叉口东南角","116.197529739","39.9304868599","20","0107"
"石景山当代商城南门站","01070056","","阜石路当代商城南门","116.196002097","39.9249763494","30","0107"
"奈伦熙府东门站","01070057","","杨庄东街北口向南100米路西","116.197667925","39.9293861933","20","0107"
"首钢园区站","01070058","","石景山路西口首钢园区内","116.169117534","39.9067948723","30","0107"
"曦景长安站","01070059","","古城大街 曦景长安小区北门西侧","116.185814975","39.9090946089","30","0107"
"古城南里1号楼站","01070060","","古城南里甲1号 石景山公安分局北门东侧","116.187017446","39.9057662958","25","0107"
"古城南里北口站","01070061","","古城南里北口路西侧 麦当劳门前","116.19189655","39.9066858731","30","0107"
"石景山区汽车检测厂站","01070062","","鲁谷路与翠园西街交叉口向西50米路北侧 国家电网西侧","116.213831881","39.9040104923","25","0107"
"燕保.京原家园站","01070063","","景阳东街燕保.京原家园西门路对面","116.205579486","39.8982663165","30","0107"
"融景城西站","01070064","","景阳大街北口路西侧","116.203300874","39.896197403","30","0107"
"重聚园北门站","01070065","","重聚路 重聚园小区北门路对面","116.226985882","39.8956192667","25","0107"
"茂华大厦站","01070066","","时代花园南路东口路北 茂华大厦南门西侧","116.20587882","39.9188108503","30","0107"
"地铁玉泉路站","01070067","","玉泉路与石景山路交叉口西南角","116.252474301","39.9071677408","40","0107"
"中科院研究生院站","01070068","","玉泉路与石景山路交叉口向北200米路西侧 玉泉路乙19号院东门北侧","116.252165321","39.9105083732","25","0107"
"玉泉路小学站","01070069","","玉泉西街北辛安交通队门口路北","116.245251916","39.9122763572","25","0107"
"体育场南街南口站","01070070","","体育场南街5号院美廉超市门前","116.202969681","39.8994457755","35","0107"
"西山枫林四区站","01070071","0107020071","八大处路军区南门","116.199175063","39.9474388304","25","0107"
"八大处后勤部1站","01070072","","八大处军区后勤部机关办公区西侧停车场","116.149653839","39.9496397708","30","0107"
"八大处后勤部2站","01070073","","八大处军区后勤部东营门北侧100M停车场","116.144681517","39.942840083","20","0107"
"后厂村站","01080001","0108030001","后厂村路  华控大厦北侧","116.30109449","40.055601179","25","0108"
"联想研究院站","01080002","0108030002","上地西路 联想研究院西门北侧","116.29798574","40.0533577913","30","0108"
"中关村软件信息园站","01080003","0108030003","上地西路 中关村软件园信息中心1号门南侧","116.298043631","40.0521227104","25","0108"
"中关村软件广场站","01080004","0108030004","上地西路 中关村软件广场东侧","116.298710319","40.0497857662","25","0108"
"上地九街站","01080005","0108040005","上地九街  百度大厦对面","116.302247538","40.0526625567","35","0108"
"地铁西二旗站","01080006","0108010006","上地东路 西二旗地铁站西侧","116.305461204","40.0532274352","35","0108"
"西二旗桥站","01080007","0108070007","西二旗大街 西二旗桥下","116.306621287","40.0507703758","25","0108"
"上地国际创业园站","01080008","0108030008","信息路 上地创业园西侧","116.305103311","40.0461560328","25","0108"
"联想创业路站","01080009","0108030009","创业路与上地五街交叉口东北侧","116.309521397","40.0419548261","40","0108"
"致远大厦站","01080010","0108030010","上地西路 致远大厦西侧","116.303749208","40.0418438016","20","0108"
"软件园南站","01080011","0108030011","东北旺路 公交软件园南站","116.299293086","40.0431683412","30","0108"
"东北旺路站","01080012","0108030012","公交东北旺路站","116.29464874","40.0431516088","25","0108"
"蓝海中心站","01080013","0108030013","东北旺南路29号蓝海中心","116.292491915","40.0414267828","20","0108"
"东北旺南路东口站","01080014","0108030014","东北旺南路 上地办公中心前","116.295506471","40.041961575","30","0108"
"海淀区党校站","01080015","0108030015","东北旺路  海淀区党校东侧","116.296150758","40.0426883368","30","0108"
"时代集团站","01080016","0108030016","上地西路 时代集团西侧","116.305784106","40.0383622047","30","0108"
"金隅嘉华站","01080017","0108030017","上地西路 金隅嘉华大厦西侧","116.306723819","40.0360166665","25","0108"
"马连洼北路东口站","01080018","0108030018","公交马连洼北路东口站（北大未名集团门口）","116.304035284","40.0344844223","20","0108"
"上地三街站","01080019","0108030019","上地三街 中黎科技园南侧","116.314107144","40.0373157657","30","0108"
"信息大厦站","01080020","0108030020","上地三街 信息大厦北侧","116.311986893","40.0365001419","35","0108"
"颂芳园8号站","01080021","0108030021","信息路 上地西里颂芳园8号楼东侧","116.311823216","40.0327292702","30","0108"
"上地佳园站","01080022","0108030022","上地东二路 上地佳园小区东侧","116.320114095","40.0320788662","50","0108"
"地铁上地站","01080023","0108010023","上地东二路 上地地铁站北侧","116.319627519","40.0330213514","60","0108"
"上地西路华联超市站","01080024","0108040024","上地西路 华联超市门前","116.312021139","40.0293389732","40","0108"
"上地东里二区站","01080025","0108020025","上地南路 上地东里二区12号楼南侧","116.315767138","40.0295953468","20","0108"
"上地南路6号站","01080026","0108020026","上地南路 上地南路6号院1号楼北侧","116.318030938","40.0298382793","40","0108"
"硅谷亮城东门站","01080027","0108030027","信息路 中国邮政储蓄银行东侧","116.313255546","40.0273028436","30","0108"
"北京体育大学站","01080028","0108050028","信息路 北京体育大学西门北侧","116.313993666","40.0238580981","25","0108"
"渔儿沟站","01110001","0111020001","政通路 渔儿沟南门东侧","116.136556204","39.7477566604","30","0111"
"鑫豪大厦站","01110002","0111030002","政通路 鑫豪大厦北侧","116.139203275","39.7475466836","30","0111"
"政通路站","01110003","0111030003","政通路 房山区政府对面","116.143744527","39.7475027258","25","0111"
"房山区气象局站","01110004","0111030004","政通路 房山区气象局对面","116.136222756","39.7449435595","30","0111"
"昊天假日酒店站","01110005","0111070005","京周路？昊天假日酒店门口西侧","116.141466426","39.7428338505","35","0111"
"西潞园站","01110006","0111020006","西潞园社区卫生服务站前","116.13286944","39.7349353559","20","0111"
"良乡社区站","01110007","0111020007","体育场路 良乡社区南区北门","116.146832525","39.7414451355","25","0111"
"体育场路东口站","01110008","0111080008","体育场路 电业医院南门西侧","116.150654652","39.7417802655","30","0111"
"拱辰大街站","01110009","0111040009","拱辰大街 华冠生活超市对面","116.142226102","39.7407429073","25","0111"
"良乡影剧院站","01110010","0111020010","拱辰大街 良乡影剧院对面","116.142149985","39.7382374745","30","0111"
"良乡质监局站","01110011","0111040011","拱辰大街？良乡质监局东门南侧","116.142188009","39.735276578","35","0111"
"盛川大厦站","01110012","0111040012","良坨路与京周路交叉口东南侧","116.136183968","39.7388151115","30","0111"
"北潞园家园站","01110013","0111020013","北潞园社区居委会前","116.128157","39.7406503476","30","0111"
"北潞春家园站","01110014","0111020014","北潞春家园物业前","116.126458876","39.7381712978","25","0111"
"616公交总站站","01110015","0111070015"," 北潞春家园南门 616公交总站","116.128819792","39.7358893461","30","0111"
" 京周路站","01110016","0111070016","京周路？北潞园小区南门西侧","116.131142698","39.7366100812","25","0111"
"西潞北大街站","01110017","0111040017","西潞北大街 美廉美超市门前","116.135887789","39.7361787871","30","0111"
"北关西路站","01110018","0111040018"," 北关西路与西潞北大街交叉口东南侧  ","116.136240358","39.7354308879","25","0111"
"拱辰星园站 ","01110019","0111020019","罗府街 拱辰星园东门南侧 ","116.138748884","39.7337692571","30","0111"
"良乡中路站","01110020","0111040020","西潞北大街与良乡中路交叉口东北侧","116.136772683","39.7311399456","30","0111"
"昊天广场站","01110021","0111040021","拱辰大街 昊天广场东侧","116.141882527","39.733786447","35","0111"
"昊天万福站 ","01110022","0111030022","良乡中路 昊天万福南侧","116.143355824","39.7311100188","25","0111"
"罗府家园站","01110023","0111020023","拱辰南大街 良辰百货东侧","116.141823453","39.7285808407","30","0111"
"良乡中学站","01110024","0111050024","南关东路 良乡中学对面东侧","116.144452056","39.7263735901","30","0111"
"月华小区站","01110025","0111020025","良乡西路 月华小区南门东侧","116.126323983","39.7311984853","20","0111"
" 嘉瑞通小区站","01110026","0111020026","拱辰南大街 嘉瑞通2号东侧","116.141947934","39.7254580251","30","0111"
"行宫园站","01110027","0111020027","政通路 行宫园小区南门西侧","116.146889115","39.7478088928","30","0111"
"天龙家具城站","01110028","0111030028","西潞南大街 天龙家具城前","116.136239963","39.7250890094","30","0111"
"房山中医院站","01110029","0111040029"," 西潞南大街 房山区中医医院南侧","116.135594649","39.7289238938","30","0111"
"地铁苏庄站","01110030","0111010030","苏庄大街 共创大厦对面","116.12393125","39.723924853","35","0111"
"苏庄三里站","01110031","0111020031","苏庄大街与苏庄中路交叉口西南侧","116.123341441","39.726404119","25","0111"
"苏庄中路站","01110032","0111020032"," 苏庄西街与苏庄中路交叉口东南侧","116.120261038","39.7264749221","25","0111"
"苏庄西区站","01110033","0111020033","京周路 苏庄西区东侧？","116.119828703","39.7298136573","25","0111"
"佳世苑站","01110034","0111020034","翠柳大街 佳世苑南区西侧","116.122520412","39.7205030758","30","0111"
"首发物流站 ","01110035","0111030035","长虹西路 首发物流西侧","116.115528645","39.723112316","30","0111"
"京良路站","01110036","0111060036","京良路 长阳镇政府南门东侧","116.21740513","39.7650751156","30","0111"
"地铁稻田站","01110037","0111010037","独义三路 稻田地铁A口西侧","116.216969927","39.7946939917","40","0111"
"西潞南大街南口站","01110038","0111030038","西潞南大街 房山发改委前","116.135953108","39.7252668925","30","0111"
"瑞雪春堂东门站","01110039","0111020039","良官公路 瑞雪春堂小区东门","116.149614342","39.7200066718","30","0111"
"西部回迁小区站","01110040","0111020040","荷花园北路 西部回迁小区北门西侧","116.152406738","39.7205522003","30","0111"
"昊蓝温泉家园北门站","01110041","0111020041","多宝路 昊蓝温泉家园北门东侧","116.157776985","39.7377118581","30","0111"
"昊天嘉园南门站","01110042","0111020042","黄良路 昊天嘉园南门东侧","116.160172466","39.7311588524","25","0111"
"苏庄中路东口站","01110043","0111050043","苏庄中路 速8酒店对面","116.127668406","39.726423929","30","0111"
"良乡西路站","01110044","0111030044","良乡西路 邮政储蓄银行对面","116.130981854","39.7309674987","30","0111"
"良乡东路西口站","01110045","0111020045","良乡东路与昊天大街交叉口东北侧","116.148126953","39.7311020285","30","0111"
"玉竹园西门站","01110046","0111020046","揽秀北大街 玉竹园温泉小区西门南侧","116.157644887","39.7250686219","30","0111"
"地铁良乡大学城西A站","01110047","0111010047","黄良路 地铁良乡大学城西站A1口西侧","116.155256599","39.7234634532","30","0111"
"地铁良乡大学城西B站","01110048","0111010048","黄良路 地铁良乡大学城西站B口西侧","116.155306983","39.7231473299","35","0111"
"鸿顺园东区站","01110049","0111020049","揽秀南大街 鸿顺园东区西门南侧","116.157673389","39.7214757577","30","0111"
"首师大良乡校区站","01110050","0111050050","白杨东路 首师大良乡校区南门西侧","116.177635471","39.7100767597","30","0111"
"地铁良乡大学城北站","01110051","0111010051","东环路 地铁良乡大学城北站A口北侧","116.18332483","39.7307086379","30","0111"
"理工大学北区站","01110052","0111050052","理工大学北校区内","116.167307027","39.7385216506","30","0111"
"理工大学北区南门站","01110053","0111050053","良乡东路 理工大学北校区南门东侧","116.170548075","39.7311697781","30","0111"
"理工大学南区北门站","01110054","0111050054","良乡东路 理工大学南校区北门西侧","116.16963011","39.7309624366","30","0111"
"理工大学南区站","01110055","0111050055","理工大学南校区内","116.168196571","39.7269859187","30","0111"
"梅花桩南口站","01110056","0111020056","多宝路 梅花庄小区南门西侧","116.165093899","39.7394137915","30","0111"
"良乡东区十六号路站","01110057","0111020057","良乡东区十六号路与文昌西路交叉口西北侧","116.172480698","39.7394518571","30","0111"
"吴店西里站","01110058","0111020058","行宫东街 吴店西里西门北侧","116.150145545","39.7500422035","20","0111"
"黄辛庄东里东一门站","01110059","0111020059","行宫东街 黄辛庄东里东一门北侧","116.150024397","39.7526503836","20","0111"
"黄辛庄东里东二门站","01110060","0111020060","行宫东街 黄辛庄东里东二门北侧","116.149988959","39.7555869424","30","0111"
"隆曦园路站","01110061","0111020061","隆曦园路 隆曦园甲16号楼南侧","116.138378569","39.7490180573","20","0111"
"翠林漫步东区站","01110062","0111020062","翠林东街 翠林漫步东区东门北侧","116.157008388","39.7616048425","20","0111"
"兴家小区站","01110063","0111020063","苏庄西街 兴家小区西门北侧","116.119823108","39.7239296971","30","0111"
"伟业嘉园东里站","01110064","0111020064","昊天伟业嘉园东里西门南侧","116.16441789","39.7318524975","30","0111"
"伟业嘉园北里站","01110065","0111020065","昊天伟业嘉园北里东门北侧","116.159877278","39.7354337834","30","0111"
"昊天伟业嘉园站","01110066","0111020066","良乡东路 伟业嘉园公交站东侧","116.141829056","39.7492620024","30","0111"
"良乡西路东口站","01110067","0111030067","良乡西路 房山区教委南门西侧","116.132048285","39.7311441698","30","0111"
"良乡医院站","01110068","0111030068","北关西路 良乡医院门诊楼前","116.139630132","39.7360754886","25","0111"
"行宫西街西口站","01110069","0111020069","行宫西街与拱辰北大街交叉口南侧","116.144247731","39.7499218665","30","0111"
"经贸学院站","01110070","0111050070","荷花园北路 北京经贸职业学院南门东侧","116.164831608","39.7206087601","30","0111"
"翠林漫步西区站","01110071","0111020071","翠林路 翠林漫步西区北门东侧","116.152706483","39.7604558185","20","0111"
"社科院研究生院站","01110072","0111050072","良乡东路 中国社会科学院研究生院南门","116.180108305","39.7372246274","30","0111"
"隆曦园路东口站","01110073","0111020073","拱辰北大街与隆曦园路交叉口南侧","116.141829056","39.7492620024","30","0111"
"成教中心站","01110074","0111050074","广阳西路 成人教育中心北门东侧","116.157406766","39.75755906","40","0111"
"苏园二里北门站","01110075","0111020075","苏庄北路 苏园二里小区北门对面","116.123815623","39.729262058","30","0111"
"CSD商务广场站","01110076","0111030076","京周路 CSD商务广场对面天桥下","116.163401326","39.7634568354","35","0111"
"天骄俊园站","01110077","0111020077","天骄俊园西门北侧","116.175416843","39.7505156822","30","0111"
"地铁广阳城站","01110078","0111010078","东环路 地铁广阳城站B2口南侧","116.18515518","39.7478408923","30","0111"
"地铁篱笆房站","01110079","0111010079","东环路 地铁篱笆房A1口南侧","116.188844893","39.7602285329","20","0111"
"清雅小区站","01110080","0111020080","清雅小区东门南侧","116.182394443","39.7639485009","30","0111"
"长阳体育公园站","01110081","0111020081","长阳体育公园南门东侧","116.204117203","39.758932355","30","0111"
"长场路站","01110082","0111020082","祥云街4号院北门西侧","116.207302644","39.7609231177","30","0111"
"杨庄子小区站","01110083","0111020083","杨庄子小区西门北侧","116.214924471","39.7555038003","25","0111"
"管委路站","01110084","0111030084","管委路 房山区市政管委会西侧","116.1403567","39.7463364836","25","0111"
"金光路站","01110085","0111030085","金光路 房山区政府第二办公区东侧","116.133395084","39.7208114568","30","0111"
"国槐街站","01110086","0111030086","国槐街 路西汇邦国际南侧","116.131423537","39.7222963896","30","0111"
"金光北街站","01110087","0111030087","金光北街 北京华素制药公司东门南侧","116.128151337","39.7222896583","30","0111"
"赛木小镇站","01110088","0111020088","赛木小镇南门东侧","116.21202436","39.7705223707","30","0111"
"馨然家园北站","01110089","0111020089","馨然嘉园二区华味亨超市前","116.2172228","39.7588784838","25","0111"
"加州水郡西区站","01110090","0111020090","京周路 加州水郡西区3号门南侧","116.167471058","39.7684725474","30","0111"
"松园西路站","01110091","0111020091","京周路与松园西路交叉口西南侧","116.165689941","39.7661631074","20","0111"
"加州水郡东区站","01110092","0111020092","京周路 加州水郡东区西门南侧","116.167820802","39.7679728714","30","0111"
"熙悦山熹园北门站","01110093","0111020093","首开熙悦山熹园北门西侧","116.215995809","39.7704892921","25","0111"
"熙悦山熹园南门站","01110094","0111020094","首开熙悦山熹园南门西侧","116.216513823","39.7675922698","25","0111"
"地铁长阳站","01110095","0111010095","京良路 地铁长阳站A口东侧","116.214067973","39.7641168076","35","0111"
"祥云街2号院站","01110096","0111020096","祥云街2号院西门外","116.205827531","39.7625900586","25","0111"
"军留庄小区南门站","01110097","0111020097","军留庄小区南门对面东侧","116.204713451","39.7609325962","25","0111"
"新里程南站","01110098","0111020098","良乡东路 新里程南区南门外","116.186895802","39.7312218329","30","0111"
"新里程北站","01110099","0111020099"," 新里程北区南门对面","116.18811961","39.7345622825","30","0111"
"靠山居站","01110100","0111020100","京深路东侧靠山居西门南侧","116.212114484","39.8046502028","20","0111"
"广阳城新区站","01110101","0111020101","长阳路 南侧广阳城新区西门对面","116.182101178","39.7504049632","25","0111"
"北关东路站","01110102","0111020102","北关东路 北关东路与凯旋大街交叉口西北侧","116.147847083","39.7363786752","25","0111"
"金地朗悦北站","01110103","0111020103","金地朗悦沁园南门东侧","116.19300891","39.7347787584","30","0111"
"金地朗悦南站","01110104","0111020104","金地朗悦一期2号楼北侧","116.193501158","39.7330540809","30","0111"
"良官公路站","01110105","0111030105","良官公路与白杨东路交叉口东北侧","116.150231238","39.7105801268","30","0111"
"梨园站","01126001","6001","梨园路口西南侧","116.668004517","39.8841247539","96","0112"
"蓝岛大厦站","01126002","6002","云景东路东侧","116.66583178","39.8781911904","40","0112"
"新通国际花园站","01126003","6003","梨园中路西路","116.673796785","39.8820055857","36","0112"
"亚太花园站","01126004","6004","梨园北街西北侧","116.67078266","39.8864594421","20","0112"
"通州法院站","01126005","6005","梨园北街东北侧","116.678247369","39.8867723752","20","0112"
"玉桥中学站","01126006","6006","梨园北街东北侧","116.684334197","39.888682309","32","0112"
"景馨家园站","01126007","6007","梨园中路东路","116.685951465","39.8866265581","32","0112"
"万春园站","01126008","6008","运河西大街与玉桥中路交口处西侧","116.677135347","39.8921530103","32","0112"
"远洋东方站","01126009","6009","梨园路与玉桥西里中街交道口北侧","116.676029032","39.8888359058","40","0112"
"格兰晴天西门站","01126010","6010","玉桥西路南路路东","116.671851296","39.8894138567","40","0112"
"葛布店东里站","01126011","6011","运河西大街","116.66796629","39.8922181521","44","0112"
"人保公司站","01126012","6012","玉带河中街与南关交道口南侧","116.67318305","39.900089437","20","0112"
"老证券门前站","01126013","6013","玉带河东街","116.665666188","39.9000138054","20","0112"
"潞河国际东站","01126014","6014","玉带河西街","116.654941399","39.9008780477","36","0112"
"后南仓站","01126015","6015","玉带河西街","116.651332127","39.9012553541","20","0112"
"帅府园站","01126016","6016","通惠南路","116.644169725","39.9034121663","20","0112"
"消防队西站","01126017","6017","新华大街西街南侧","116.659703635","39.907932902","24","0112"
"西大街站","01126018","6018","新华大街西街与新华南路交口处路西北","116.656155675","39.9079734491","32","0112"
"工商银行站","01126019","6019","新华西街北侧","116.650177921","39.9074270982","20","0112"
"世纪联华站","01126020","6020","新华西街","116.645611891","39.9069928448","20","0112"
"北苑站","01126021","6021","京塘路与新华西街交口处","116.636755725","39.9046241783","80","0112"
"中上园小区站","01126022","6022","日化二厂对面","116.68136754","39.9012066109","28","0112"
"艺苑东里站","01126023","6023","艺苑东街","116.674157171","39.894137179","32","0112"
"卜蜂莲花站","01126024","6024","运河西大街","116.688701523","39.8922140142","20","0112"
"鑫隆市场站","01126025","6025","玉桥中路","116.677743514","39.8950552461","28","0112"
"临河里站","01126026","6026","九棵树东路","116.678708625","39.8750820568","40","0112"
"土桥站","01126027","6027","九棵树东路","116.684946349","39.8719627327","24","0112"
"小街之春站","01126028","6028","临河里路","116.687026902","39.8774986238","32","0112"
"柳岸景园站","01126029","6029","运河西大街","116.696091519","39.8929477972","32","0112"
"世纪星城站","01126030","6030","通胡大街","116.63451085","39.8927227142","44","0112"
"新华联家园站","01126031","6031","新华联南区北门","116.640741268","39.8920367562","36","0112"
"果园地铁站","01126032","6032","北苑南路","116.64745261","39.8931694783","68","0112"
"蓝山国际站","01126033","6033","新华南路","116.656870022","39.8954194288","20","0112"
"九棵树地铁站","01126034","6034","家乐福门口","116.656731126","39.8905179779","56","0112"
"当代名筑站","01126035","6035","九棵树东路","116.665589018","39.891028639","20","0112"
"南关站","01126036","6036","玉桥西路","116.669350801","39.8996939356","24","0112"
"源泉苑站","01126037","6037","史家小学对面","116.688719656","39.8864176062","20","0112"
"京艺天朗站","01126038","6038","玉桥东路","116.686194652","39.8905735766","32","0112"
"玉桥南里站","01126039","6039","玉桥中路","116.680141134","39.8896789951","40","0112"
"乔庄北街站","01126040","6040","乔庄北路","116.683556161","39.89569575","28","0112"
"新仓路北口站","01126041","6041","新华大街","116.648420543","39.9068830056","36","0112"
"潞河名苑站","01126042","6042","潞河医院北侧","116.658486652","39.903260656","20","0112"
"新城东里站","01126043","6043","新城东里西街","116.659562893","39.8981626081","36","0112"
"西海子公园站","01126044","6044","西海子西路","116.661492898","39.912902242","40","0112"
"漪春园站","01126045","6045","果园环岛东","116.660370082","39.8925726966","28","0112"
"车站路站","01126046","6046","四园厅图书馆门口","116.662703135","39.9031387965","44","0112"
"雅丽世居站","01126047","6047","北苑南路","116.643992796","39.8951447501","28","0112"
"云景阁西区","01126051","6051","云景东路","116.666524044","39.883014514","16","0112"
"云景阁东区","01126052","6052","云景东路","116.667345983","39.8831124906","16","0112"
"电信局","01126053","6053","云景东路","116.667112703","39.8819039983","20","0112"
"民生家乐超市","01126054","6054","云景东路","116.664904697","39.8761403602","24","0112"
"群芳三园","01126055","6055","云景东路","116.664628056","39.8750483491","16","0112"
"大马庄南门","01126056","6056","万盛南街","116.660787694","39.8637978961","20","0112"
"梨园镇政府","01126057","6057","云景东路","116.661484107","39.8666331416","24","0112"
"群芳二园","01126058","6058","荟萃南街","116.666091628","39.8670453796","44","0112"
"派出所","01126059","6059","云景东路","116.662823277","39.8673617146","16","0112"
"桃花岛","01126060","6060","群芳中街","116.659214355","39.8687565352","24","0112"
"鑫福运来超市","01126061","6061","云景东路","116.663894804","39.8709382297","24","0112"
"新城嘉园","01126062","6062","云景路","116.671189764","39.8771202258","20","0112"
"云景西里19#","01126063","6063","云景路","116.65922534","39.8787653619","16","0112"
"群芳一园北门","01126064","6064","云景路","116.668724988","39.8702983859","48","0112"
"孙王场","01126065","6065","云景路","116.654862476","39.8783710625","16","0112"
"梨园主题公园","01126066","6066","云景路","116.680476326","39.8716893548","24","0112"
"瑞都公园世家北门","01126067","6067","云景路","116.678206893","39.8688835252","40","0112"
"高楼金第","01126069","6069","云景路","116.686574711","39.86309435","20","0112"
"新翠景园","01126070","6070","云景路","116.655040713","39.8757700508","16","0112"
"九棵树家园","01126071","6071","云景路","116.651640436","39.8758970849","24","0112"
"小稿村","01126072","6072","云景路","116.6398757","39.870546643","36","0112"
"龙鼎园","01126073","6073","云景路","116.648274146","39.8766686474","28","0112"
"海通梧桐苑","01126074","6074","海通梧桐苑","116.643429756","39.8754542025","28","0112"
"音乐学院","01126075","6075","云景路","116.651354133","39.8748140195","24","0112"
"秀江南北门","01126076","6076","群芳中街","116.658803849","39.8660643108","28","0112"
"海棠湾南门","01126077","6077","群芳中街","116.663073693","39.8685079798","28","0112"
"公庄村委会","01126078","6078","群芳中街","116.658499083","39.87008155","36","0112"
"公庄小区","01126079","6079","云景南大街","116.659607951","39.8750749129","44","0112"
"西小马庄","01126080","6080","云景路","116.64598075","39.8799209745","24","0112"
"靓景明居","01126081","6081","云景路","116.637937667","39.8818171333","24","0112"
"烟厂家属楼","01126082","6082","云景路","116.647915105","39.8731226488","56","0112"
"翠屏南里","01126083","6083","云景路","116.649352096","39.8826023483","20","0112"
"大稿村","01126084","6084","云景路","116.636459946","39.8736530951","48","0112"
"蔚澜香醍","01126085","6085","云景路","116.648386705","39.8854191205","28","0112"
"格瑞雅居","01126086","6086","格瑞雅居","116.645480022","39.8853054279","36","0112"
"大方居北门","01126087","6087","云景路","116.631131937","39.8763708084","40","0112"
"新华联东门","01126088","6088","云景路","116.680654526","39.8673731892","24","0112"
"万盛北里菜场","01126089","6089","云景路","116.650404647","39.8701604505","56","0112"
"万盛北里","01126090","6090","云景路","116.647717284","39.8701931191","24","0112"
"云景西里34#","01126091","6091","","116.659288278","39.8793514291","32","0112"
"新城阳光","01126092","6092","云景路","116.659940289","39.8783055374","28","0112"
"翠屏便民菜店","01126093","6093","云景路","116.647385696","39.8885956626","20","0112"
"小稿村二期","01126094","6094","","116.643574709","39.8696693804","28","0112"
"公交总站","01126095","6095","云景路","116.640849361","39.8818431487","28","0112"
"东总屯","01126096","6096","云景路","116.651541348","39.888548537","24","0112"
"巴克寓所","01126097","6097","云景路","116.640204823","39.885413696","28","0112"
"曹园","01126098","6098","云景路","116.656454048","39.8613653744","24","0112"
"新华联南门","01126099","6099","云景路","116.639884242","39.8885145426","16","0112"
"李老新村","01126100","6100","云景路","116.635049253","39.8910464734","32","0112"
"翠屏北里","01126101","6101","云景路","116.644300446","39.8886069326","36","0112"
"DBC加州小镇","01126102","6102","云景路","116.6826929","39.8688157811","28","0112"
"大方居","01126103","6103","云景路","116.629400866","39.8736170928","32","0112"
"阿尔法社区","01126104","6104","云景路","116.640379098","39.8736467882","40","0112"
"花涧溪","01126105","6105","云景路","116.66977908","39.8753020418","20","0112"
"云景西里20#","01126106","6106","云景路","116.662012509","39.8779244302","28","0112"
"地税局家属院","01126108","6108","","116.688781049","39.8858800976","28","0112"
"潞河医院","01126109","6109","","116.659081797","39.9005028695","28","0112"
"郭林","01126110","6110","","116.6628564","39.9002805037","32","0112"
"通州教委","01126111","6111","","116.650538452","39.9070933826","20","0112"
"建设银行","01126112","6112","建设银行","116.644226374","39.9021119565","36","0112"
"7090小区","01126113","6113","","116.700648299","39.8826116291","28","0112"
"西关社区","01126114","6114","","116.637937378","39.9062905847","28","0112"
"新城管委","01126115","6115","","116.70167202","39.8932942201","28","0112"
"莽馨园","01126116","6116","","116.691736719","39.8969425366","40","0112"
"国土局","01126117","6117","国土局","116.681446784","39.8879687956","28","0112"
"运桥建材车站","01126118","6118","","116.692741054","39.892502322","28","0112"
"梨园东里","01126119","6119","","116.683692747","39.8824311222","28","0112"
"运河中学","01126120","6120","","116.673820772","39.892554638","40","0112"
"会议中心","01126121","6121","会议中心","116.673232732","39.9304074617","80","0112"
"武装部","01126122","6122","武装部","116.659372627","39.9294403423","24","0112"
"幸福艺居西门","01126123","6123","","116.686877402","39.8888221799","28","0112"
"国税局","01126124","6124","","116.669852725","39.8925859683","28","0112"
"梨园村北口","01126125","6125","","116.677313293","39.8832097885","36","0112"
"临河里站东","01126126","6126","","116.679873192","39.8752440009","36","0112"
"三间房车站","01126127","6127","","116.670307371","39.8860705891","28","0112"
"新通国际西","01126128","6128","","116.669938808","39.8833441864","28","0112"
"梨园村","01126129","6129","","116.672472575","39.8812033641","28","0112"
"新华联家园东门","01126130","6130","","116.6431523","39.8936304872","28","0112"
"葵花社","01126131","6131","","116.647097468","39.8921337676","20","0112"
"培智学校","01126132","6132","","116.650044473","39.8920949516","28","0112"
"杨庄商业街","01126133","6133","","116.638445367","39.8925690721","28","0112"
"冶金研究院","01126134","6134","冶金研究院","116.663771051","39.8874744805","28","0112"
"复兴里西门","01126135","6135","复兴里西门","116.641655024","39.8983537685","24","0112"
"五所宿舍","01126136","6136","","116.664898151","39.8873563056","40","0112"
"护士学校","01126137","6137","","116.649963521","39.9011231253","24","0112"
"九棵树加油站","01126138","6138","","116.659381497","39.8915207041","36","0112"
"新华西街社区","01126139","6139","新华西街","116.651339178","39.9098230902","20","0112"
"北苑办事处","01126140","6140","","116.648424924","39.9031098398","32","0112"
"果园环岛东","01126141","6141","","116.663183664","39.892254614","28","0112"
"金源泉","01126142","6142","","116.648612751","39.8932630965","40","0112"
"西果园","01126143","6143","","116.651271746","39.8924599065","48","0112"
"果园环岛西","01126144","6144","","116.654917349","39.8925260711","52","0112"
"华联商厦","01126145","6145","华联商厦","116.66899928","39.9082311166","28","0112"
"国泰百货","01126146","6146","国泰百货","116.636154615","39.9063258346","28","0112"
"大运河森林公园正门","01126147","6147","","116.744972176","39.8571285059","60","0112"
"复兴南里","01126148","6148","","116.647523369","39.8972312765","24","0112"
"陆航局家属院","01126149","6149","陆航局家属院","116.64316694","39.8875667258","28","0112"
"北苑加油站东","01126150","6150","北苑加油站东","116.637759479","39.906542053","24","0112"
"永顺镇政府","01126151","6151","永顺镇政府","116.65581894","39.9181373767","20","0112"
"地税局","01126152","6152","","116.683802378","39.8857023371","28","0112"
"长途车站","01126153","6153","","116.696514309","39.8697462582","24","0112"
"妇幼保健医院","01126154","6154","","116.682051585","39.8878548363","28","0112"
"梨园东里消防队","01126155","6155","","116.685844635","39.8833204919","28","0112"
"北苑小学","01126156","6156","","116.639447657","39.9016999929","24","0112"
"云景里","01126157","6157","云景路","116.66344041","39.8758516009","32","0112"
"阳光保险","01126158","6158","","116.676971433","39.8775600037","36","0112"
"预备役师家属院","01126159","6159","预备役师家属院","116.676500988","39.8793951244","28","0112"
"云景里农贸市场","01126160","6160","云景里农贸市场","116.664428846","39.8731546948","40","0112"
"颐瑞东里","01126161","6161","颐瑞东里","116.682360797","39.8631413536","24","0112"
"颐瑞西里","01126162","6162","颐瑞西里","116.679500824","39.8632352015","28","0112"
"通州农民合作社超市","01126163","6163","通州农民合作社超市","116.652655068","39.8858258734","24","0112"
"金桥时代家园","01126164","6164","金桥时代家园","116.668500261","39.8757335276","36","0112"
"交通局","01126165","6165","交通局","116.63861798","39.8920516472","24","0112"
"东小马庄新区","01126166","6166","东小马庄新区","116.670254697","39.8663466906","36","0112"
"贵友大厦","01126167","6167","贵友大厦","116.66676626","39.8841201423","20","0112"
"靓景明居北门","01126168","6168","靓景明居北门","116.636972658","39.8846362046","32","0112"
"半壁店新村","01126169","6169","半壁店新村","116.637636394","39.8777541017","48","0112"
"旅游区管理委员会","01126170","6170","旅游区管理委员会","116.652472277","39.8515593586","16","0112"
"怡然世家","01126171","6171","怡然世家","116.636721319","39.8813972737","28","0112"
"新城乐居","01126172","6172","新城乐居","116.690385749","39.864718536","32","0112"
"隆孚大厦","01126173","6173","隆孚大厦","116.662900769","39.8678270258","36","0112"
"通典铭居","01126174","6174","通典铭居","116.634875022","39.9066765415","20","0112"
"上营新村","01126175","6175","云景路","116.646303334","39.8782615549","40","0112"
"运乔嘉园","01126176","6176","运乔嘉园","116.692054047","39.8928756147","28","0112"
"新城基业","01126177","6177","","116.682557153","39.9128658017","28","0112"
"吉祥园小区","01126178","6178","吉祥园小区","116.666137058","39.9103244297","20","0112"
"财贸学院","01126179","6179","云景路","116.645159344","39.8849967666","28","0112"
"经贸国际","01126180","6180","经贸国际","116.623109522","39.9059904899","24","0112"
"耿庄京客隆","01126181","6181","京客隆","116.685935634","39.927164607","28","0112"
"大运河森林公园-漕运码头","01126182","6182","","116.742868569","39.8869373427","56","0112"
"大运河森林公园-南门","01126183","6183","","116.755057449","39.8540714582","32","0112"
"绿化队","01126186","6186","","116.662154285","39.8552549927","28","0112"
"北京工业大学","01126187","6187","北京工业大学","116.668929785","39.9294193987","24","0112"
"东潞苑东","01126189","6189","东潞苑东","116.678318088","39.9366993247","28","0112"
"东潞苑西","01126190","6190","东潞苑西","116.674817844","39.9366386802","36","0112"
"焦王庄","01126191","6191","焦王庄","116.681404658","39.9351998279","24","0112"
"拉维小镇南门","01126192","6192","拉维小镇南门","116.689066768","39.9329194845","24","0112"
"苏陀新村","01126193","6193","苏陀新村","116.683898431","39.9346989854","20","0112"
"霍屯小区","01126194","6194","霍屯小区","116.706434239","39.9148582896","28","0112"
"刘庄新村","01126195","6195","刘庄新村","116.674972533","39.9418096776","24","0112"
"水恋晶城","01126196","6196","水恋晶城","116.693133854","39.9164841717","20","0112"
"环卫设施所","01126197","6197","环卫设施所","116.655393818","39.8519528889","16","0112"
"晓白楼五金","01126198","6198","晓白楼五金","116.67408964","39.8770551159","20","0112"
"当代名筑西","01126199","6199","当代名筑西","116.663473235","39.8891897514","24","0112"
"华龙小区","01126200","6200","华龙小区","116.686873029","39.9308179087","28","0112"
"生活垃圾转运站","01126201","6201","生活垃圾转运站","116.637473991","39.8441349217","20","0112"
"农委","01126202","6202","农委","116.68512057","39.8931579247","32","0112"
"通景园","01126203","6203","","116.643445473","39.8775464986","32","0112"
"新潮家园东","01126204","6204","新潮家园东","116.701914077","39.935586393","36","0112"
"澜花语岸","01126205","6205","澜花语岸","116.672218986","39.9282699326","28","0112"
"耿庄家园","01126206","6206","耿庄家园","116.685229837","39.9285287947","28","0112"
"拉维小镇西门","01126207","6207","拉维小镇西门","116.68481553","39.9331073825","28","0112"
"鑫隆百货市场","01126208","6208","鑫隆百货市场","116.677771167","39.895897977","28","0112"
"珠江丽景","01126209","6209","珠江丽景","116.681896764","39.929505451","28","0112"
"六合新村","01126210","6210","六合新村","116.722813344","39.9353554744","28","0112"
"李庄新村","01126211","6211","李庄新村","116.684289819","39.944840742","28","0112"
"宋庄环岛东","01126212","6212","宋庄环岛东","116.718760755","39.9592257045","28","0112"
"艺术街路口","01126213","6213","艺术街路口","116.724698403","39.94239783","20","0112"
"国开村镇银行","01126214","6214","国开村镇银行","116.632476057","39.8953972178","28","0112"
"至善家园","01126215","6215","172.19.59.215","116.673777354","39.9298153362","32","0112"
"通州血站","01126216","6216","通州血站","116.689270354","39.9147475659","28","0112"
"北京胸科医院","01126217","6217","北京胸科医院","116.652641495","39.9225127028","20","0112"
"西上园","01126218","6218","西上园","116.676817021","39.9053026713","40","0112"
"物美大卖场","01126219","6219","物美大卖场","116.640549797","39.8925738273","36","0112"
"长城国际工商银行","01126220","6220","长城国际工商银行","116.632474049","39.8932935331","28","0112"
"华苑玫瑰","01126221","6221","华苑玫瑰","116.687807851","39.8797366633","32","0112"
"太玉园","01126222","6222","太玉园","116.70027691","39.8555863924","28","0112"
"运河湾","01126223","6223","运河湾","116.69602046","39.9051685537","36","0112"
"权金城","01126224","6224","权金城","116.690954624","39.915421918","28","0112"
"运河文化广场","01126225","6225","运河文化广场","116.683284683","39.9129972539","40","0112"
"新华办事处","01126226","6226","新华办事处","116.664063593","39.9101694597","20","0112"
"中山街小学","01126227","6227","中山街小学","116.653346386","39.9073264075","20","0112"
"司法局","01126228","6228","司法局","116.664711627","39.9057135784","20","0112"
"通州车辆检测厂","01126229","6229","通州车辆检测厂","116.656023159","39.9330521746","20","0112"
"范庄","01126230","6230","范庄","116.660903942","39.9393870603","20","0112"
"西潞苑78#楼","01126231","6231","西潞苑78#楼","116.660226088","39.9358365398","20","0112"
"枫潞苑小区","01126232","6232","枫潞苑小区","116.672762144","39.9345387237","40","0112"
"新潮家园西","01126233","6233","新潮家园西","116.693867958","39.9323331773","32","0112"
"环卫所","01126234","6234","环卫所","116.626730073","39.8656957647","20","0112"
"杨家洼路口","01126235","6235","杨家洼路口","116.668607092","39.8860522588","20","0112"
"邮政局","01126236","6236","邮政局","116.682400445","39.8921021539","28","0112"
"万客联超市","01126237","6237","万客联超市","116.675039599","39.9296589875","28","0112"
"如意园小区","01126238","6238","如意园小区","116.667811452","39.9125694862","28","0112"
"污物处理中心","01126239","6239","污物处理中心","116.694725104","39.8818891433","20","0112"
"宋庄路口","01126240","6240","宋庄路口","116.730702838","39.9447620761","20","0112"
"宋庄镇政府","01126241","6241","宋庄镇政府","116.729259267","39.9408062542","20","0112"
"宋庄美术馆","01126242","6242","宋庄美术馆","116.718146293","39.9615631225","20","0112"
"减河公园","01126243","6243","减河公园","116.695779042","39.9217307951","20","0112"
"新华西街131#院","01126244","6244","新华西街131#院","116.64068831","39.9065015019","20","0112"
"苏荷时代","01126245","6245","苏荷时代","116.643859063","39.8920742871","28","0112"
"杨庄北口","01126246","6246","杨庄北口","116.632314011","39.9059959972","20","0112"
"西门物美超市","01126247","6247","西门物美超市","116.641939327","39.8926253472","20","0112"
"乔庄商业街","01126248","6248","乔庄商业街","116.684982747","39.8958659865","20","0112"
"潞河医院西","01126249","6249","潞河医院西","116.658829209","39.9005820093","20","0112"
"通州公路分局","01126250","6250","通州公路分局","116.671747642","39.8902231774","32","0112"
"物资学院宿舍楼","01126251","6251","物资学院宿舍楼","116.640706649","39.9291037076","40","0112"
"物资学院浴室","01126252","6252","物资学院浴室","116.639423713","39.923750496","40","0112"
"物资学院教学楼","01126253","6253","物资学院教学楼","116.639521649","39.9298367416","40","0112"
"月季园","01126254","6254","月季园","116.704253679","39.9183882949","20","0112"
"牡丹园","01126255","6255","牡丹园","116.699234235","39.9176939901","28","0112"
"教师研修中心","01128001","8001","教师研休中心","116.679853811","39.9054593254","32","0112"
"水务局","01128002","8002","水务局","116.655442538","39.9109166699","40","0112"
"BOBO自由城","01128003","8003","BOBO自由城","116.695171818","39.9097024907","20","0112"
"荔景园新区","01128004","8004","荔景园新区","116.701301635","39.9122559279","28","0112"
"荔景园北门","01128005","8005","荔景园北门","116.701702192","39.9139947758","28","0112"
"行政服务中心","01128006","8006","行政服务中心","116.653266459","39.9116477017","24","0112"
"上营新村西门","01128007","8007","上营新村西门","116.682747631","39.9033427584","40","0112"
"迎喜家园东门","01128008","8008","迎喜家园东门","116.688561515","39.8753341016","20","0112"
"古城小区","01128009","8009","古城小区","116.698724552","39.9135605693","20","0112"
"三元村菜市场","01128010","8010","三元村菜市场","116.696955495","39.9132349996","20","0112"
"三园村西门","01128011","8011","三园村西门","116.697124437","39.9120941548","20","0112"
"花涧溪东","01128012","8012","花涧溪东","116.669455141","39.8753670752","40","0112"
"西门路口北","01128013","8013","西门路口北","116.643110363","39.9081011035","36","0112"
"潞城镇政府","01128014","8014","潞城镇政府","116.729255148","39.9104701155","40","0112"
"永顺城管大队","01128015","8015","永顺城管大队","116.656919783","39.9371342916","20","0112"
"运河小学","01128016","8016","运河小学","116.670208886","39.8919453459","36","0112"
"阿尔法南门","01128017","8017","阿尔法南门","116.645492006","39.8711714894","28","0112"
"梨园中心幼儿园","01128018","8018","梨园中心幼儿园","116.66947925","39.870679283","30","0112"
"消防队西","01128019","8019","北国风书店","116.661601078","39.9079366817","32","0112"
"红旗宾馆","01128020","8020","红旗宾馆","116.657575292","39.9063690784","20","0112"
"乔庄商场","01128021","8021","乔庄商场","116.685016538","39.895805405","20","0112"
"紫运南里","01128022","8022","紫运南里","116.701811758","39.908550026","44","0112"
"新华联锦园西门","01128023","8023","新华联锦园西门","116.62695424","39.9015153172","20","0112"
"新华联锦园东门","01128024","8024","新华联锦园东门","116.631801747","39.8998767494","20","0112"
"运河明珠","01128025","8025","运河明珠","116.68963396","39.9021083223","92","0112"
"月季雅园","01128026","8026","月季雅园","116.706065936","39.9186823454","16","0112"
"三园村路口","01128027","8027","三园村路口","116.695956889","39.916400487","20","0112"
"运河湾北区","01128028","8028","运河湾北区","116.697138501","39.9064905167","24","0112"
"亚太花园东门","01128029","8029","亚太花园东门","116.671665524","39.8870218224","32","0112"
"格兰晴天东门","01128030","8030","格兰晴天东门","116.673949932","39.8914086342","40","0112"
"物资学院地铁站东","01128031","8031","物资学院地铁站东","116.640466496","39.9269525428","60","0112"
"物资学院地铁站西","01128032","8032","物资学院地铁站西","116.638255945","39.9270371994","40","0112"
"紫荆园","01128033","8033","紫荆园","116.702315386","39.918132495","28","0112"
"三元村路口北","01128034","8034","三元楼口北","116.695733711","39.9172208029","28","0112"
"劳动局家属院","01128035","8035","劳动局","116.654922061","39.9201578912","28","0112"
"五里店居委会","01128036","8036","五里店居委会","116.629549827","39.9058032603","20","0112"
"DBC加州小镇西门","01128037","8037","DBC加州小镇西门","116.678185467","39.8658033116","28","0112"
"园区管理委员会","01128038","8038","园区管理委员会","116.666678769","39.9081406167","24","0112"
"中泽馨园","01128039","8039","中泽馨园","116.63509284","39.872625645","24","0112"
"土桥新村","01128040","8040","土桥新村","116.696442876","39.8660011887","28","0112"
"市政工程公司","01128041","8041","市政工程公司","116.688136789","39.8629319056","28","0112"
"方恒东景","01128042","8042","方恒东景","116.688387546","39.8719011063","28","0112"
"中国平安保险","01128043","8043","中国平安保险","116.667852455","39.8841009617","28","0112"
"土桥物美超市","01128044","8044","土桥物美超市","116.684403905","39.8729646261","28","0112"
"西马庄","01128045","8045","西马庄","116.63258833","39.9152687075","32","0112"
"北苑派出所","01128046","8046","北苑派出所","116.640058268","39.9022439582","28","0112"
"潞城农商银行","01128047","8047","潞城农商银行","116.732548449","39.9154196294","24","0112"
"新建村","01128048","8048","新建村","116.640301011","39.9215669964","24","0112"
"京贸国际公寓","01128049","8049","京贸国际公寓","116.619613258","39.9058462623","28","0112"
"万春园路口","01128050","8050","万春园路口","116.67857301","39.8921282523","28","0112"
"八里桥收费站","01128051","8051","八里桥公交站","116.619117274","39.9066575167","40","0112"
"旗舰凯旋","01128052","8052","旗舰凯旋","116.644928721","39.8780903472","28","0112"
"潞洲水务","01128053","8053","通州潞州水务公司","116.665598519","39.9082071388","24","0112"
"人民购物中心","01128054","8054","人民购物中心","116.671740204","39.9084996752","20","0112"
"富河园北","01128055","8055","富河园北门","116.656482827","39.9257104587","28","0112"
"富河园南","01128056","8056","富河园南门","116.656139291","39.9250106603","32","0112"
"潞电集团","01128057","8057","潞电集团","116.675967427","39.8944434482","20","0112"
"探矿厂","01128058","8058","探矿厂","116.63561806","39.8861254908","28","0112"
"哈佛幼儿园","01128059","8059","哈佛幼儿园","116.690640852","39.9095207079","40","0112"
"运乔建材城北门","01128060","8060","运乔建材城北门","116.695137302","39.8923487357","20","0112"
"经贸国际西","01128061","8061","经贸国际西","116.688207257","39.918101499","28","0112"
"杨庄22号院","01128062","8062","杨庄22号院","116.632339973","39.8977009793","24","0112"
"北关车站","01128063","8063","北关车站","116.654985474","39.9217159364","28","0112"
"百合湾","01128064","8064","百合湾","116.689144089","39.9138141029","20","0112"
"燃气路口东","01128065","8065","燃气路口东","116.686247804","39.8921226706","20","0112"
"市政管理所","01128066","8066"," ","116.662418142","39.891135182","16","0112"
"梨园城管","01128071","8071"," ","116.659560603","39.8631813055","28","0112"
"京客隆东关店","01128072","8072"," ","116.663590712","39.9009443939","28","0112"
"日化二厂","01128073","8073"," ","116.66901447","39.894129987","28","0112"
"二六三医院","01128074","8074"," ","116.636093791","39.9066001542","28","0112"
"玉桥社区服务中心","01128075","8075"," ","116.669649844","39.8864955691","24","0112"
"疃里一区北门","01128076","8076"," ","116.685737591","39.9413262206","40","0112"
"疃里一区南门","01128077","8077"," ","116.687233464","39.9369356762","32","0112"
"疃里二区","01128078","8078"," ","116.688862933","39.9454616312","32","0112"
"中国移动","01128079","8079"," ","116.643745899","39.9083511819","40","0112"
"通州区公安局","01128080","8080"," ","116.644962071","39.9018820113","28","0112"
"北苑广通小区","01128081","8081"," ","116.623825644","39.8964481941","28","0112"
"通州区古城村","01128082","8082"," ","116.706125175","39.9093315925","28","0112"
"运河明珠西","01128084","8084"," ","116.676395285","39.8948840551","40","0112"
"北运河西","01128085","8085"," ","116.676340114","39.8954032562","40","0112"
"通州党校","01128086","","通州党校","116.656348259","39.9012647097","32","0112"
"通州供暖中心","01128087","","通州供暖中心","116.668789146","39.9023747714","20","0112"
"万达广场1","01128088","","万达广场","116.642478449","39.9062094033","40","0112"
"万达广场2","01128089","","万达广场","116.638192525","39.9056703657","16","0112"
"通广嘉园","01128090","","通广嘉园","116.62809672","39.8917626564","40","0112"
"北关地铁1","01128092","","北关地铁1","116.659472623","39.9200183276","60","0112"
"北关地铁2","01128093","","北关地铁2","116.660831637","39.9203482509","40","0112"
"永顺前上坡3","01128094","","前上坡3","116.653747366","39.9124909797","20","0112"
"西马庄东口","01128095","","西马庄东口","116.62936241","39.9093322175","40","0112"
"永顺前上坡1","01128096","","前上坡1","116.652800093","39.9136129593","20","0112"
"永顺前上坡2","01128097","","前上坡2","116.65252015","39.912624484","32","0112"
"通州小街桥东","01128098","","通州小街桥东","116.680901715","39.8806107486","36","0112"
"竹木厂小区南门","01128099","","竹木厂小区南门","116.6373385","39.9103297521","40","0112"
"台湖小区","01128100","","台湖小区","116.648145897","39.8323720735","40","0112"
"台湖北姚园","01128101","","台湖北姚园","116.688418708","39.8284295388","24","0112"
"台湖玉甫上营","01128104","","台湖玉甫上营","116.659738973","39.832699067","60","0112"
"台湖前营村","01128105","","台湖前营村","116.635722174","39.8454590603","40","0112"
"台湖朱家垡村","01128106","","台湖朱家垡村","116.63538093","39.8481541295","32","0112"
"台湖胡家垡村","01128107","","台湖胡家垡村","116.614874104","39.8341821939","48","0112"
"台湖地铁车辆厂","01128108","","台湖地铁车辆厂","116.606623655","39.8290408946","40","0112"
"台湖环卫所","01128109","","台湖环卫所","116.62304519","39.8355609591","32","0112"
"台湖碱厂村","01128110","","台湖碱厂村","116.667044447","39.8226930716","32","0112"
"永顺前上坡4","01128111","","永顺前上坡4","116.651759233","39.9135506153","20","0112"
"台湖尖垡村","01128112","","台湖尖垡村","116.660558916","39.8143249492","40","0112"
"台湖西下营","01128113","","台湖西下营","116.672025563","39.8311380549","52","0112"
"台湖镇政府1","01128115","","台湖镇政府1","116.652227784","39.8316730443","40","0112"
"台湖镇政府2","01128116","","台湖镇政府2","116.651958951","39.8316556933","40","0112"
"次渠杭州银行","01128117","","次渠杭州银行","116.58330553","39.794898941","60","0112"
"次渠选房中心","01128118","","次渠选房中心","116.582398009","39.8060934907","52","0112"
"次渠北里路口145#楼","01128119","","次渠北里路口145#楼","116.582736512","39.8031832836","40","0112"
"定海园三里","01128120","","定海园三里","116.576895002","39.7956081315","48","0112"
"次渠地铁1","01128121","","次渠地铁1","116.599690148","39.8077985309","64","0112"
"次渠地铁2","01128122","","次渠地铁2","116.599533628","39.8075880164","32","0112"
"环渤海总部基地","01128127","","环渤海总部基地","116.584639322","39.8079539272","40","0112"
"会议中心3","01128128","","会议中心3","116.673863091","39.9311304656","48","0112"
"永顺管理服务中心","01128129","","永顺管理服务中心","116.673141282","39.934159639","44","0112"
"通州工商局","01128130","","通州工商局","116.656249249","39.9118182163","44","0112"
"台湖政务服务中心","01128131","","台湖政务服务中心","116.651844741","39.8320832183","60","0112"
"通州规划局","01128132","","通州规划局","116.682173354","39.8915733691","20","0112"
"通州消防支队","01128133","","通州消防支队","116.637249106","39.8613069148","32","0112"
"玉桥东里","01128134","","玉桥东里","116.691615125","39.8854625602","44","0112"
"滨江帝景南门","01128135","","滨江帝景南门","116.693371591","39.8896518118","56","0112"
"新城基业2","01128136","","新城基业2","116.692397441","39.8901472345","48","0112"
"幸福艺居南门","01128137","","幸福艺居南门","116.690478194","39.8886600489","44","0112"
"玉桥中路北口","01128138","","玉桥中路北口","116.676593337","39.8994809189","36","0112"
"翠屏里小区","01128139","","翠屏里小区","116.649497585","39.8866754332","40","0112"
"郝家府地铁东","01128140","","郝家府地铁东","116.720009358","39.9033220678","68","0112"
"郝家府地铁西","01128141","","郝家府地铁西","116.717955596","39.9034687156","72","0112"
"潞城地铁南","01128142","","潞城地铁南","116.744418802","39.901179851","60","0112"
"蓝调沙龙东","01128143","","蓝调沙龙东","116.65136529","39.8879006567","44","0112"
"蓝调沙龙西","01128144","","蓝调沙龙西","116.649052174","39.8879300663","44","0112"
"怡佳家园北","01128145","","怡佳家园北","116.643663101","39.9087933447","40","0112"
"东夏园地铁东","01128146","","东夏园地铁东","116.735312915","39.903612599","64","0112"
"东夏园地铁西","01128147","","东夏园地铁西","116.732522711","39.9034560384","60","0112"
"东夏园地铁南","01128148","","东夏园地铁南","116.733299624","39.900788709","52","0112"
"欣艺景园","01128149","","欣艺景园","116.684817353","39.8918820891","32","0112"
"台湖公园","01128150","","台湖公园","116.657521175","39.8242985545","44","0112"
"通州区国资委","01128151","","通州区国资委","116.656197164","39.9125753131","36","0112"
"潞苑南里3号院物美","01128152","","潞苑南里3号院物美","116.679037615","39.9300190277","40","0112"
"潞苑南里北口","01128153","","潞苑南里北口","116.67801444","39.9323784384","40","0112"
"潞苑南里1号院北口","01128154","","潞苑南里1号院北口","116.686530787","39.9335791655","48","0112"
"新华医院l路口南","01128155","","新华医院l路口南","116.681388936","39.9327343063","40","0112"
"珠江国际城南门","01128156","","珠江国际城南门","116.682133255","39.9301407429","40","0112"
"通州文化馆","01128157","","通州文化馆","116.686486826","39.9127900407","44","0112"
"新华医院","01128158","","新华医院","116.683969756","39.9337598044","60","0112"
"新潮家园","01128159","","新潮家园","116.698012432","39.9341337836","40","0112"
"东亚逸品阁东门","01128160","","东亚逸品阁东门","116.69133065","39.9335470099","40","0112"
"珠江丽景南口","01128161","","珠江丽景南口","116.680190745","39.9300250763","40","0112"
"小潞邑","01128162","","小潞邑","116.690873311","39.9352956362","40","0112"
"翠福园","01128163","","翠福园","116.654920212","39.9472569895","56","0112"
"乔庄北街西口","01128164","","乔庄北街西口","116.680715607","39.8955706553","40","0112"
"复兴里小区","01128166","","复兴里小区","116.644411852","39.8995406506","40","0112"
"潞苑南里三号院北门","01128167","","潞苑南里三号院北门","116.677258438","39.9322701358","40","0112"
"京贸国际城三号楼","01128168","","京贸国际城三号楼","116.686622522","39.917778351","44","0112"
"北机市场东门","01128169","","北机市场东门","116.642055535","39.8956929843","40","0112"
"马驹桥派出所","01128170","","马驹桥派出所","116.562503355","39.7491579601","60","0112"
"马驹桥西店环岛","01128171","","马驹桥西店环岛","116.561582939","39.7504499803","40","0112"
"马驹桥神龙公园","01128172","","马驹桥神龙公园","116.546361806","39.7548567005","35","0112"
"马驹桥玉林路口","01128173","","马驹桥玉林路口","116.555575011","39.7583366636","40","0112"
"奥体公园","01128174","","奥体公园","116.684851638","39.9124444544","40","0112"
"武装部2","01128175","","武装部2","116.670245602","39.9367835585","60","0112"
"马驹桥社区服务中心","01128176","","马驹桥社区服务中心","116.555393264","39.7626814912","37","0112"
"温馨家园西区","01128177","","温馨家园西区","116.550184895","39.7396563508","40","0112"
"豪润广场","01128178","","豪润广场","116.545751239","39.7596561437","40","0112"
"百尚生活广场","01128179","","百尚生活广场","116.54501283","39.7516618471","40","0112"
"联东U谷","01128180","","联东U谷","116.557450922","39.7351526646","40","0112"
"物流基地管理委员会","01128181","","物流基地管理委员会","116.58676787","39.7672102224","40","0112"
"新华小区","01128182","","新华小区","116.676127622","39.9042833155","40","0112"
"大稿村菜市场","01128183","","大稿村菜市场","116.631525691","39.873059264","40","0112"
"格瑞雅居西门","01128184","","格瑞雅居西门","116.643865948","39.8860619913","40","0112"
"世爵源墅","01128185","","世爵源墅","116.639741037","39.8757720941","40","0112"
"国风美仑小区","01128186","","国风美仑小区","116.585664815","39.7706337306","40","0112"
"马驹桥敬老院","01128187","","马驹桥敬老院","116.552184852","39.7564461525","40","0112"
"新海北里小区","01128188","","新海北里小区","116.541408656","39.7556656922","39","0112"
"小稿村南门","01128189","","小稿村南门","116.649131672","39.8710341589","40","0112"
"新城乐居西门","01128190","","新城乐居西门","116.689631879","39.863145427","40","0112"
"通州家乐福","01128191","","通州家乐福","116.654927024","39.8888256093","40","0112"
"华远铭悦西门","01128192","","华远铭悦西门","116.695209985","39.8725203927","35","0112"
"金源泉东","01128193","","金源泉东","116.647644601","39.893831288","40","0112"
"红杉公馆","01128194","","红杉公馆","116.635728721","39.8847547383","40","0112"
"花石匠","01128195","","花石匠","116.698832366","39.8729908511","35","0112"
"322公交总站","01128196","","322公交总站","116.701313578","39.9174997892","40","0112"
"潞河实验小学","01128197","","潞河实验小学","116.635699116","39.8819416779","35","0112"
"实验二小西","01128198","","实验二小西","116.701083988","39.8729181248","40","0112"
"322公交总站东","01128199","","322公交总站东","116.704412376","39.9178464501","40","0112"
"百河湾东门","01128200","","百河湾东门","116.6876549","39.9128328782","40","0112"
"通州财政局","01128201","","通州财政局","116.694208726","39.7731011346","20","0112"
"瑞都国际","01128202","","瑞都国际","116.656542934","39.8885587033","45","0112"
"大高力新村","01128203","","大高力新村","116.688711675","39.8659625903","40","0112"
"阳光保险东北门","01128204","","阳光保险东北门","116.647194008","39.9501095027","40","0112"
"金地格林小区","01128205","","金地格林小区","116.654896311","39.9498535815","52","0112"
"阳光保险西北门","01128206","","阳光保险西北门","116.650086616","39.9515581272","40","0112"
"迪卡侬","01128207","","迪卡侬","116.695011985","39.8705852068","40","0112"
"通州三中东","01128209","","通州三中东","116.730282878","39.9075652713","40","0112"
"潞河中学家属楼","01128210","","潞河中学家属楼","116.651882686","39.8993255117","32","0112"
"砖厂新村","01128211","","砖厂新村","116.698835956","39.8693705386","40","0112"
"玉桥小学北","01128212","","玉桥小学北","116.684513535","39.8933268409","35","0112"
"香林郡小区","01128213","","香林郡小区","116.679441545","39.9033685907","40","0112"
"京杭府","01128214","","京杭府","116.6582943","39.9084312548","40","0112"
"通州西站","01128215","","通州西站","116.743011439","39.9034964778","40","0112"
"华英园站","01130001","0113020001","顺于路 华英园南门东侧绿地","116.619741262","40.1288894369","30","0113"
"石门苑站","01130002","0113020002","石门街 石门苑南门东侧","116.632806852","40.1291969249","25","0113"
"国泰宏城站","01130003","0113040003","石门街 工商银行北  侧自行车停放处","116.635211596","40.1303454804","30","0113"
"万科北门站","01130004","0113010004","石门街 万科四季花城北门西侧","116.639727723","40.1294298342","50","0113"
"顺义地铁2站","01130005","0113010005","府前西街与顺白路交叉口东南侧空地","116.641695469","40.1295900091","30","0113"
"顺义交通局站","01130006","0113030006","府前西街  交通局东侧","116.649689386","40.1300631332","25","0113"
"顺义地铁1站","01130007","0113010007","府前东街 地铁顺义站C口东侧","116.658272184","40.1297501797","60","0113"
"自来水公司1站","01130008","0113020008","大东路 自来水公司东侧篮球场东","116.664761954","40.1295084355","30","0113"
"新世界百货站","01130009","0113040009","新顺南大街 新世界百货东南侧空地","116.651634281","40.1268920365","70","0113"
"农商银行站","01130010","0113040010","新顺南大街 北京农商银行前车位","116.651053848","40.1218579547","25","0113"
"怡园北门站","01130011","0113040011","建新东街 怡园公园北门西侧","116.651805244","40.1219587041","30","0113"
"怡馨家园东门站","01130012","0113020012","新顺街 怡馨家园东门北侧","116.651029764","40.1197263283","40","0113"
"便民街物美站","01130013","0113070013","光明北街与便民街 交叉口西北侧绿地","116.656837913","40.1346637203","35","0113"
"幸福东区车站","01130014","0113040014","光明街 幸福东区社区居委会","116.65717318","40.1345784758","15","0113"
"春峰大卖场站","01130015","0113070015","光明南街 顺义区少年宫南侧绿地","116.656963772","40.1246407177","35","0113"
"双兴南区北门站","01130016","0113020016","北城根路 双兴南区北门绿地","116.655081667","40.1402566572","25","0113"
"仁和花园站","01130017","0113020017","仁和花园东门北侧","116.68748524","40.1104913343","30","0113"
"胜利小区北门站","01130018","0113020018","顺沙路 胜利小区北门东侧车位","116.654108714","40.1370272764","25","0113"
"怡馨家园西门站","01130019","0113020019","站前北街 怡馨家园西门北侧","116.645308748","40.1200834398","20","0113"
"怡馨家园南门站","01130020","0113020020","顺平西路 怡馨家园 南门东侧报停","116.648257249","40.1176876108","20","0113"
"前进花园站","01130021","0113020021","顺沙路 前进花园一区18号楼北侧空地","116.631608834","40.138819888","30","0113"
"万科东门站","01130022","0113020022","顺白路 四季花城东门南侧车位","116.641127603","40.1270265816","25","0113"
"西辛北区站","01130023","0113020023","顺沙路 西辛北区4号楼南侧三角空地","116.643156759","40.1374967609","20","0113"
"裕龙五区站","01130024","0113020024","裕龙二街 裕龙花园五区门口东侧","116.678454721","40.1202404587","30","0113"
"望潮家园站","01130025","0113020025","右堤路 滨河小区东北门绿地","116.687930318","40.1186007969","20","0113"
"滨河北门站","01130026","0113020026","右堤路 滨河小区北门出口处","116.680514443","40.1206048049","30","0113"
"滨河南门站","01130027","0113020027","顺平路  滨河小区南门东侧","116.680722507","40.1162044575","30","0113"
"顺义八中站","01130028","0113050028","双兴小学对面","116.659006676","40.1405887334","30","0113"
"裕龙六区南门站","01130029","0113020029","顺平路  裕龙花园六区南门东侧","116.677716657","40.1171516435","25","0113"
"绿港四区站","01130030","0113020030","顺沙路绿港家园社区居委会楼下","116.660168896","40.1370928623","20","0113"
"裕龙西区站","01130031","0113020031","裕龙花园西区南侧公共厕所前","116.668543646","40.1261740973","25","0113"
"东兴二区站","01130032","0113020032","府前东街 东兴二区19号楼前","116.664959566","40.1315815358","20","0113"
"幸福东区南门站","01130033","0113020033","幸福街 幸福东区13号楼前","116.658307225","40.1333157585","20","0113"
"绿港二区站","01130034","0113050034","东安路 绿港家园二区11号楼北侧","116.66096182","40.1343748402","30","0113"
"裕龙二区1站","01130035","0113020035","裕龙二街 裕龙花园二区南门西侧","116.66719246","40.120341144","25","0113"
"裕龙一区1站","01130036","0113020036","裕龙二街 裕龙花园一区北门东侧","116.667670405","40.1202498613","20","0113"
"裕龙三区站","01130037","0113020037","拥军路 裕龙花园三区南门西侧","116.671470215","40.1235274075","35","0113"
"绿港一区站","01130038","0113040038","金汉绿港社区居委会南侧","116.664587115","40.1340266643","25","0113"
"五里仓南门站","01130039","0113020039","仓上街 五里仓社区南门东侧","116.655729304","40.1121158604","30","0113"
"石园北区东门站","01130040","0113020040","石园东路  石园北区3号楼东侧","116.669069364","40.1143578503","35","0113"
"石园西区北门站","01130041","0113020041","石园大街 石园西区居委会前","116.662408956","40.1120735944","30","0113"
"石园北区南门站","01130042","0113020042","石园大街 石园北二社区南门东侧","116.660559547","40.1122878923","35","0113"
"仁和商业大厦站","01130043","0113040043","集汇大街 仁和商大厦北侧","116.665426737","40.1084843326","30","0113"
"港馨东区1站","01130044","0113050044","顺福路 港馨家园东区28号楼西侧","116.688426425","40.1052566773","20","0113"
"顺义残联站","01130045","0113020045","顺平路 石园北区57号楼北侧","116.662610799","40.1165253603","30","0113"
"石园东区14号站","01130046","0113020046","石园大街 石园东社区4号楼北侧","116.668488654","40.1120610388","20","0113"
"集汇大街站","01130047","0113070047","集汇大街 鑫海韵通大卖场对面","116.659960738","40.1084672399","35","0113"
"港馨西区1站","01130048","0113020048","平沿路 港新家园南门东侧","116.678270349","40.1034739166","25","0113"
"妇幼医院站","01130049","0113030049","顺义区妇幼老年保健院东门南侧绿地","116.673300518","40.1138395253","30","0113"
"顺义公园北门站","01130050","0113080050","拥军路 顺义公园北门西侧","116.661443631","40.1228027114","35","0113"
"顺义公园东门站","01130051","0113040051","顺义公园 顺平辅线顺义公园东门北侧","116.664501135","40.1203447433","30","0113"
"顺义火车站站","01130052","0113070052","站前北街 站前北街顺义火车站出站口","116.645976226","40.1258671821","25","0113"
"自来水酒楼站","01130053","0113070053","通顺路 自来水大酒楼南侧","116.658379437","40.1132187985","25","0113"
"裕龙体彩中心","01130054","0113040054","体彩中心停车场","116.674218155","40.1204008703","25","0113"
"怡馨家园北门站","01130055","0113020055","建新西街 怡馨家园北门西侧","116.648129645","40.1218043346","30","0113"
"顺鑫华玺瀚楟站","01130056","0113010056","站前街 顺鑫国际商务中心西侧","116.648855124","40.1280454841","25","0113"
"鑫海韵通站","01130057","0113030057","府前西街 鑫海韵通百货南侧空地","116.650902471","40.1300634778","30","0113"
"西辛小学站","01130058","0113050058","顺白路 西辛南区西门公厕南侧","116.640630744","40.1338922744","30","0113"
"石门地铁3站","01130059","0113020059","顺白路 西辛南区西门79号楼西侧","116.641015292","40.1324370684","40","0113"
"燕京啤酒北门站","01130060","0113080060","平沿路 燕京啤酒北门西侧","116.684525909","40.103347562","50","0113"
"燕京啤酒南门站","01130061","0113080061","双河大街 燕京啤酒厂南门西侧","116.684981745","40.0959188186","50","0113"
"西辛南区南门南站","01130062","0113020062","府前街 西辛南区南门西侧南边","116.643468417","40.1300463316","50","0113"
"西辛南区南门北站","01130063","0113020063","府前街 西辛南区南门西侧北边","116.643481441","40.1300903865","50","0113"
"石园东区南门西站","01130064","0113020064","集汇大街 石园公园南侧","116.66499834","40.1089116732","30","0113"
"石门地铁2站","01130065","0113010065","顺白路 京顺医院西门北侧","116.641387012","40.1311790638","50","0113"
"石门地铁1站","01130066","0113010066","顺白路 石门地铁站B口北侧","116.641431728","40.1308830289","35","0113"
"卧龙环岛站","01130067","0113020067","顺沙路 西辛南区62号楼北侧","116.640957224","40.1375517015","45","0113"
"顺义地铁3站","01130068","0113010068","府前街 顺义地铁车站西侧","116.658648171","40.1296898476","40","0113"
"龙府花园站","01130069","0113020069","北城根路 龙府花园南门东侧","116.651767739","40.1408247259","20","0113"
"国泰广场站","01130070","0113040070","府前街 国泰商场北侧","116.652572199","40.1298229816","45","0113"
"胜利南门站","01130071","0113020071","便民街 胜利小区南门东侧","116.655353929","40.1346704138","45","0113"
"裕龙二区2站","01130072","0113020072","裕龙二街 裕龙二区南门东侧","116.667857325","40.1204403159","20","0113"
"裕龙一区2站","01130073","0113020073","裕龙二街 裕龙一区北门西侧","116.667232157","40.1202358506","25","0113"
"隆华购物中心站","01130074","0113040074","新顺南大街 隆华购物中心地下停车场东侧","116.651025484","40.1269688446","45","0113"
"AMB大厦站","01130075","0113030075","仓上街 AMB商业大厦北侧","116.65838423","40.1119878123","25","0113"
"石园南区东门站","01130076","0113020076","顺仁路 石园南区东门南侧","116.664645949","40.1055705647","40","0113"
"裕龙四区南门2站","01130077","0113020077","裕龙二街 裕龙四区南门对面","116.671040043","40.1202498794","25","0113"
"裕龙四区北门西站","01130078","0113020078","拥军路 裕龙四区北门西侧","116.671559592","40.1234390317","25","0113"
"裕龙四区北门东站","01130079","0113020079","拥军路 裕龙四区北门东侧","116.67283553","40.1234213908","45","0113"
"石门市场1站","01130080","0113080080","顺于路 石门市场东侧 南边","116.627770191","40.1290519321","45","0113"
"石门市场2站","01130081","0113080081","顺于路 石门市场东侧 北边","116.627752205","40.1291491585","45","0113"
"梅沟营车站站","01130082","0113070082","顺白路 梅沟营车站东侧","116.64132839","40.1189330449","40","0113"
"裕龙四区南门1站","01130083","0113020083","裕龙二街 裕龙四区南门对面","116.671330204","40.120249219","20","0113"
"顺义总工会站","01130084","0113020084","光明街 顺义总工会北侧","116.657340455","40.1267396331","25","0113"
"五里仓兴顺宝典站","01130085","0113020085","顺平辅路 金色时光孕婴儿童商城北侧","116.651731131","40.1170951349","30","0113"
"图书馆站","01130086","0113030086","拥军路 文艺委员会北侧","116.657802125","40.1224253976","35","0113"
"拥军路东口站","01130087","0113080087","拥军路 歌华有线北侧","116.665814764","40.1232717257","35","0113"
"民生银行西门1站","01130088","0113030088","通顺路 民生银行西门 南侧 东边","116.660550734","40.1614385075","45","0113"
"民生银行西门2站","01130089","0113030089","通顺路 民生银行西门 南侧 西边","116.660349849","40.1614322659","45","0113"
"金蝶软件南门站","01130090","0113030090","金蝶软件南门 西侧 ","116.664770359","40.1601181588","45","0113"
"港馨东区2站","01130091","0113020091","顺福路 港新家园东区西门南侧","116.688525186","40.1048467359","25","0113"
"港馨西区2站","01130092","0113020092","平沿路 港新家园西区南门东侧","116.679413857","40.1035647297","25","0113"
"自来水公司2站","01130093","0113080093","大东路 自来水公司东侧篮球场北侧","116.66477494","40.1295846869","20","0113"
"旺泉街道站","01130094","0113020094","旺泉北街 旺泉寺幼儿园东侧","116.636109301","40.1230507457","35","0113"
"仁和镇政府站","01130095","0113030095","顺义区仁和镇政府南门东侧车位","116.65370962","40.1175765499","45","0113"
"管理服务中心站","01140001","","智通路管理服务中心门口西侧","116.237267548","40.1968461056","32","0114"
"富泉花园站","01140002","","白浮泉路富泉花园南门东侧（北）","116.248089306","40.2004641943","44","0114"
"环保局站","01140003","","创新路与白浮泉路东北角","116.240891856","40.2004356181","38","0114"
"北控科技大厦站","01140004","","白浮泉路与永安路交叉口东南角","116.23431894","40.2002816434","38","0114"
"水屯桥站","01140005","","白浮泉路与G6辅路东北角","116.230529336","40.2003577269","40","0114"
"科技园管委站","01140006","","超前路，科技园管委会门前东侧（北）","116.238258223","40.2038713127","50","0114"
"金隅观澜社区站","01140007","","龙水路，金隅观澜社区南侧人行道","116.258680155","40.2076219563","40","0114"
"世涛天朗小区站","01140008","","振兴路与昌盛路东北角","116.251289308","40.2081247266","40","0114"
"规划分局站","01140009","","振兴路，规划分局门口东侧人行道（北）","116.243284361","40.207809254","30","0114"
"亚东大厦站","01140010","","永安路与振兴路东南角","116.234256016","40.207372752","46","0114"
"昌盛园小区站","01140011","","昌一路昌盛园小区公交站西侧","116.250943739","40.2091289044","36","0114"
"北京风景站","01140012","","内环东路与南环路东北角","116.288409575","40.2129112169","36","0114"
"四合新村站","01140013","","南环路四合新村南门对面","116.278486","40.2127140986","44","0114"
"广电中心站","01140014","","南环东路与龙水路交叉口，东门南侧（西）","116.258342218","40.2131798592","58","0114"
"城南办事处站","01140015","","城南办事处东门北侧","116.254976208","40.212691561","50","0114"
"移动公司站","01140016","","富康路与南环南路东南角","116.24511941","40.2128432425","38","0114"
"市政管委站","01140017","","南环路市政市容管理委员会西侧（北）","116.238747035","40.2130392148","36","0114"
"金隅万科城站","01140018","","南环路，金隅万科城东门北侧（南）","116.240316002","40.2124652884","48","0114"
"商务局站","01140019","","南环路商务委员会门口西侧人行道（北）","116.23199878","40.2128520866","28","0114"
"永安公园站","01140020","","西环路，永安公园东门南侧人行道（西）","116.226980509","40.2134492408","52","0114"
"化工大学西门站","01140021","","亢山路化工大学西门南侧人行道","116.250972246","40.2138955475","40","0114"
"宁馨苑站","01140022","","龙水路宁馨苑南门","116.259094737","40.2184888404","36","0114"
"清秀园小区","01140023","","中石路与燕平路东南处","116.244748066","40.2165660308","34","0114"
"昌平公园东门站","01140024","","东环路昌平公园东门南侧","116.239965248","40.2182111811","38","0114"
"昌平公园站","01140025","","鼓楼南街，昌平公园西门人行道（东）","116.233977649","40.2174271576","40","0114"
"蓝郡国际花园站","01140026","","西环路蓝郡国际花园东门对面","116.227200748","40.217001434","40","0114"
"果岭假日广场站","01140027","","昌崔路，果岭假日广场门前人行道（北）","116.264185258","40.2218885834","40","0114"
"福地家园站","01140028","","府学路福地家园北门西侧","116.260786073","40.2218276902","26","0114"
"亢山广场站","01140029","","亢山路亢山广场西门处（东）","116.25077345","40.2209174769","48","0114"
"阳光商厦站","01140030","","府学路，科委对面人行道（南）","116.243531747","40.2210580633","58","0114"
"仲裁中心站","01140031","","政府街仲裁中心南门前","116.236653391","40.2208206529","40","0114"
"区人民检察院站","01140032","","政府街，区人民检察院对面","116.238717707","40.2205534993","30","0114"
"区政府站","01140033","","政府街，区政府西侧人行道（北）","116.230742456","40.2205625797","60","0114"
"服务中心站","01140034","","政府街服务中心南门对面","116.22771125","40.2200794287","36","0114"
"发改委站","01140035","","西环路与政府街西路交叉口，西北角（西）","116.22666575","40.2203545956","48","0114"
"财政局站","01140036","","东环路，财政局门口北侧人行道（西）","116.239577318","40.2232021617","36","0114"
"政法大学站","01140037","","东关路政法大学北门西侧","116.247472013","40.2249304831","48","0114"
"区医院站","01140038","","鼓楼北街区医院北侧人行道（西）","116.233060927","40.2272675941","48","0114"
"安福苑站","01140039","","东环路安福苑9号楼前","116.239518441","40.2251324829","38","0114"
"西环里社区站","01140040","","北环路与西环路交叉口，西南角（西）","116.226338454","40.2292024942","40","0114"
"昌平汽车北站","01140041","","北环路与鼓楼北街交叉口，东北角（北）","116.233325926","40.2296916163","44","0114"
"妇幼保健院站","01140042","","北环路，妇幼保健院西侧公交站后（北）","116.239236289","40.2297475188","22","0114"
"南邵地铁站","01140043","","内环东路与南环南路交叉口东南角","116.288225617","40.2073271381","56","0114"
"育知路地铁站","01140201","","育知路东侧D进出站口（东）","116.325395058","40.0872276722","42","0114"
"平西府地铁站","01140202","","D3进出站口东侧门前（东）","116.348936643","40.0890406941","48","0114"
"回龙观东大街站","01140203","","回龙观东大街北侧公交站（北）","116.362797975","40.0814738753","36","0114"
"霍营地铁站","01140204","","黄平路F2东北口（南）","116.360548453","40.0726274958","48","0114"
"育新地铁站","01140205","","黄平路和建材城西路交叉口西南角","116.346455724","40.0604372905","34","0114"
"回龙观地铁站","01140206","","同成街北侧（北）","116.336917241","40.0708739029","48","0114"
"龙泽地铁站","01140207","","同成街地铁站进出站口（北）","116.319568835","40.0710145653","36","0114"
"流星花园二区站","01140208","","龙锦二街与文化西路西北处","116.337443527","40.0861020262","40","0114"
"龙回苑站","01140209","","龙回苑西门南侧（东）","116.343713028","40.0881981675","40","0114"
"龙锦苑一区站","01140210","","龙锦苑一区路口东北处","116.357698616","40.0870646098","30","0114"
"龙锦苑东一区站","01140211","","龙锦苑东二区北门东侧（南）","116.368938906","40.0877414464","38","0114"
"回龙观中学站","01140212","","龙禧三街，回龙观中学门口西侧（北）","116.319062894","40.0797652117","44","0114"
"风雅园三区站","01140213","","龙禧三街风雅园三区北门西侧","116.321701772","40.0803762691","46","0114"
"回龙园站","01140214","","育知路和龙禧三街交叉口西北角","116.326905543","40.0815940654","50","0114"
"云趣园三区北门站","01140215","","龙禧三街云趣园北门对面","116.329815225","40.0822406629","40","0114"
"龙禧苑二区站","01140216","","文华路，东门南侧（西）","116.343634644","40.0850870281","40","0114"
"龙锦苑五区站","01140217","","龙锦苑五区西门马路对面（西）","116.349311334","40.0834016664","36","0114"
"龙锦苑东二区站","01140218","","龙锦苑东二区南门幼儿园东侧（北）","116.377802374","40.0878269658","40","0114"
"龙锦苑东五区站","01140219","","龙锦三街龙锦苑东五区南门西侧路口（北）","116.380378762","40.0867320415","36","0114"
"慧华苑站","01140220","","回龙观西大街，永辉超市门前（南）","116.318527985","40.074135739","60","0114"
"龙华园小区站","01140221","","育知西路和回龙观西大街交叉口西北（北）","116.323061386","40.0763056217","30","0114"
"天使妇儿医院站","01140222","","育知路与回龙观东大街西北处","116.328616207","40.0780333217","40","0114"
"云趣园三区站","01140223","","育知东路南侧，东门北侧公交站（西）","116.328262192","40.0789296113","38","0114"
"北店时代广场站","01140224","","宜尚百货前，回龙观西大街北侧（北）","116.335270881","40.0803587057","38","0114"
"龙锦苑六区站","01140225","","文华路和回龙观东大街交叉口西南角（西）","116.344166081","40.0800574252","38","0114"
"回龙观办事处站","01140226","","回龙观地区办事处回龙观东大街北侧（北）","116.346096748","40.0804969537","42","0114"
"天龙苑站","01140227","","科星西路和回龙观东大街交叉西北角（北）","116.357997259","40.0809788264","28","0114"
"霍营街道办事处站","01140228","","黄平路和回龙观东大街交叉口西北角（东）","116.367321126","40.0815624554","32","0114"
"龙锦苑东四区站","01140229","","回龙观东大街龙锦苑东四区南门（南）","116.370476603","40.082402352","36","0114"
"龙腾苑三区站","01140230","","育知东路和龙腾街交叉口西北角（西）","116.333813579","40.0759146443","42","0114"
"龙腾苑二区站","01140231","","文华西路龙腾苑二区东门南侧（西）","116.339179455","40.0763424329","40","0114"
"龙跃苑一区站","01140232","","文华东路龙跃苑一区西门北侧（东）","116.350149109","40.0788474621","36","0114"
"龙泽调度中心站","01140233","","同成街龙泽停车场西门东侧","116.323778083","40.0714306257","42","0114"
"育知路南站","01140234","","育知路南首育知路南站公交站","116.325547803","40.0850511523","40","0114"
"龙腾苑四区站","01140235","","文华路龙腾苑四区东门南侧（西）","116.344305762","40.0736213414","36","0114"
"龙跃苑四区站","01140236","","文华东路龙跃苑四区东门（西）","116.349981604","40.0735633824","36","0114"
"龙跃苑东二区站","01140237","","良庄西路龙跃苑东二区西门对面（西）","116.35398364","40.077256784","36","0114"
"龙博苑三区站","01140238","","文华路龙博苑三区东门南侧（西）","116.345118706","40.0668355188","34","0114"
"吉晟别墅站","01140239","","太平庄北街吉晟别墅南门东侧（北）","116.340898428","40.063745642","36","0114"
"天通苑北A","01140401","","地铁天通苑北站停车场","116.413262359","40.088729405","36","0114"
"天通苑北B","01140402","","地铁天通苑北站停车场","116.413429462","40.0887375413","52","0114"
"地铁天通苑站","01140403","","地铁天通苑站进出口过街天桥下南侧（西）","116.413018787","40.0758814953","40","0114"
"地铁天通苑站东","01140404","","立汤路东侧，中过街天桥北侧（东）","116.412940667","40.0749464295","36","0114"
"地铁天通苑南站","01140405","","立汤路西侧天桥下（西）","116.412796717","40.065564855","40","0114"
"地铁天通苑南站东","01140406","","天通苑南站东侧过街天桥下（东）","116.413536481","40.0653106547","42","0114"
"天通西苑北门站","01140407","","太平庄北街天通西苑北门对面（北）","116.407171974","40.0795355457","32","0114"
"天通北苑三区北门","01140408","","天通北苑三区北门马路对面（北）","116.434872409","40.0795860633","32","0114"
"天通北苑一区站","01140409","","天通北苑一区东门南侧（西）","116.42150461","40.077485763","36","0114"
"天通东苑三区站","01140410","","天通东苑三区北门，公厕东侧（北）","116.439130184","40.0766735333","32","0114"
"北一区南门站","01140411","","立水桥北路与太平庄中二街东南角","116.417270704","40.0737742766","44","0114"
"北二区南门站","01140412","","立水桥东二路于太平庄中二街东南角","116.425419515","40.0737694328","36","0114"
"天通北苑二区站","01140413","","昌平一中天通苑分校西门南侧（东）","116.428816521","40.0747067945","36","0114"
"天通北苑三区南门","01140414","","天通北苑三区南门西侧（北）","116.432009269","40.0743621213","36","0114"
"天通中苑站","01140415","","天通中苑南门马路对面（南）","116.423689422","40.0709141273","36","0114"
"丽水园北站站","01140416","","立水桥北路与太平庄中街东北处","116.416651439","40.0692551707","36","0114"
"天通中苑西区站","01140417","","天通中苑西区东门南侧（西）","116.424684436","40.0682902181","36","0114"
"太平家园站","01140418","","太平家园南门东侧（北）","116.409771433","40.068106795","36","0114"
"华联超市站","01140419","","太平庄中街与立汤路东南角","116.413504713","40.0677279329","42","0114"
"天通苑六区站","01140420","","天通苑六区北门西侧（南）","116.424432441","40.0672634331","36","0114"
"天通苑老六区南门","01140421","","中滩村北三街与立水桥东二路西南处","116.424384178","40.0645170859","36","0114"
"天通苑西一区站","01140422","","天通苑西一区南门（西）","116.408818802","40.0613080794","36","0114"
"天通苑站","01140423","","立水桥东二路与东一路交叉口西北角向北50米","116.4216694","40.0621814957","36","0114"
"天通苑东一区站","01140424","","天通苑东一区南门对面东侧（南）","116.431081066","40.0629431114","36","0114"
"天通东苑二区站","01140425","","天通东苑二区南门马路对面东侧（南）","116.441344248","40.0623307461","36","0114"
"龙德广场站","01140426","","龙德广场西门立汤路天桥东侧（南）","116.4141046","40.0595022446","38","0114"
"东小口镇政府站","01140427","","立水桥西路镇政府站东侧（西）","116.408985412","40.0582942879","30","0114"
"万兴集团站","01150001","0001","大兴区黄村京开辅路","116.344970541","39.7386063756","20","0115"
"大兴工商局站","01150002","0002","大兴区黄村京开辅路","116.34565155","39.7305669008","20","0115"
"火神庙商场站","01150003","0003","大兴区黄村市场路","116.343043516","39.7297291819","20","0115"
"广电中心站","01150004","0004","大兴区黄村市场路与兴正街口","116.342582705","39.7268353731","20","0115"
"一中体育馆站","01150005","0005","大兴区黄村京开路西","116.345517675","39.7247124798","30","0115"
"观音寺南里西门站","01150006","0006","大兴区黄村京开路东","116.346080278","39.7241575385","20","0115"
"观音寺北里西门站","01150007","0007","大兴区黄村京开路东","116.346350414","39.7288574036","20","0115"
"双河南里西门站","01150008","0008","大兴区黄村京开路东","116.345976959","39.7346109724","20","0115"
"双河北里西门站","01150009","0009","大兴区黄村京开路东","116.345542288","39.7390373898","20","0115"
"林干院站","01150010","0010","大兴区黄村林校路林干院门口","116.339245003","39.7222651781","14","0115"
"金华里西门站","01150011","0011"," 大兴区黄村镇京开路东","116.345238228","39.7450991","20","0115"
"西斯莱公馆南门站","01150012","0012","大兴区黄村镇金星西路","116.337691769","39.7633307232","20","0115"
"高米店站","01150013","0013","大兴区黄村镇金星西路与金星桥路北","116.340817084","39.7632355403","20","0115"
"车站北里东门站","01150014","0014","大兴区黄村镇兴丰大街","116.339411821","39.725493195","20","0115"
"老年大学站","01150015","0015","大兴区黄村镇市场东巷","116.344910966","39.7286292609","20","0115"
"时代龙河北门站","01150016","0016","大兴区黄村镇富强路","116.341688482","39.7375673668","18","0115"
"黄村镇政府站","01150017","0017","大兴区黄村镇清源路","116.339920316","39.742768055","20","0115"
"枣园地铁西北口站","01150018","0018","大兴区黄村镇枣园路与兴华大街西北口","116.331178209","39.7533750541","20","0115"
"高米店南站","01150019","0019","大兴区黄村镇兴华大街与金星西路口","116.331965678","39.7626383212","20","0115"
"华堂商场站","01150020","0020","大兴区黄村镇兴丰大街与康庄路交叉口东南角","116.335709978","39.7576257745","20","0115"
"校长大厦西站","01150021","0021","大兴区黄村镇清源北路19号","116.322990462","39.7445356214","20","0115"
"枣林公园站","01150022","0022","大兴区黄村镇兴丰大街枣林公园东门南侧","116.337584723","39.7518200859","20","0115"
"街心公园站","01150023","0023","大兴区黄村镇兴丰南大街街心公园东门南侧","116.339405087","39.7284192622","20","0115"
"兴丰派出所站","01150024","0024","大兴区黄村镇兴丰南大街黄村西里东门公交车站","116.339227614","39.7366149576","30","0115"
"金星西路口南站","01150025","0025","大兴区黄村镇兴丰大街与金星西路口南","116.322282851","39.7624323602","20","0115"
"兴涛园站","01150026","0026","大兴区黄村镇兴业大街与乐园路口","116.322321234","39.7662807621","16","0115"
"顺驰领海站","01150027","0027","大兴区黄村镇兴业大街顺驰领海小区东门对过南侧","116.322646413","39.7752790316","16","0115"
"阳光乐府北站","01150028","0028","大兴区黄村镇三中西巷阳光乐府北门东侧","116.328556254","39.7333022531","32","0115"
"阳光乐府南站","01150029","0029","大兴区黄村镇黄村西大街阳光乐府小区南门东侧","116.329107573","39.731796183","30","0115"
"丽园B区站","01150030","0030","大兴区黄村镇枣园路丽园B区公交车站","116.322779657","39.7509013416","30","0115"
"风景翠园站","01150031","0031","大兴区黄村镇风景翠园小区北门","116.324198999","39.7773523519","14","0115"
"石化学院北站","01150032","0032","大兴区黄村镇北京石油化工学院北门东侧","116.325064015","39.7500324572","20","0115"
"枣园小区南站","01150033","0033","大兴区黄村镇丽园路枣园小区南门公交车站东侧","116.329197996","39.750168343","20","0115"
"枣园尚城东站","01150034","0034","大兴区黄村镇枣园巷T4停车场西门南侧","116.328970145","39.7541912349","16","0115"
"大兴二中站","01150035","0035","大兴区黄村镇二中西门对过装配站北门西侧","116.340525897","39.7501483448","26","0115"
"玫瑰城站","01150036","0036","大兴区黄村镇枣园路玫瑰城商业中心北门西侧","116.334390924","39.7533753706","20","0115"
"枣园尚城南站","01150037","0037","枣园路枣园尚城小区南门东侧","116.326038048","39.7530847223","16","0115"
"枣园东里南站","01150038","0038","大兴区黄村镇丽园路晓雄美发门口","116.336246957","39.7502293022","24","0115"
"经济信息委员会站","01150039","0039","大兴区黄村镇兴丰南大街901停车场西门南侧","116.339912337","39.723891827","18","0115"
"团结巷站","01150040","0040","大兴区黄村镇团结巷停车场西门南侧","116.336441341","39.7291145203","16","0115"
"法院西门站","01150041","0041","大兴区黄村镇永和巷大兴法院西门南侧","116.328301587","39.7621134586","20","0115"
"滨河西里北区站","01150042","0042","大兴区黄村镇枣园路滨河西里北区小区南门东侧","116.338451402","39.7535276863","22","0115"
"瑞康家园站","01150043","0043","大兴区黄村镇龙河路瑞康家园小区东门对过路南","116.343552859","39.7398330392","20","0115"
"地税局站","01150044","0044","大兴区黄村镇兴丰北大街地税局东门南侧","116.339202243","39.7431487967","18","0115"
"枣园小区东站","01150045","0045","大兴区黄村镇兴华大街枣园小区东门东北侧","116.331996879","39.7518923011","20","0115"
"建兴物美站","01150046","0046","大兴区黄村镇林校路物美超市西物美停车场","116.334128827","39.7227354663","30","0115"
"大兴桥西站","01150047","0047","大兴区黄村镇林校北路靠近大兴桥","116.344003561","39.7223992391","20","0115"
"车站中里站","01150048","0048","大兴区黄村镇林校路","116.33769166","39.722322058","22","0115"
"百联清城站","01150049","0049","大兴区黄村镇兴华大街与富强路交叉口西北角","116.33231859","39.7384767763","16","0115"
"林校北里站","01150050","0050","大兴区黄村镇林校北路","116.339774713","39.7224942897","14","0115"
"公路分局站","01150051","0051","大兴区黄村镇林校北路大兴桥西","116.342345034","39.7221555126","22","0115"
"行政服务中心站","01150052","0052","大兴区黄村镇兴华大街清城小区南区东门北侧","116.3322659","39.7365667961","20","0115"
"彩虹新城西站","01150053","0053","大兴区黄村镇兴华大街彩虹新城西门","116.332687373","39.7474932088","16","0115"
"波普中心站","01150054","0054","大兴区黄村镇兴华大街波普中心","116.332145544","39.7484493922","16","0115"
"印刷学院站","01150055","0055","清源路地铁口西北出口北","116.332199129","39.7447620134","24","0115"
"首邑西门站","01150056","0056","大兴区黄村镇首邑停车场西门","116.332387941","39.75684745","16","0115"
"中铁五院站","01150057","0057","大兴区黄村镇康庄路中铁五院南门","116.337164581","39.7582266058","32","0115"
"民生银行站","01150058","0058","大兴区黄村镇兴政街民生银行","116.331556914","39.7276099284","20","0115"
"清源西里西站","01150059","0059","大兴区黄村镇清源西里小区西门","116.332589436","39.743983822","20","0115"
"康和园南站","01150060","0060","大兴区黄村镇康庄路康和园小区南门","116.327386778","39.7574578397","20","0115"
"八中北门站","01150061","0061","大兴区黄村镇康庄路八中北门","116.320385109","39.7569147163","32","0115"
"丽园社区站","01150062","0062","大兴区黄村镇枣园西路","116.319419387","39.7528680253","32","0115"
"兴涛社区站","01150063","0063","大兴区黄村镇兴和街","116.327945477","39.7646612145","20","0115"
"华昱家园站","01150064","0064","大兴区黄村镇兴业大街小青烧烤南侧","116.328202081","39.7279370737","20","0115"
"桐城办公行政楼站","01150065","0065","大兴区黄村镇兴旺路","116.329012069","39.7239406073","40","0115"
"怡兴园站","01150066","0066","大兴区黄村镇黄村西大街怡兴园小区北门东侧","116.329658925","39.7316115193","20","0115"
"林校街道站","01150067","0067","大兴区黄村镇兴华大街林校街道办事处","116.332240899","39.7237222556","20","0115"
"交通学校站","01150068","0068","大兴区黄村镇滨河路","116.342117521","39.744590424","20","0115"
"校长大厦北站","01150069","0069","大兴区黄村镇清源北路校长大厦北门","116.325073414","39.7461557201","20","0115"
"博悦府站","01150070","0070","大兴区黄村镇兴业大街36号","116.326170716","39.73412836","16","0115"
"北京小学站","01150071","0071","大兴区黄村镇兴业大街","116.323953405","39.7406355188","20","0115"
"原生墅站","01150072","0072","大兴区黄村镇金星西路","116.32327948","39.7632928285","20","0115"
"法院北门站","01150073","0073","大兴区黄村镇金星西路","116.329367567","39.7631843584","34","0115"
"康隆园北站","01150074","0074","大兴区黄村镇金星西路","116.318955022","39.7631847927","40","0115"
"兴华中学站","01150075","0075","大兴区黄村镇兴华大街","116.332633705","39.7544089211","32","0115"
"中建国际港站","01150076","0076","大兴区黄村镇丽园路与兴华大街东北口","116.333323759","39.75020824","16","0115"
"可可家园站","01150077","0077","大兴区黄村镇金星西路","116.312101125","39.7631968239","40","0115"
"康盛园北站","01150078","0078","大兴区黄村镇金星西路","116.314681159","39.7632054499","40","0115"
"绿地缤纷城站","01150079","0079","大兴黄村金星西路绿地缤纷城门口","116.333767104","39.763419315","40","0115"
"西大街地铁B口站","01150080","0080","大兴区黄村镇兴华大街西大街路灯","116.33305803","39.7325301336","20","0115"
"清源路地铁C口站","01150081","0081","兴华大街清源路东口","116.332675005","39.7419436567","20","0115"
"区政府大院站","01150082","0082","大兴区黄村镇兴政街区政府大院内","116.340909985","39.7275901165","16","0115"
"T6站","01150083","0083","大兴区黄村镇公共自行车管理自行车门口","116.330461305","39.747049065","20","0115"
"高米店A口站","01150084","0084","大兴区黄村镇金星西路与新华大街路西","116.331330184","39.763988739","20","0115"
"华润公元九里站","01150085","0085","大兴区黄村镇金星西路","116.320486813","39.7634793651","20","0115"
"水晶之星站","01150086","0086","大兴区黄村镇康庄路与滨河街路西","116.340509114","39.7573007792","20","0115"
"翰林院东门站","01150087","0087","大兴区黄村镇兴华大街路西","116.332373397","39.7259764683","20","0115"
"滨河西里西门站","01150088","0088","大兴区黄村镇兴丰大街路东","116.338392538","39.7466596359","20","0115"
"区医院站","01150089","0089","大兴区黄村镇兴华大街与西大街口","116.332857364","39.7314401267","20","0115"
"洪村站","01150090","0090","大兴区黄村镇新华大街","116.331828311","39.7567953894","18","0115"
"富强西里南门站","01150091","0091","大兴区黄村镇富强路与兴丰大街口","116.339043057","39.7375576241","18","0115"
"黄村西里北门站","01150092","0092","大兴区黄村镇富强路与兴华大街口","116.333457615","39.7375284303","20","0115"
"清源街道办事处站","01150093","0093","大兴区黄村镇兴丰大街（枣林公园对面）","116.337817593","39.7522235794","20","0115"
"兴华园南门站","01150094","0094","大兴区黄村镇清源北路","116.336512343","39.745231412","20","0115"
"高米店北里西门站","01150095","0095","大兴区黄村镇兴丰北街","116.33528477","39.7716131176","18","0115"
"西斯莱公馆西门站","01150096","0096","大兴区黄村镇兴丰北街","116.335378429","39.7650777621","20","0115"
"大兴七街站","01150097","0097","大兴区黄村镇兴丰大街","116.337608579","39.7194448471","20","0115"
"兴丰街道站","01150098","0098","大兴区黄村镇西大街","116.342870435","39.731983034","20","0115"
"兴华建材城站","01150099","0099","大兴区黄村镇兴华大街","116.33213012","39.7605521371","20","0115"
"郁花园三里北门站","01150100","0100","大兴区黄村镇双高路","116.332527893","39.7725088701","20","0115"
"高米店北里北门站","01150101","0101","大兴区黄村镇香园路","116.337846843","39.772549482","18","0115"
"双高花园南门站","01150102","0102","大兴区黄村镇双高东路","116.337288153","39.7701495313","18","0115"
"金惠园三里北门站","01150103","0103","大兴区黄村镇香园路","116.325120823","39.7731521508","20","0115"
"北师大附小站","01150104","0104","大兴区黄村镇香园路","116.319574336","39.7729643536","20","0115"
"香留园B区北门站","01150105","0105","大兴区黄村镇双高路","116.314739709","39.7697490745","20","0115"
"香留园A区对面站","01150106","0106","大兴区黄村镇双高路","116.319428264","39.7697270661","20","0115"
"青岛嘉园北门站","01150107","0107","大兴区黄村镇香园路高米店地铁北D口西","116.328699541","39.7729923266","20","0115"
"顺驰领海西门站","01150108","0108","大兴区黄村镇兴旺路西环","116.314664975","39.7760496158","20","0115"
"富强西里东门站","01150109","0109","大兴区黄村镇兴丰大街阳阳小吃北","116.339126381","39.7405391253","20","0115"
"兴华易购市场站","01150110","0110","大兴区黄村镇清源路印刷博物馆对面","116.331586439","39.7425517066","20","0115"
"三合北巷7号院站","01150111","0111","大兴区黄村镇三合北巷北门西","116.320026428","39.7367181492","20","0115"
"三合北巷5号院站","01150112","0112","大兴区黄村镇三合北巷西门南","116.322266659","39.7353846717","18","0115"
"郁花园三里南门西站","01150113","0113","大兴区黄村镇兴华大街与双高路北口","116.332221534","39.7701320187","30","0115"
"天宫院西门站","01150114","0114","大兴区黄村镇新源大街（庆丰西路1号院","116.320558308","39.6795404441","20","0115"
"生物医药基地站","01150115","0115","大兴区黄村镇新源大街地铁","116.321816237","39.6863624732","20","0115"
"中粮丰通站","01150116","0116","大兴区黄村镇天华大街与永大路口","116.31541149","39.6885272456","20","0115"
"新源时代小区站","01150117","0117","大兴区黄村镇天河西路与顺昌街路西","116.325119889","39.6912566041","20","0115"
"药谷1号站","01150118","0118","大兴区黄村镇天富大街东公交站","116.3024458","39.6825744828","20","0115"
"黄村村工商所站","01150119","0119","大兴区黄村镇天富大街工商所门北","116.302408559","39.6793313838","20","0115"
"天宫院管委会站","01150120","0120","大兴区黄村镇新源大街与天河西路南","116.32166832","39.6915653682","20","0115"
"梦狐竹纤维北门站","01150121","0121","大兴区黄村镇天河西路","116.303948321","39.6911747508","20","0115"
"天宫院地铁D口站","01150122","0122","大兴区黄村镇新源大街与思邈路南","116.319443535","39.6699455261","20","0115"
"北臧村服务中心站","01150123","0123","大兴区黄村镇天荣大街","116.311190486","39.672973704","20","0115"
"天宫院街道社区站","01150124","0124","大兴区黄村镇海子角海悦公馆门口","116.345248667","39.7191657657","18","0115"
"香留园B区南门站","01150125","0125","大兴区黄村镇双高路靠近兴旺路","116.313829571","39.7700688641","20","0115"
"念坛公园东门站","01150126","0126","新源大街念坛公园东门南侧","116.321429485","39.7059198082","30","0115"
"兴康家园北门站","01150127","0127","康庄路52号对面井近兴旺路","116.309959439","39.7568905281","20","0115"
"康乃馨城北门站","01150128","0128","丽园西路靠近兴旺路","116.31129284","39.7502046298","22","0115"
"交通学校北站","01150129","0129","滨河街交通学校西门北侧","116.341766077","39.7453310499","20","0115"
"开发区管委会站","01150130","0130","广茂大街与金苑路交界口","116.348123864","39.7594242451","20","0115"
"广阳大街路西站","01150131","0131","金苑路与广阳大街路西","116.354920729","39.7588687235","20","0115"
"清源公园站","01150132","0132","清源西路","116.301365443","39.7433329167","20","0115"
"星光影视城北门站","01150133","0133","北兴街东段2号院19号","116.363601796","39.7747602209","20","0115"
"奥宇科技大厦站","01150134","0134","金星桥东1500米路南","116.348936895","39.7628574","30","0115"
"旭辉紫郡站","01150135","0135","兴泰街","116.312830606","39.759679485","30","0115"
"大兴桥东","01150136","0136","京开路与海北路交界东路北","116.347225611","39.7222539418","26","0115"
"区医院北","01150137","0137","兴华大街与黄村西大街交界东南口","116.3329511","39.7315067217","50","0115"
"康乃馨南门","01150138","0138","清源北路马赛公馆北门东侧","116.314234871","39.746692179","40","0115"
"自行车管理中心","01150139","0139","康乃馨城北门东侧","116.312177306","39.7500488195","20","0115"
"马赛东","01150140","0140","兴盛街马赛公馆东门对面","116.317900963","39.7473140013","40","0115"
"丽园B区南门","01150141","0141","丽园路与兴盛街交界东路北","116.318360131","39.7501396062","30","0115"
"三合北巷5号院南","01150142","0142","三合北巷路三合北巷5号院南门","116.324233517","39.7349884152","40","0115"
"三合北巷7号院南","01150143","0143","三合北巷路三合北巷7号院南门东","116.320662502","39.7345696185","40","0115"
"三合南里北门","01150144","0144","三中西巷三合南里小区北门东侧","116.323175129","39.7328043691","40","0115"
"三合南里南门","01150145","0145","黄村东大街三合南里小区南门西路北","116.322533807","39.7309086955","40","0115"
"物美大卖场","01150146","0146","黄村大街与兴丰交界路南","116.339770244","39.7316534074","30","0115"
"星城商厦","01150147","0147","兴丰大街星城商厦对面","116.339635942","39.7308286204","40","0115"
"大中电器","01150148","0148","黄村西大街与兴丰大街交界东路北","116.340533132","39.7318751421","20","0115"
"火神庙北","01150149","0149","黄村西大街宇市场路交界西路南","116.343433217","39.7317583427","30","0115"
"兴华中学南","01150150","0150","兴华大街与枣园路交界东北侧","116.325958267","39.7484537085","24","0115"
"189小区南","01150151","0151","丽园路与兴盛街交界东路北","116.315841836","39.7501245718","40","0115"
"189东门","01150152","0152","兴盛街189小区东门对面","116.317851117","39.7518861217","40","0115"
"清源西里南门","01150153","0153","清源路与兴华大街交界东路南","116.33484448","39.742590062","40","0115"
"兴政街物美","01150154","0154","兴政街与兴华大街交界西路南","116.331861391","39.7273243335","40","0115"
"科技学院","01150155","0155","清源北路与兴盛街交界东路南","116.318736323","39.7466789287","30","0115"
"大兴福音堂","01150156","0156","清源北路与兴旺路交界北100米路西","116.310538843","39.7467698731","20","0115"
"枣园东里东门","01150157","0157","兴丰大街与枣园路交界北路西","116.336700932","39.7546899349","30","0115"
"台湾街早市","01150158","0158","滨河街与枣园路交界南路东","116.341047238","39.7530709509","30","0115"
"广电中心南门","01150159","0159","兴政街广电中心南门西侧","116.343523155","39.7263226986","30","0115"
"科技大厦","01150160","0160","兴政街与兴华大街交界东路北","116.334173794","39.7278940543","30","0115"
"特警大队","01150161","0161","黄村西大街与龙和路交界东","116.344237922","39.7321582063","20","0115"
"时代龙河东","01150162","0162","龙河路时代龙河小区东门南","116.343929934","39.7341768942","30","0115"
"187北门","01150163","0163","康庄路与兴盛街交界西路北","116.31665611","39.7566910887","28","0115"
"50号院北门","01150164","0164","康庄路西石化学院 南校区西侧","116.313128538","39.7567255019","40","0115"
"安装大厦","01150165","0165","康庄路与兴业路交界东路南","116.323231643","39.7570521523","30","0115"
"骏城东门","01150166","0166","康庄路与兴盛街交界北路西","116.317540385","39.7579203541","28","0115"
"丽园路兴丰路口","01150167","0167","兴丰大街与丽园路交界东南侧","116.338361198","39.7499094732","30","0115"
"七中北","01150168","0168","清源北路与兴丰大街交界西路南","116.338985626","39.7452784095","26","0115"
"金地小区南门","01150169","0169","金星路与兴盛街交界西路北","116.315082877","39.7634626413","40","0115"
"大兴影剧院","01150170","0170","黄村西大街与兴丰街交界西200米路北","116.315082877","39.7634626413","28","0115"
"妇儿楼","01150171","0171","黄村西大街与兴华大街交界东路北","116.335855718","39.7318296574","34","0115"
"新华书店南","01150172","0172","黄村西大街与兴丰街交界西","116.339123165","39.7318580859","20","0115"
"大兴三中","01150173","0173","三中巷大兴三中西侧","116.337559685","39.7334403694","36","0115"
"兴丰家园西门","01150174","0174","兴丰大街兴丰家园小区西门南侧路东","116.339579981","39.7332449374","30","0115"
"兴旺公园南","01150175","0175","黄村西大街与兴旺路交界南路西","116.321453012","39.7300329226","38","0115"
"兴旺公园北","01150176","0176","三合北巷与兴旺路交界北路西","116.31671297","39.7370350958","38","0115"
"马赛东门","01150177","0177","大兴马赛小区东门路南","116.315199307","39.7452734555","38","0115"
"百联清城南","01150178","0178","兴华大街与富强路交界西北","116.332193378","39.7376650459","28","0115"
"清城北区","01150179","0179","富强路清城北区南门东","116.32732183","39.7375090221","22","0115"
"康顺园南口","01150180","0180","康庄路与滨河路交界西路北","116.340329508","39.7584320212","30","0115"
"康顺园","01150181","0181","滨河路康顺园小区对面北侧","116.340366616","39.7608303836","30","0115"
"金惠园三里南门","01150182","0182","双高路与兴和街交界西200米路南","116.324635086","39.7698918861","30","0115"
"西斯莱东门","01150184","0184","辅高路西斯莱小区东门对面","116.340216155","39.7650743244","28","0115"
"高米店公交站","01150185","0185","金星路与辅高路交界东路北","116.341042167","39.7632433139","30","0115"
"郁花园一里北门","01150186","0186","北兴路与京开辅路交界西路南","116.338860733","39.7761681185","40","0115"
"郁花园二里北门","01150187","0187","北兴路与兴华大街交界东路南","116.333603493","39.7767040821","40","0115"
"农业银行南","01150188","0188","兴丰大街与红楼西巷交界处","116.339659207","39.725063417","20","0115"
"大兴妇幼南","01150189","0189","兴丰大街与富强路交界南路东","116.339593969","39.7332589376","20","0115"
"保利西门","01150190","0190","兴和街与香园路交界北路东","116.327305359","39.7748129808","40","0115"
"郁花园一里南门西","01150191","0191","香园路与兴丰大街交界东路北","116.335617219","39.7726448288","30","0115"
"高米店公园","01150192","0192","双高路与辅高路交界东","116.340498762","39.7697204168","30","0115"
"保利东门","01150193","0193","兴华大街与香园路交界北路西","116.330545323","39.7748312203","30","0115"
"东方时尚","01150194","0194","金星西路东方时尚驾校南门路东","116.303535301","39.7632707599","36","0115"
"君谊中学","01150195","0195","兴业路与香园路交界东路北","116.323073251","39.7730874608","20","0115"
"兴涛北门","01150196","0196","乐园路与兴业路交界东路南","116.323997485","39.7667565325","20","0115"
"50号院西","01150197","0197","康庄路中巷50号院西侧","116.311601696","39.7555535449","40","0115"
"康一停车场","01150198","0198","枣园路康一停车场对面","116.314324246","39.7529957552","30","0115"
"红木林南","01150199","0199","枣园路与兴业路交界东路北","116.325672572","39.7529932203","30","0115"
"大兴职介","01150200","0200","清源路与兴业路交界东路南","116.339025948","39.7193540033","28","0115"
"印刷学院南门","01150201","0201","兴华大街与清源路就交界西路北","116.33538501","39.7184489978","30","0115"
"火车站地铁东南口","01150202","0202","兴华大街与林校路交界东南角","116.339025948","39.7193540033","40","0115"
"西大街地铁西北口","01150203","0203","黄村西大街与兴华大街交界西北角","116.327038235","39.7168938129","30","0115"
"火车站地铁东北口","01150204","0204","兴华大街与林校路交界北100米路东","116.338480488","39.7317374605","30","0115"
"老干部中心","01150205","0205","兴政南巷与林校路交界北路东","116.34219345","39.724672012","20","0115"
"兴水家园","01150206","0206","林校路兴水家园北","116.339561999","39.7332239378","40","0115"
"义和庄东里东","01150207","0207","林校路义和庄东里东侧","116.332942441","39.7122527704","20","0115"
"漪景园","01150208","0208","林校路漪景园小区对面","116.330939778","39.7071853364","40","0115"
"锦华园小区","01150209","0209","义和庄东路锦华园小区东","116.327685056","39.7166001568","40","0115"
"锦华园小区东","01150210","0210","兴华大街与义和庄东路交界西路南","116.331012125","39.7166461367","30","0115"
"兴达中学","01150211","0211","海北路南侧兴达中学对面","116.354807886","39.720635074","26","0115"
"广厦家园","01150212","0212","海北路广厦家园小区东侧","116.350577301","39.7219973085","40","0115"
"新安里南","01150213","0213","团河路新安里小区南","116.354671119","39.7370427874","40","0115"
"团河早市","01150214","0214","清源东路碱河桥东","116.354420045","39.7429808971","38","0115"
"医院1","01150215","0215","区医院内部","116.334301052","39.7307238928","40","0115"
"医院2","01150216","0216","区医院内部","116.334206224","39.7307233888","44","0115"
"医院3","01150217","0217","区医院内部","116.334278108","39.7307067765","44","0115"
"医院4","01150218","0218","区医院内部","116.334144344","39.7307160575","48","0115"
"义和庄地铁西南口","01150219","0219","新源大街义和庄地铁西南侧","116.319120253","39.7115329578","38","0115"
"义和庄地铁东南口","01150220","0220","新源大街义和庄地铁东南口","116.319539156","39.7123994933","42","0115"
"汇源路公交路站","01150221","0221","永华路铁道桥西路南","116.32420785","39.7233433991","40","0115"
"西红门地铁东北角","01150222","0222","兴华大街西红门地铁东北侧","116.328752423","39.7909225212","40","0115"
"西红门地铁西南角","01150223","0223","西红门地铁西南角南侧","116.328562724","39.7893431366","40","0115"
"西红门工商银行","01150224","0224","欣旺大街工商银行南侧","116.338691087","39.7912528245","40","0115"
"经适房北门","01150225","0225","宏业路经适房北门西侧","116.34107418","39.7847298184","40","0115"
"曦望山西门","01150226","0226"," 欣旺大街曦望山小区西侧","116.339063458","39.7861996445","40","0115"
"西红门消防队","01150227","0227","宏康路西红门消防队东侧","116.33213851","39.7825013632","30","0115"
"西红门医院","01150228","0228","同华大街西红门 医院南侧","116.338749022","39.7395119679","36","0115"
"西红门实验学校","01150229","0229","长盛路实验学校西侧","116.341016391","39.7956270634","26","0115"
"西红门九银银行","01150230","0230","同华大街与宏都路交界南路西","116.344900242","39.7955947695","40","0115"
"兴海公园西","01150231","0231","宏福路兴海公园西侧","116.332388216","39.7903395949","40","0115"
"兴润水务","01150232","0232","永华路兴润水务东侧","116.322249777","39.7238076811","30","0115"
"宏大北园西门","01150233","0233","欣旺大街与西红门路交界南路东","116.33999805","39.7985862981","30","0115"
"兴海家园月苑东","01150234","0234","欣旺街与西红门北二街交界南路西","116.339061162","39.794039938","40","0115"
"西红门镇政府北","01150235","0235","南西路西红门政府对面","116.350515769","39.7899887235","40","0115"
"西红门镇政府南","01150236","0236","南西路西红门政府对面","116.350470609","39.7899751521","40","0115"
"社区执法队","01150237","0237","欣海北路与西红门北环路交界南路西","116.333826821","39.7965803656","26","0115"
"兴海公园","01150238","0238","宏福路兴海公园北门对面","116.334428218","39.7906541307","24","0115"
"大兴电大","01150239","0239","清源地铁东南侧","116.332917874","39.7410054073","38","0115"
"清源地铁东南口","01150240","0240","清源地铁东南侧","116.332971721","39.7410787461","48","0115"
"高米店地铁东南口","01150241","0241","高米店地铁东南口东侧","116.332260707","39.7622283776","28","0115"
"清西巷5号院西","01150242","0242","欣荣大街与宏福路交界南路东","116.343941461","39.788851002","24","0115"
"高米店地铁东南角","01150243","0243","高米店地铁东南口东侧","116.332273855","39.7625375316","46","0115"
"高米店地铁","01150244","0244","高米店地铁东南口东侧","116.332273869","39.7625615364","28","0115"
"观音寺北里北门","01150245","0245","南湖巷观音寺北里北门对面","116.347129284","39.7286684712","30","0115"
"北京好景巷东","01150246","0246","永兴路与天荣大街交界西","116.3105091","39.6846242271","40","0115"
"北京好景巷西","01150247","0247","永兴路与天荣大街交界西","116.310107622","39.6846298483","42","0115"
"永兴路5号院南门","01150248","0248"," 永兴路东5号院南门","116.32517694","39.684913102","28","0115"
"世农大厦","01150249","0249","天荣街与永大路交界南路西","116.311192162","39.6860518823","32","0115"
"天荣街南段","01150250","0250","天荣街与庆丰路交界南200米路西","116.311205427","39.6757686312","40","0115"
"思邈路公交站","01150251","0251","思邈路829公交站","116.313852456","39.6699843723","32","0115"
"天宫院地铁东北口","01150252","0252","新源大街天宫院地铁东北口处","116.320065242","39.6712498326","30","0115"
"金融街","01150253","0253","新源大街金融街南","116.320188973","39.6757198933","40","0115"
"大兴二职","01150254","0254","庆丰路大兴二职东侧","116.319324401","39.6784206097","30","0115"
"民和路东口","01150255","0255","民和路与新源大街交界西路南","116.321533623","39.6942872159","40","0115"
"新源时代小区南","01150256","0256","永大路新源时代小区南","116.325754077","39.6881825853","30","0115"
"民和路西口","01150257","0257","民和路西口星伟体育门前","116.319139463","39.6942355952","30","0115"
"永大路公交站","01150258","0258","永大路与天富大街交界东路南","116.303541684","39.6880446676","32","0115"
"永大路天贵口","01150259","0259","永大路与天贵路交界北路东","116.307005695","39.6884812793","26","0115"
"北臧村镇政府","01150260","0260","天富大街北臧村政府北侧","116.302335515","39.6864829647","30","0115"
"天河西路中段","01150261","0261","天河西路与天荣街交界东路北","116.312093864","39.6917115071","30","0115"
"新居里西门","01150262","0262","新居里小区西门南侧","116.356411943","39.738825286","22","0115"
"新安里东门","01150263","0263","新安里小区东门南侧","116.355724847","39.7405683246","40","0115"
"观音寺小学","01150264","0264","观音寺街观音寺小学北侧","116.348870587","39.7299729862","40","0115"
"民政局","01150265","0265","观音寺街观音寺小学北侧","116.346389169","39.725962097","30","0115"
"泰中花园北","01150266","0266","广茂大街与金星路交界西路南","116.34716742","39.7630348147","30","0115"
"泰中花园","01150267","0267","广茂大街泰中花园小区对面","116.345895351","39.7423698955","42","0115"
"观音寺街道","01150268","0268","京开辅路与兴亦路交界东南","116.345895351","39.7423698955","40","0115"
"桐城北门","01150269","0269","桐城行政服务中心内部自行车棚内","116.328070387","39.7259832799","42","0115"
"南湖园小区","01150270","0270","双河南里南海园小区门前","116.375552611","39.7286815014","32","0115"
"金星路部队","01150271","0271","金星路东侧路北","116.351392825","39.7629915149","38","0115"
"检察院","01150272","0272","兴华大街与金星路交界南路西","116.331672763","39.7614679003","30","0115"
"兴涛南门","01150273","0273","金星路与兴业路交界东路北","116.323851898","39.7635058058","30","0115"
"百联清城北","01150274","0274","百联清城内部停车场北侧","116.332049801","39.7392696974","20","0115"
"大兴电大2","01150275","0275","清源地铁东南口南侧","116.332824028","39.7411257723","24","0115"
"大兴电大4","01150276","0276","清源地铁东南口南侧","116.332792131","39.7410595712","46","0115"
"大兴交通队","01150277","0277","清源路大兴交通队门前","116.341137611","39.7426882944","40","0115"
"丽园C区北门","01150278","0278","丽园路与兴业大街交界西路北","116.320661473","39.7501636512","38","0115"
"兴华园东","01150279","0279","清源北路与兴丰大街交界东路北","116.338754676","39.7453731811","30","0115"
"绿色庄园","01150280","0280","海子角喜盛街南路东","116.355698604","39.7157921018","40","0115"
"团河所","01150281","0281","团河所内部","116.381646561","39.7363669138","40","0115"
"沐新路1号","01150282","0282","沐新路1号路南","116.367685301","39.7402080233","40","0115"
"团河所东","01150283","0283","团河所东侧路南","116.382946064","39.7362919799","36","0115"
"义和庄停车场","01150284","0284","新源大街义和庄停车场北侧","116.31977524","39.7108727275","30","0115"
"供暖中心","01150285","0285","供暖中心内部","116.305407844","39.7464253761","36","0115"
"波普公社西","01150286","0286","丽园路与兴华大街交界西路南","116.330350354","39.7501150059","22","0115"
"大兴植保站","01150287","0287","大兴农药管理站门前","116.324154857","39.6975734426","32","0115"
"北京小学翡翠城分","01150288","0288","兴盛街与乐园路交界北路西","116.316763067","39.7679550607","40","0115"
"团河苑小区","01150289","0289","兴亦路团河苑小区西侧","116.371189631","39.7409393433","40","0115"
"路政执法队","01150290","0290","海北路与喜盛街交界东路 南","116.355697833","39.7216660608","36","0115"
"区委党校","01150291","0291","大兴区区委党校内部","116.296062125","39.73119481","48","0115"
"首座御园","01150292","0292","兴亦路首座御园南门东侧","116.367329667","39.7411762689","50","0115"
"大兴卫校","01150293","0293","永华路大兴卫校门前","116.317325262","39.7230344124","20","0115"
"首座御园2","01150294","0294","兴亦路首座御园南门东侧","116.367510787","39.7411590101","50","0115"
"长途站停车场","01150295","0295","京开辅路长途站停车场内部","116.344487677","39.7316762809","40","0115"
"长途站2","01150296","0296","京开辅路长途站停车场内部","116.344339433","39.7317089085","40","0115"
"长途站3","01150297","0297","京开辅路长途站停车场内部","116.344339433","39.7317089085","40","0115"
"T4","01150298","0298","枣园路T4停车场内部","116.329674676","39.7533409672","36","0115"
"高米店北1","01150299","0299","香园路与兴华大街交界西路北","116.329674676","39.7533409672","26","0115"
"高米店北2","01150300","0300","香园路与兴华大街交界西路北","116.328916864","39.7730705355","22","0115"
"西红门地铁西北角","01150301","0301","欣宁街与宏福路交界西路北","116.328118842","39.7911220086","24","0115"
"行政服务中心内1","01150302","0302","兴华大街清城小区南区东门北侧行政服务中心内","116.328118842","39.7911220086","20","0115"
"行政服务中心内2","01150303","0303","兴华大街清城小区南区东门北侧行政服务中心内","116.330923855","39.7374522723","20","0115"
"天堂河警务工作站","01150304","0304"," 天堂河警务工作站南侧","116.327737177","39.6684041049","40","0115"
"天堂河戒毒所西","01150305","0305","西庄路北侧","116.332071853","39.6593108215","20","0115"
"天堂河小区","01150306","0306","天堂河小区北区东侧","116.32791862","39.672030101","20","0115"
"天堂河小区西","01150307","0307","天堂河小区南区北门对面","116.32680078","39.6718785324","20","0115"
"中国银行","01150308","0308","兴丰大街与兴政街交界北路西","116.339259774","39.7276954116","26","0115"
"天堂河小区东","01150309","0309","天堂河农场小区西侧","116.33044434","39.6722107975","30","0115"
"天堂河","01150310","0310","天堂河管教所南侧","116.330854219","39.6604296625","30","0115"
"国土局","01150311","0311","京开辅路东侧国土局院内","116.346190348","39.7439779844","20","0115"
"大兴城管大队","01150312","0312","广阳大街城管大队南侧","116.367353509","39.718150599","40","0115"
"国土局西","01150313","0313","京开 辅路与兴亦路交界北100米路东","116.345038183","39.7441011955","40","0115"
"火车站分调度1","01150314","0314","兴华大街与林校路交界西","116.332167821","39.7229659786","50","0115"
"火车站分调度2","01150315","0315","兴华大街与林校路交界西","116.332158728","39.7230838743","50","0115"
"火车站分调度3","01150316","0316","兴华大街与林校路交界西","116.332043103","39.7229930636","50","0115"
"火车站分调4","01150317","0317","兴华大街与林校路交界西","116.332043075","39.7230210542","50","0115"
"第三分所","01150318","0318","第三看守所东侧车棚内","116.394452347","39.7366299544","48","0115"
"天堂河戒毒所","01150319","0319","西庄路北侧","116.332519821","39.6593660171","30","0115"
"天堂河戒毒所东","01150320","0320","西庄路北侧","116.332187474","39.6592176278","20","0115"
"利康医院","01150321","0321","纬四路南侧","116.328371797","39.6672405222","20","0115"
"天堂河少管所","01150322","0322","天堂河少管所东侧","116.33118313","39.6794726397","20","0115"
"天堂河女看","01150323","0323","纬四路南侧","116.332159735","39.6676691635","30","0115"
"新安里分调度1","01150324","01150324","","116.350427837","39.7317235914","36","0115"
"新安里分调度2","01150325","01150325","","116.350618415","39.7317817399","36","0115"
"新安里分调度3","01150326","01150326","","116.350798944","39.7318699496","40","0115"
"少管所","01150327","01150327","","116.385139273","39.7251305396","40","0115"
"翰林院东","01150328","01150328","","116.326279859","39.7203237965","20","0115"
"生物医药基地东","01150335","01150335","新源大街生物医药站东","116.338480491","39.7317344613","30","0115"
"枣园地铁西南口","01150371","01150371","京开辅路与团河路交界 南路西","116.338480491","39.7317344613","18","0115"
"企业大道站","01151001","01151001","荣华南路与荣昌东街交界处","116.520360938","39.7812710142","20","0115"
"中冀斯巴鲁站","01151002","01151002","荣华南路与锦绣街交界处","116.517742652","39.7839546004","20","0115"
"国锐金顶站","01151003","01151003","荣华中路与荣京西街交汇处东南角","116.504547029","39.7849216674","20","0115"
"开发区总公司站","01151004","01151004","荣华南路与地泽北街交界处","116.514430718","39.7864881146","20","0115"
"博大公园北门站","01151005","01151005","天华南街与荣华中路交界西","116.496470733","39.7921785979","20","0115"
"交通银行站","01151006","01151006","隆庆街与宏达北路交界东","116.500152971","39.7940783719","20","0115"
"创新大厦站","01151007","01151007","隆庆街与宏达北路交界西","116.501742124","39.7952343052","20","0115"
"农业银行站","01151008","01151008","中和街与宏达北路交界西","116.502363465","39.7927645021","20","0115"
"可口可乐站","01151009","01151009","荣京东街与永昌北路交界东","116.510915845","39.7903936778","20","0115"
"上海沙龙南门站","01151010","01151010","荣京西街与天宝中路交界西","116.494681537","39.7827166923","20","0115"
"卡尔生活馆南门站","01151011","01151011","荣京西街与天宝西路交界北","116.491057608","39.7810411549","20","0115"
"金地格林小镇北门","01151012","01151012","天华西路与天华东路交界东","116.490290545","39.7892278807","20","0115"
"林肯公园西门站","01151013","01151013","北环西路与天华西路交界北路东","116.484188534","39.7962791694","20","0115"
"一栋洋房西门站","01151014","01151014","科慧大道与天华交界北","116.486598955","39.7907351308","20","0115"
"米兰天空站","01151015","01151015","亦兴北路与贵园北里交界西","116.468755775","39.7941868537","20","0115"
"瀛景园北门站","01151016","01151016","贵园中路与亦兴南路交界东","116.470768175","39.7894874215","20","0115"
"贵园南里丁区站","01151017","01151017","天宝北街与贵园南路交界处","116.474300491","39.7881375613","20","0115"
"亦庄镇政府站","01151018","01151018","西环北里与北环西路交界处","116.475621564","39.7945323954","20","0115"
"供电局站","01151019","01151019","北环东路与永昌北路交界东","116.501645814","39.8033972397","20","0115"
"网通东门站","01151020","01151020","经网路与文化园东路交界南","116.496155447","39.8037463974","20","0115"
"和路雪站","01151021","01151021","万源街与同济北路交界西","116.506025473","39.8012270723","20","0115"
"一品亦庄站","01151022","01151022","天华北街与荣华中路交界西","116.493756795","39.7953770339","20","0115"
"境界家园北门站","01151023","01151023","广德中巷与科慧大道交界西","116.478644551","39.7922086994","20","0115"
"大雄城市花园西门","01151024","01151024","天华西路在中段","116.48551524","39.7944454613","20","0115"
"隆盛大厦站","01151025","01151025","永昌中路与荣昌东街交界西","116.525868083","39.7838375463","20","0115"
"三箭和众鼎站","01151026","01151026","同济中路与荣昌东街交界北","116.529761543","39.7870365176","20","0115"
"南海家园三里南门","01151027","01151027","泰河一街与博兴八路交界西","116.495830279","39.7616500406","20","0115"
"鹿海园三里北门站","01151028","01151028","泰河一街与博兴八路交界东","116.500596722","39.7608211904","20","0115"
"泰河园一里南门站","01151029","01151029","凉水河二街与博兴八路交界东","116.496191925","39.760753606","20","0115"
"林肯公园南门站","01151030","01151030","文化园路与天华东路交界南","116.488234133","39.797817528","20","0115"
"亦庄北岸站","01151031","01151031","北京市大兴区旧宫镇旧头路路南","116.462497339","39.7989114965","20","0115"
"灵秀山庄站","01151032","01151032","北京市大兴区旧头路","116.459367176","39.8006448935","20","0115"
"旧宫新苑站","01151033","01151033","旧头路，旧宫新苑小区南区北门","116.454451896","39.8005008636","20","0115"
"旧宫物美站","01151034","01151034","旧忠路与庑电路向西50米","116.443858656","39.8048888761","20","0115"
"党群活动中心站","01151035","01151035","凉水河一街与博兴三路交界西","116.52152509","39.7639366672","20","0115"
"金风科创二期站","01151036","01151036","泰河路与博兴一路交界北","116.530514223","39.7566152182","20","0115"
"金风科创一期站","01151037","01151037","康定街与同济南路交界东","116.543147202","39.7748549076","20","0115"
"京东方宿舍东门站","01151038","01151038","地泽路与荣昌西街交界西","116.516355277","39.7778866053","20","0115"
"B7医药平台西站","01151039","01151039","医药平台园区内","116.539380783","39.8019201324","20","0115"
"B7医药平台东站","01151040","01151040","医药平台园区内","116.541549259","39.8030552111","20","0115"
"宣颐家园东门站","01151041","01151041","","116.455682389","39.8108773403","20","0115"
"润星家园站","01151042","01151042","庑殿路与吉百利路交界东","116.443669524","39.8155862734","20","0115"
"行政服务中心","01151043","01151043","万源街与荣华中路交界南","116.496564348","39.7964580972","20","0115"
"京东方八代线东门","01151044","01151044","经海三路与科创十街交界北","116.549988665","39.7889425493","20","0115"
"瑞森站","01151045","01151045","科创五街与经海三路交界北","116.535759992","39.8057978049","20","0115"
"河西物美站","01151046","01151046","凉水河一街与博兴八路交界东","116.502342645","39.7704474064","20","0115"
"航天长征站","01151047","01151047","经海四路与科创十五届交界北","116.566305223","39.7757332028","20","0115"
"力宝北门站","01151048","01151048","荣华中路与北环东路交界处","116.494504301","39.800504822","20","0115"
"宣颐家园北门站","01151049","01151049","","116.452478208","39.8131296527","20","0115"
"博大大厦北门站","01151050","01151050","博大大厦北门","116.506152929","39.7956444275","20","0115"
"北京电子科技学院","01151051","01151051","凉水河一街与博兴路七街交叉口","116.505918093","39.7692288474","20","0115"
"奔驰西门站","01151052","01151052","博兴路北京奔驰1号门南侧","116.508871103","39.7550127626","20","0115"
"公租房北门站","01151053","01151053","凉水河二街于博兴六路交叉口东侧200米","116.511213037","39.7643829334","20","0115"
"公租房西门站","01151054","01151054","凉水河二街与博兴六路交叉口向东200米","116.50852392","39.7635377313","20","0115"
"中芯国际1号门站","01151055","01151055","文昌大道","116.506442857","39.7824869419","20","0115"
"荣京东街地铁站","01151056","01151056","荣京东街A口 西南角","116.506859519","39.7877437892","20","0115"
"开发区交通队站","01151057","01151057","科创四街与京海三路交叉口向东300米","116.534854472","39.8095060425","20","0115"
"诺基亚站","01151058","01151058","同济中路与兴盛街交叉口向南300米","116.523471135","39.7949303965","20","0115"
"可口可乐西门站","01151059","01151059","永昌北路与荣京东街交叉口向北200米路西侧","116.508920241","39.7912824514","20","0115"
"华润超市站","01151060","01151060","天华北街大雄城市花园南门","116.489750869","39.7937790253","20","0115"
"亦庄桥地铁站","01151061","01151061","北环西路亦庄桥地铁站","116.474518462","39.7972073415","20","0115"
"同济地铁站","01151062","01151062","康定街与同济南路交叉口","116.539933663","39.7729710236","20","0115"
"中国杂技团站","01151063","01151063","建安街中国杂技学校南门","116.533846451","39.7764661757","20","0115"
"开发区城管大队站","01151064","01151064","科创一街与经海三路交叉口向南200米开发区城管大队对","116.525413023","39.8152898869","20","0115"
"997公交车总站","01151065","01151065","科创一街与经海二路交叉口向南100米","116.52183713","39.815118023","20","0115"
"荣昌东街地铁站","01151066","01151066","荣昌东街地铁站东北角","116.522391123","39.782303793","20","0115"
"汇龙森工业园站","01151067","01151067","荣昌东街与宏达北路交叉口荣昌东街地铁站","116.559199841","39.7755314264","20","0115"
"经海路站","01151068","01151068","经海路，经海路地铁站","116.563704596","39.7837121508","20","0115"
"开发区公安局站","01151069","01151069","荣京东街开发区公安局","116.516369221","39.7929713522","20","0115"
"富士康站","01151070","01151070","同济南路","116.521183932","39.7743292085","20","0115"
"京东方八代线南门","01151071","01151071","科创十街","116.547799503","39.7857613815","20","0115"
"亦庄文化园站","01151072","01151072","文化园西路，亦庄文化园地铁站","116.485015762","39.8002855473","20","0115"
"万源街地铁站","01151073","01151073","万源街地铁，万源街站","116.497933083","39.7977852394","20","0115"
"旧宫地铁站","01151074","01151074","地铁旧宫站","116.460619257","39.8067654884","20","0115"
"富源里站","01151075","01151075","北环西路与西环北路交界口向西200米","116.471283995","39.7945336885","20","0115"
"新康家园站","01151076","01151076","北环西路与天华西路交叉口向西100米","116.481331489","39.7954972357","20","0115"
"北工大软件园东门","01151077","01151077","地盛西路与地盛北街交叉口向北200米","116.492061616","39.7787821609","20","0115"
"美廉美超市站","01151078","01151078","天宝南街与天华南路交叉口","116.492239531","39.7857914113","20","0115"
"贵园南里甲区北门","01151079","01151079","广德中巷与贵园路交叉口向东200米","116.474041623","39.7906915552","20","0115"
"天宝家园站","01151080","01151080","天宝中街与西环北路交叉口向东100米","116.482892591","39.786048398","20","0115"
"金地格林小镇西门","01151081","01151081","天宝西路与天宝南街交叉口向北100米","116.486865954","39.785548668","20","0115"
"卡尔生活馆北门站","01151082","01151082","天宝南街与天宝西路交叉口向西200米","116.486249927","39.7831988717","20","0115"
"同仁医院站","01151083","01151083","景园路站","116.521183932","39.7743292085","20","0115"
"开发区实验学校站","01151084","01151084","天宝北街与科慧大道交叉口向西100米","116.481809961","39.7900378354","20","0115"
"博兴街道办事处站","01151085","01151085","博兴八路与泰河路交叉口西南角","116.499210695","39.7633136489","20","0115"
"南海子公园南门","01151086","01151086","南海子公园南环路北侧，公园南门西侧100米停车场","116.470608508","39.7690722179","20","0115"
"向阳南街南口站","01170001","","向阳南街南口","117.119494684","40.133849889","28","0117"
"滨河小区站","01170002","","滨河小区北门东侧","117.115754159","40.1333626582","26","0117"
"文化南街南口站","01170003","","文化南街南口东侧","117.11234985","40.1316025572","26","0117"
"林荫家园东门站","01170004","","林荫家园东门南侧","117.105249298","40.1340194782","26","0117"
"供电公司站","01170005","","供电公司西侧","117.096489753","40.1345947455","32","0117"
"平谷中学南站","01170006","","平中西南角","117.119245992","40.1373262222","28","0117"
"鼎基公寓站","01170007","","鼎基公寓西北角","117.111994754","40.1366808686","20","0117"
"党校站","01170008","","党校西侧","117.106226475","40.137111327","48","0117"
"金海小区站","01170009","","金海小区南侧","117.099744191","40.136472194","26","0117"
"仁和公园站","01170010","","仁和公园南侧","117.092786512","40.1370051983","32","0117"
"广电中心站","01170011","","广电中心外","117.12969014","40.1392587957","38","0117"
"影剧院站","01170012","","影剧院外","117.12350543","40.1405584441","56","0117"
"区政府站","01170013","","区政府院内","117.121531318","40.1408850117","20","0117"
"区委站","01170014","","区委西南角","117.119232584","40.1409534655","42","0117"
"幸福小区站","01170015","","幸福小区北侧","117.115166831","40.1400965376","54","0117"
"龙凤鑫园站","01170016","","龙凤鑫园小区北侧","117.112034013","40.1398806781","32","0117"
"世纪广场南门站","01170017","","世纪广场南门西侧","117.107221737","40.1403817304","42","0117"
"岳协医院站","01170018","","岳协医院大门外西侧","117.100253797","40.1403674855","46","0117"
"社会服务中心站","01170019","","社会服务中心南门、社会服务中心院内","117.097001312","40.1402829686","176","0117"
"步行街东站","01170020","","步行街东口","117.118856394","40.1429265234","36","0117"
"步行街西站","01170021","","和美广场对面 ","117.111874601","40.1429299423","26","0117"
"中卫世纪城站","01170022","","联通公司南侧","117.110937386","40.1423032943","48","0117"
"信息大厦站","01170023","","信息大厦对面 ","117.106032311","40.1418303556","100","0117"
"农业局站","01170024","","农业局南侧","117.100038936","40.1416943502","30","0117"
"幸福阳光小区","01170025","","幸福阳光小区南侧","117.128496229","40.1460620339","26","0117"
"八方达汽车站","01170026","","八方达汽车站西侧","117.126632054","40.145359758","36","0117"
"平粮小区站","01170027","","雨燕楼饭店对面 ","117.120099172","40.1455326061","28","0117"
"北大市场站","01170028","","北大市场地下通道北侧出口","117.115497124","40.1460390357","32","0117"
"金乡嘉园站","01170029","","金乡嘉园小区西门南侧 ","117.111914129","40.1465158395","44","0117"
"盈谷中心站","01170030","","盈谷中心北门","117.110759692","40.1452288075","26","0117"
"区医院东站","01170031","","平谷区医院南门东侧 ","117.105134206","40.1457590301","26","0117"
"区医院西站","01170032","","平谷区医院南门西侧","117.103545953","40.1458494025","30","0117"
"紫贵庄园站","01170033","","紫贵庄园北门","117.099843271","40.1452146871","34","0117"
"迎宾环岛站","01170034","","迎宾环岛西南角","117.095162449","40.1445073909","38","0117"
"迎宾花园站","01170035","","迎宾花园小区北门西侧","117.0918003","40.1451469722","44","0117"
"太和园站","01170036","","亿海明珠会馆北侧","117.131759246","40.1497882527","30","0117"
"大牌楼站","01170037","","大牌楼东北角","117.123372033","40.1506672186","28","0117"
"东晓酒店站","01170038","","东晓新越酒店门口","117.117371465","40.1506108249","38","0117"
"光明西小区站","01170039","","福成肥牛（二店）北侧","117.111611242","40.1497862184","52","0117"
"平谷五中站","01170040","","五中南门西侧","117.106852644","40.150412331","48","0117"
"金乡西小区站","01170041","","农机驾校对面","117.100750096","40.1495308359","44","0117"
"自行车服务中心","01170042","","平谷南街4号","117.129255364","40.1533763148","26","0117"
"鑫海韵通大卖场","01170043","","鑫海韵通大卖场南侧","117.125616495","40.1540964777","50","0117"
"和平家园站","01170044","","和平家园东门南侧","117.122387596","40.1540845267","46","0117"
"乐园西小区站","01170045","","新奥燃气公司对面","117.11480121","40.1533234872","42","0117"
"大红果饭店","01170046","","大红果饭店门口南侧","117.111704437","40.1534535172","28","0117"
"园丁小区站","01170047","","园丁小区9号楼前","117.10611424","40.1524347602","24","0117"
"永安家园站","01170048","","永安家园西门北侧","117.101746364","40.1532937355","40","0117"
"电视塔环岛站","01170049","","电视塔环岛东南角","117.123286017","40.1558512717","46","0117"
"腾龙源城站","01170050","","腾龙源城西门北侧","117.111598434","40.1567911522","56","0117"
"华远澜悦站","02280001","02280001","白云街华远澜悦西侧便道","116.843446512","40.3978537263","24","0228"
"檀营生态城站","02280002","02280002","檀营生态城小区门口","116.873780453","40.3914153194","40","0228"
"梧桐苑小区东门站","02280003","02280003","行宫街梧桐苑小区东门北侧便道","116.862542986","40.3921931387","50","0228"
"久润花园东区站","02280004","02280004","新北路久润花园东区西侧便道","116.86360544","40.388866052","36","0228"
"百合园站","02280005","02280005","新北路 宾阳北里2号楼前","116.859306669","40.3885187636","50","0228"
"云秀花园别墅南门站","02280006","02280006","云秀花园别墅南门东侧便道","116.851241526","40.3903499245","40","0228"
"行宫御东园站","02280007","02280007","行宫街行宫御东园南侧便道","116.862551914","40.3873625215","40","0228"
"宾阳北里站","02280008","02280008","新东路宾阳北里北侧便道","116.858491846","40.3871716271","78","0228"
"车站南路社区站","02280009","02280009","新北路车站南路社区东侧便道","116.855932076","40.3885965174","70","0228"
"沿湖小区站","02280010","02280010","新北路沿湖小区东侧便道","116.851891088","40.3885795596","36","0228"
"？百事城西门站","02280011","02280011","新中街百事城西门北侧侧便道","116.853955853","40.3873219449","50","0228"
"滨河园站","02280012","02280012","新北路滨河园西侧便道","116.845630797","40.3886029711","40","0228"
"密西花园站","02280013","02280013","新北路密西花园东侧便道","116.841365421","40.3886111931","40","0228"
"大唐庄东区站","02280014","02280014","新北路大唐庄东区西侧便道","116.83725641","40.3886297316","40","0228"
"职业中学站","02280015","02280015","果园西路职业中学南侧便道","116.826723733","40.3867394521","24","0228"
"唐源云居站","02280016","02280016","果园西路康源云居北侧侧便道","116.826280234","40.3840593054","40","0228"
"绿地国际花都站","02280017","02280017","城后街绿地国际花都西侧便道","116.837984075","40.3843046602","24","0228"
"滨河公园站","02280018","02280018","城后街滨河花园西侧便道","116.843529352","40.3835690414","40","0228"
"沿湖小区南门站","02280019","02280019","城后街沿湖小区南门东侧便道","116.849278899","40.3835354098","40","0228"
"玉兰公园站","02280020","02280020","新中街 玉兰公园东门对面","116.850107844","40.3811834595","40","0228"
"法制公园站","02280021","02280021","行宫街法制公园路西南侧便道","116.862345156","40.3834221903","40","0228"
"石桥西区站","02280022","02280022","石桥西区西侧便道","116.867560937","40.3837666572","40","0228"
"行宫小区站","02280023","02280023","檀西路行宫小区北侧便道","116.865755321","40.3814932077","40","0228"
"行宫南区站","02280024","02280024","檀西路行宫南区北侧便道","116.866401247","40.3786402944","40","0228"
"宾阳西里站","02280025","02280025","新东路宾阳西里南侧便道","116.859255041","40.381793295","42","0228"
"宾阳西里小区站","02280026","02280026","新东路宾阳西里小区南侧便道","116.858656519","40.3796172737","38","0228"
"密东广场站","02280027","02280027","育才路密东广场路西北侧便道","116.85579807","40.3769107629","24","0228"
"富民新区东门站","02280028","02280028","富民新区东门北侧步道","116.855282013","40.375950447","40","0228"
"密云县中医院站","02280029","02280029","新中街 中医院北侧便道","116.851209086","40.3794387676","40","0228"
"图书馆站","02280030","02280030","鼓楼东大街图书馆西侧便道","116.848769494","40.3761760529","40","0228"
"密云县委党校站","02280031","02280031","党校路县委党校北侧便道","116.843518681","40.3860820994","40","0228"
"新华书店站","02280032","02280032","鼓楼南大街 新华书店前","116.846129632","40.3758256027","40","0228"
"县政府站","02280033","02280033","鼓楼东大街县政府西侧便道","116.843039228","40.3761818052","80","0228"
"康居南区南门站","02280034","02280034","公园街康居南区东侧侧便道","116.836338682","40.3779359698","40","0228"
"康居南区西门站","02280035","02280035","新西路人力社保局南侧便道","116.835203455","40.3800540145","40","0228"
"果园新里北区东门站","02280036","02280036","新西路职果园新里北区东门对面便道","116.835056169","40.3763446311","78","0228"
"果园新里中区站","02280037","02280037","新西路果园新里中区南侧便道","116.83424055","40.3731389306","40","0228"
"果园新里北区北门站","02280038","02280038","西门外大街果园新里东侧便道","116.832738577","40.3776033621","50","0228"
"季庄小区站","02280039","02280039","公园街季庄小区西侧便道","116.827692857","40.3783099272","30","0228"
"康馨雅苑站","02280040","02280040","果园西路康馨雅苑南侧便道","116.826250436","40.3771791037","40","0228"
"学府花园北门站","02280041","02280041","果园北街学府花园北门东侧便道","116.82407065","40.3750872816","40","0228"
"学府花园西门站","02280042","02280042","兴云路学府花园西门北侧便道","116.82169604","40.3737606615","40","0228"
"首师大密云附属中学站","02280043","02280043","果园中街附属中学向西200米北侧便道","116.817723309","40.3716163563","40","0228"
"兴云医院站","02280044","02280044","兴云路兴云医院路西北侧便道","116.821223937","40.3681536885","40","0228"
"海怡庄园站","02280045","02280045","京密路海怡庄园西侧便道","116.811977154","40.3628737335","40","0228"
"博世庄园站","02280046","02280046","京密路博世庄园西侧便道","116.808036435","40.3609135737","34","0228"
"十里堡镇政府站","02280047","02280047","十里堡镇政府正门西侧便道","116.799880021","40.3570924251","20","0228"
"明珠花园站","02280048","02280048","明珠公园正门西侧便道","116.790147134","40.3519175653","34","0228"
"广电局站","02280049","02280049","西大桥路密云广电局西侧便道","116.823523867","40.3668838418","40","0228"
"果园西里西门站","02280050","02280050","果园西路果园西里西门北侧便道","116.826693889","40.3701110607","40","0228"
"果园西里甲区站","02280051","02280051","果园北街果园西里北门东侧便道","116.828022418","40.3749023174","40","0228"
"果园西里北门站","02280052","02280052","果园西里北门西侧便道","116.828542869","40.372795571","40","0228"
"果园新里南区站","02280053","02280053","果园路新里南区东门南侧便道","116.834030856","40.3699695213","40","0228"
"首经贸大学密云分校","02280054","02280054","京密路密云分校东侧便道","116.829768588","40.3682267228","34","0228"
"赏云轩嘉园站","02280055","02280055","滨河路赏云轩嘉园北侧便道","116.837650866","40.3662625708","34","0228"
"长安小区南区站","02280056","02280056","光明街长安小区南区西侧便道","116.83944469","40.372819455","50","0228"
"长安小区站","02280057","02280057","鼓楼南大街长安小区南侧便道","116.845389242","40.3717033773","50","0228"
"京客隆站","02280058","02280058","新南路 京客隆西侧","116.847484804","40.3700433078","30","0228"
"白檀小区站","02280059","02280059","通城胡同白檀小区东侧100米便道","116.8512301","40.3730681464","50","0228"
"檀州家园站","02280060","02280060","新南路檀州家园西侧便道","116.842874927","40.369176292","34","0228"
"檀州家园东区站","02280061","02280061","南河路檀州家园东区北侧便道","116.846650858","40.3679277011","40","0228"
"绿港家园站","02280062","02280062","阳光街绿港家园东侧便道","116.842897905","40.3635193836","40","0228"
"太扬家园站","02280063","02280063","滨河路太扬家园北侧便道","116.836003949","40.3599424516","34","0228"
"蓝河湾站","02280064","02280064","水源路蓝河湾东侧便道","116.840825154","40.3580698228","34","0228"
"宁静之都站","02280065","02280065","新中街宁静之都北侧便道","116.851940677","40.3685948095","40","0228"
"花园小区南门站","02280066","02280066","京密路花园小区南门西侧便道","116.855016091","40.3713225537","28","0228"
"檀城东区站","02280067","02280067","阳光街檀城东区东侧便道","116.854677529","40.3671302584","40","0228"
"阳光家园站","02280068","02280068","花园路阳光家园南侧便道","116.857652556","40.3686522607","40","0228"
"国土分局/农业委站","02280069","02280069","水源路国土分局/农业委东侧便道","116.8595696","40.3648937139","26","0228"
"东菜园小区站","02280070","02280070","鼓楼东大街东菜园小区西侧便道","116.861430279","40.3761152059","40","0228"
"财政局站","02280071","02280071","鼓楼东大街财政局西侧便道","116.865556403","40.3763538868","40","0228"
"县卫生局站","02280072","02280072","京密路县卫生局西侧便道","116.868315303","40.3761497884","40","0228"
"县医院南门站","02280073","02280073","阳光街县医院南门便道","116.871125208","40.3737524136","40","0228"
"建委站","02280074","02280074","水源路与檀西路交口建委西侧便道","116.870807591","40.3708131375","30","0228"
"保利花园（北区）站","02280075","02280075","阳光街保利花园（北区）西侧便道","116.866481062","40.3718200054","40","0228"
"妇幼保健院站","02280076","02280076","新南路妇幼保健院西侧便道","116.8607237","40.3731299916","40","0228"
"银河湾西门站","02280077","02280077","新东路银河湾西门北侧便道","116.86083853","40.3711625708","40","0228"
"银河湾南门站","02280078","02280078","阳光街银河湾南门东侧便道","116.86288842","40.3703968358","40","0228"
"保利花园南区站","02280079","02280079","水源路保利花园南区东侧便道","116.865178271","40.3681040194","34","0228"
"河南寨镇政府站","02280080","02280080","顺密路河南寨镇政府东侧便道","116.826171279","40.3312640703","40","0228"
"区政府院内","02280081","02280081","区政府院内（不列具体位置）","116.84319241","40.3764672891","22","0228"
